[{"company_name":"Snaptags","address":"9 Dorton Park","city":"Nagoya-shi","zip_code":"117"},
{"company_name":"Skiptube","address":"02195 Crescent Oaks Road","city":"Iriga City","zip_code":"2"},
{"company_name":"Wordtune","address":"78 Portage Terrace","city":"Rancabugel","zip_code":"7955"},
{"company_name":"Skalith","address":"30 Warbler Plaza","city":"Tosontsengel","zip_code":"5347"},
{"company_name":"Trunyx","address":"122 Hanson Parkway","city":"Pingle","zip_code":"7572"},
{"company_name":"Dynabox","address":"902 Onsgard Terrace","city":"Asaka","zip_code":"4"},
{"company_name":"Twitterlist","address":"677 Independence Center","city":"Boskovice","zip_code":"94"},
{"company_name":"Dynazzy","address":"2 Pennsylvania Road","city":"Songfeng","zip_code":"023"},
{"company_name":"Meedoo","address":"18 Manley Lane","city":"Sumbe","zip_code":"27"},
{"company_name":"Flashdog","address":"3433 Crescent Oaks Street","city":"Sandouping","zip_code":"861"},
{"company_name":"Skippad","address":"275 Waywood Hill","city":"Uppsala","zip_code":"738"},
{"company_name":"Zoomdog","address":"07390 Warrior Parkway","city":"Likino-Dulevo","zip_code":"3013"},
{"company_name":"Vidoo","address":"0800 Holmberg Crossing","city":"Knoxville","zip_code":"92"},
{"company_name":"Geba","address":"81 Macpherson Terrace","city":"Bontoc","zip_code":"78632"},
{"company_name":"Fiveclub","address":"97827 Pepper Wood Place","city":"Guangpu","zip_code":"423"},
{"company_name":"Yotz","address":"9 Northview Road","city":"Mīrpur Māthelo","zip_code":"631"},
{"company_name":"Centizu","address":"068 Havey Court","city":"Jackson","zip_code":"5756"},
{"company_name":"Skyndu","address":"6068 Continental Center","city":"Luqiao","zip_code":"5339"},
{"company_name":"Oozz","address":"206 Michigan Street","city":"Parczew","zip_code":"0348"},
{"company_name":"Edgetag","address":"35 Morrow Place","city":"Purorejo","zip_code":"9"},
{"company_name":"Agivu","address":"761 Pond Road","city":"Nggambel","zip_code":"657"},
{"company_name":"Oyoyo","address":"846 Tennessee Way","city":"Khirdalan","zip_code":"247"},
{"company_name":"Zazio","address":"0 Dahle Road","city":"Vozuća","zip_code":"67869"},
{"company_name":"Cogilith","address":"8915 Old Gate Avenue","city":"Altay sumu","zip_code":"901"},
{"company_name":"Shufflester","address":"97724 Moland Avenue","city":"Nanzhao","zip_code":"0446"},
{"company_name":"Twitterwire","address":"6389 Park Meadow Plaza","city":"Lauro de Freitas","zip_code":"39"},
{"company_name":"Livetube","address":"9 Gerald Park","city":"Albany","zip_code":"964"},
{"company_name":"Feedspan","address":"1 Valley Edge Drive","city":"Manhiça","zip_code":"22776"},
{"company_name":"Aimbu","address":"4 Scoville Junction","city":"Palpalá","zip_code":"07955"},
{"company_name":"Voonte","address":"8118 Warbler Court","city":"Novyy Urengoy","zip_code":"21"},
{"company_name":"Livetube","address":"9 Ruskin Hill","city":"Shkurinskaya","zip_code":"27577"},
{"company_name":"Voonix","address":"16 Springview Pass","city":"Luchingu","zip_code":"19"},
{"company_name":"Centimia","address":"00233 Leroy Alley","city":"Kukuluk","zip_code":"954"},
{"company_name":"Wordtune","address":"38 Cody Plaza","city":"Brejieira","zip_code":"57790"},
{"company_name":"Quimm","address":"33048 Gateway Place","city":"Mentoro Wetan","zip_code":"39846"},
{"company_name":"Edgetag","address":"0 5th Crossing","city":"Maogang","zip_code":"87086"},
{"company_name":"Mita","address":"6078 Menomonie Way","city":"Caojia","zip_code":"7"},
{"company_name":"Gigabox","address":"21922 Heath Place","city":"Springfield","zip_code":"72"},
{"company_name":"Thoughtbridge","address":"918 Northwestern Crossing","city":"Jiguan","zip_code":"12"},
{"company_name":"Gabtype","address":"0 Acker Point","city":"Zvenigorod","zip_code":"814"},
{"company_name":"Eire","address":"90 Northport Crossing","city":"Choszczno","zip_code":"1782"},
{"company_name":"Abatz","address":"245 Jay Drive","city":"Nakama","zip_code":"45"},
{"company_name":"Meetz","address":"116 Sutherland Parkway","city":"Kirkland Lake","zip_code":"2"},
{"company_name":"Linklinks","address":"2 Declaration Plaza","city":"De la Paz","zip_code":"2"},
{"company_name":"DabZ","address":"7275 Elgar Plaza","city":"Dzaoudzi","zip_code":"6"},
{"company_name":"Ntags","address":"48 Alpine Circle","city":"Yatunpu","zip_code":"4"},
{"company_name":"Skinte","address":"07452 Trailsway Center","city":"Khao Kho","zip_code":"606"},
{"company_name":"Wikizz","address":"6 Basil Hill","city":"Göteborg","zip_code":"34"},
{"company_name":"Trunyx","address":"954 Schurz Hill","city":"Xinshichang","zip_code":"9"},
{"company_name":"Plajo","address":"907 Vidon Drive","city":"Jardín América","zip_code":"42085"},
{"company_name":"Quire","address":"569 Bluejay Way","city":"Foxton","zip_code":"8"},
{"company_name":"Livetube","address":"6284 Rockefeller Crossing","city":"Itarana","zip_code":"1335"},
{"company_name":"Meevee","address":"44638 Mandrake Court","city":"Deskáti","zip_code":"7366"},
{"company_name":"Skilith","address":"72488 Logan Way","city":"Dianzi","zip_code":"7"},
{"company_name":"Thoughtbridge","address":"923 Dixon Road","city":"Haoxue","zip_code":"89961"},
{"company_name":"Edgeblab","address":"2414 Corry Way","city":"Brant","zip_code":"7788"},
{"company_name":"Thoughtstorm","address":"6 Lakewood Way","city":"Savé","zip_code":"0786"},
{"company_name":"Feednation","address":"49 Magdeline Center","city":"Dąbrowice","zip_code":"17347"},
{"company_name":"Eire","address":"2 Algoma Junction","city":"Mem Martins","zip_code":"7189"},
{"company_name":"Skipstorm","address":"0479 Hallows Plaza","city":"Murfreesboro","zip_code":"866"},
{"company_name":"Riffpath","address":"2 Mifflin Terrace","city":"Berezovo","zip_code":"9212"},
{"company_name":"Rhybox","address":"88458 La Follette Center","city":"Huoshaodian","zip_code":"6"},
{"company_name":"Twiyo","address":"8 Dahle Place","city":"Saint Louis","zip_code":"9319"},
{"company_name":"Thoughtstorm","address":"170 Grayhawk Center","city":"Diofior","zip_code":"046"},
{"company_name":"Photospace","address":"11521 Portage Hill","city":"Maicao","zip_code":"66049"},
{"company_name":"Aibox","address":"230 Cambridge Place","city":"El Espino","zip_code":"1"},
{"company_name":"Feedmix","address":"40 Novick Avenue","city":"Pasirpanjang","zip_code":"0340"},
{"company_name":"Dablist","address":"5943 Spenser Street","city":"Hŭngnam","zip_code":"91326"},
{"company_name":"Zoomlounge","address":"5 Iowa Junction","city":"Ýpsonas","zip_code":"9"},
{"company_name":"Talane","address":"90 Barby Plaza","city":"Périgueux","zip_code":"5"},
{"company_name":"Flashspan","address":"562 Atwood Road","city":"Dębe Wielkie","zip_code":"92131"},
{"company_name":"Roodel","address":"98 Eastlawn Terrace","city":"Dayangzhou","zip_code":"0"},
{"company_name":"Meetz","address":"1 Sunnyside Circle","city":"Hangwula","zip_code":"07"},
{"company_name":"Voonder","address":"58 Loomis Junction","city":"Toroy","zip_code":"6810"},
{"company_name":"Topdrive","address":"480 Rowland Way","city":"Pandanrejokrajan","zip_code":"507"},
{"company_name":"Meembee","address":"86088 Hoard Place","city":"Banjar Pedawa","zip_code":"83909"},
{"company_name":"Aivee","address":"1 Carberry Street","city":"Poretskoye","zip_code":"7985"},
{"company_name":"Feedfire","address":"64187 Warbler Way","city":"Bancar","zip_code":"827"},
{"company_name":"Vimbo","address":"3 Fuller Way","city":"Oakville","zip_code":"803"},
{"company_name":"Rooxo","address":"7502 Hudson Alley","city":"Ipoh","zip_code":"1940"},
{"company_name":"Miboo","address":"3307 Lakeland Terrace","city":"Kyzylzhar","zip_code":"0"},
{"company_name":"Buzzshare","address":"57441 Stone Corner Alley","city":"New Bedford","zip_code":"920"},
{"company_name":"Topicshots","address":"723 Bunker Hill Terrace","city":"General Arenales","zip_code":"4"},
{"company_name":"Rhynoodle","address":"455 Maywood Parkway","city":"Montelíbano","zip_code":"82"},
{"company_name":"Riffpath","address":"80 Hoepker Point","city":"Kastsyukovichy","zip_code":"10"},
{"company_name":"Plajo","address":"3 Ridge Oak Plaza","city":"Carora","zip_code":"870"},
{"company_name":"Topiclounge","address":"2752 Meadow Valley Terrace","city":"Huacao","zip_code":"210"},
{"company_name":"Geba","address":"10476 Brown Hill","city":"Rublëvo","zip_code":"8"},
{"company_name":"Roomm","address":"3937 Holy Cross Court","city":"Kato Pyrgos","zip_code":"3003"},
{"company_name":"Jabbersphere","address":"013 Scott Hill","city":"Badian","zip_code":"8860"},
{"company_name":"Browsezoom","address":"79 Dexter Trail","city":"Nai Harn","zip_code":"49096"},
{"company_name":"Lajo","address":"72 Muir Center","city":"Varna","zip_code":"1"},
{"company_name":"Voonder","address":"793 Doe Crossing Junction","city":"Buffalo","zip_code":"80423"},
{"company_name":"Oyondu","address":"510 Sheridan Avenue","city":"Terezín","zip_code":"4122"},
{"company_name":"Eayo","address":"88323 Eagan Way","city":"Ostroměř","zip_code":"660"},
{"company_name":"Feedspan","address":"0744 Dawn Street","city":"Ji’an","zip_code":"8"},
{"company_name":"Tagtune","address":"44840 Manley Park","city":"Krasnoye","zip_code":"5869"},
{"company_name":"Chatterpoint","address":"5302 Sachtjen Terrace","city":"Meïganga","zip_code":"8"},
{"company_name":"Yodo","address":"6 Glacier Hill Terrace","city":"Lappeenranta","zip_code":"3371"},
{"company_name":"Dynava","address":"0648 Walton Crossing","city":"Bol’shoye Selo","zip_code":"16"},
{"company_name":"Realmix","address":"233 Elgar Hill","city":"Vithkuq","zip_code":"26346"},
{"company_name":"Zoomdog","address":"15 Clove Road","city":"Dunhou","zip_code":"03516"},
{"company_name":"Fivechat","address":"718 Carpenter Point","city":"Dzüünharaa","zip_code":"89959"},
{"company_name":"Youspan","address":"4 Annamark Avenue","city":"Aţ Ţafīlah","zip_code":"710"},
{"company_name":"Aivee","address":"030 Rutledge Center","city":"Salaberry-de-Valleyfield","zip_code":"0"},
{"company_name":"Digitube","address":"5 Brentwood Road","city":"Puerto Quellón","zip_code":"6452"},
{"company_name":"Jabberstorm","address":"95 Sutherland Way","city":"Villa Lugano","zip_code":"71"},
{"company_name":"Feednation","address":"4320 Sloan Center","city":"Beiwenquan","zip_code":"811"},
{"company_name":"Jabbersphere","address":"1 Londonderry Hill","city":"Badong","zip_code":"2181"},
{"company_name":"Ailane","address":"10720 Garrison Lane","city":"Ostravice","zip_code":"066"},
{"company_name":"Blogspan","address":"292 Morrow Parkway","city":"Zhuxi","zip_code":"75652"},
{"company_name":"Thoughtblab","address":"52510 Londonderry Park","city":"Yabluniv","zip_code":"781"},
{"company_name":"Tagfeed","address":"5053 Pennsylvania Crossing","city":"Tangjia","zip_code":"70433"},
{"company_name":"Talane","address":"48 Macpherson Avenue","city":"Freiburg im Breisgau","zip_code":"8612"},
{"company_name":"Katz","address":"55 Hermina Park","city":"San Jose","zip_code":"4"},
{"company_name":"Oyoloo","address":"928 Westport Trail","city":"Natu","zip_code":"8"},
{"company_name":"Voolith","address":"17 Kenwood Center","city":"Lewotola","zip_code":"4"},
{"company_name":"Ntag","address":"7 Chive Court","city":"Ash Shawātī","zip_code":"02"},
{"company_name":"Edgeblab","address":"4 Iowa Pass","city":"Wuxihe","zip_code":"9"},
{"company_name":"Yombu","address":"312 Sunbrook Center","city":"Baoli","zip_code":"97"},
{"company_name":"Kaymbo","address":"689 Commercial Crossing","city":"Fenkeng","zip_code":"1645"},
{"company_name":"Flipbug","address":"5 Chive Road","city":"Qŭrghonteppa","zip_code":"9"},
{"company_name":"Fivechat","address":"3270 Oak Way","city":"Paradyż","zip_code":"3437"},
{"company_name":"Voomm","address":"31032 Commercial Court","city":"Gunungkencana","zip_code":"0"},
{"company_name":"Brainsphere","address":"2 Drewry Trail","city":"Fengshan","zip_code":"954"},
{"company_name":"Topicstorm","address":"20 Cottonwood Parkway","city":"Requião","zip_code":"6"},
{"company_name":"Myworks","address":"0 Namekagon Park","city":"Antsirabe","zip_code":"964"},
{"company_name":"Roombo","address":"25638 Badeau Lane","city":"Mstów","zip_code":"4"},
{"company_name":"Quatz","address":"43560 Village Green Lane","city":"Jabłonica Polska","zip_code":"07"},
{"company_name":"Kaymbo","address":"555 Cordelia Center","city":"Kopychyntsi","zip_code":"290"},
{"company_name":"Jabberstorm","address":"92 Redwing Place","city":"At Samat","zip_code":"60866"},
{"company_name":"Chatterpoint","address":"7 Summit Trail","city":"Sakharovo","zip_code":"515"},
{"company_name":"Babbleopia","address":"3 Laurel Terrace","city":"Sena Madureira","zip_code":"818"},
{"company_name":"Yambee","address":"07 Pleasure Junction","city":"Stockholm","zip_code":"95"},
{"company_name":"Trilith","address":"9310 Mendota Drive","city":"Pajić Polje","zip_code":"346"},
{"company_name":"Mymm","address":"4328 Steensland Junction","city":"Luoyuan","zip_code":"7"},
{"company_name":"Jayo","address":"5 Lakeland Circle","city":"La Cumbre","zip_code":"38662"},
{"company_name":"Zoombeat","address":"51 Saint Paul Pass","city":"Gangnan","zip_code":"82331"},
{"company_name":"Feedfish","address":"1 Bunker Hill Hill","city":"Jishui","zip_code":"1252"},
{"company_name":"Jetpulse","address":"7 Declaration Junction","city":"Xitan","zip_code":"913"},
{"company_name":"Oyoloo","address":"523 Mayfield Pass","city":"Tournon-sur-Rhône","zip_code":"677"},
{"company_name":"Oozz","address":"082 1st Alley","city":"Changqing","zip_code":"7"},
{"company_name":"Wikibox","address":"3 Fulton Parkway","city":"Sinait","zip_code":"5"},
{"company_name":"Meemm","address":"182 Thackeray Alley","city":"Zhelin","zip_code":"26"},
{"company_name":"Twimm","address":"126 Leroy Hill","city":"Negoslavci","zip_code":"98889"},
{"company_name":"Zoomlounge","address":"20 Muir Way","city":"Tingloy","zip_code":"2862"},
{"company_name":"Voolith","address":"1 Esch Park","city":"Shengci","zip_code":"8"},
{"company_name":"Dabjam","address":"96 Cardinal Parkway","city":"Sagay","zip_code":"29859"},
{"company_name":"Skipstorm","address":"82 Barby Plaza","city":"Lugar Novo","zip_code":"8"},
{"company_name":"Lazzy","address":"8086 3rd Point","city":"Capulaan","zip_code":"60"},
{"company_name":"Pixonyx","address":"91003 Cottonwood Circle","city":"Lingda","zip_code":"4648"},
{"company_name":"Quatz","address":"9080 Magdeline Crossing","city":"Waishan","zip_code":"46504"},
{"company_name":"Thoughtsphere","address":"1 Westerfield Plaza","city":"Niemodlin","zip_code":"2040"},
{"company_name":"Flashpoint","address":"4694 Eagle Crest Road","city":"Powassan","zip_code":"80"},
{"company_name":"Roombo","address":"8848 Green Court","city":"Jagiełła","zip_code":"980"},
{"company_name":"Meevee","address":"3895 Grim Lane","city":"Xuedian","zip_code":"07782"},
{"company_name":"Zava","address":"8 Johnson Avenue","city":"Santa Cruz","zip_code":"211"},
{"company_name":"Yakidoo","address":"91 Killdeer Center","city":"Abbotsford","zip_code":"49"},
{"company_name":"Blogpad","address":"9 Comanche Lane","city":"Sovetsk","zip_code":"264"},
{"company_name":"Cogilith","address":"947 Porter Parkway","city":"Zhishan","zip_code":"3"},
{"company_name":"Jayo","address":"13 Hauk Alley","city":"Kishorganj","zip_code":"1072"},
{"company_name":"Jabberbean","address":"9 Esker Park","city":"Birātnagar","zip_code":"455"},
{"company_name":"Camido","address":"90895 Shasta Alley","city":"Erfangping","zip_code":"908"},
{"company_name":"Shuffledrive","address":"64 Sunnyside Avenue","city":"Scranton","zip_code":"14821"},
{"company_name":"Realmix","address":"118 Pankratz Road","city":"Drosáto","zip_code":"43"},
{"company_name":"Twitterworks","address":"6 Rusk Hill","city":"Funehikimachi-funehiki","zip_code":"01"},
{"company_name":"Topiczoom","address":"810 Del Mar Terrace","city":"Lijiang","zip_code":"2175"},
{"company_name":"Jamia","address":"16823 Wayridge Place","city":"Louredo","zip_code":"11773"},
{"company_name":"Feedmix","address":"2710 Veith Park","city":"Mezinovskiy","zip_code":"34"},
{"company_name":"Oyoba","address":"6 Service Point","city":"Pereiros","zip_code":"2"},
{"company_name":"Feedspan","address":"730 Arizona Terrace","city":"Jiangzao","zip_code":"1"},
{"company_name":"Feednation","address":"1 Rusk Street","city":"Máncora","zip_code":"98"},
{"company_name":"Chatterbridge","address":"689 Kim Road","city":"Novosibirsk","zip_code":"0"},
{"company_name":"Browsetype","address":"7 Alpine Park","city":"Colegiales","zip_code":"37"},
{"company_name":"Oodoo","address":"2 Hayes Park","city":"Cennan","zip_code":"6013"},
{"company_name":"Wordify","address":"33 Daystar Crossing","city":"Ust’-Labinsk","zip_code":"96"},
{"company_name":"Dabshots","address":"964 Meadow Vale Park","city":"Kazuno","zip_code":"5101"},
{"company_name":"Jazzy","address":"95 Schurz Terrace","city":"Týnec","zip_code":"30972"},
{"company_name":"Npath","address":"274 Northfield Point","city":"Jagiełła","zip_code":"95698"},
{"company_name":"Flashspan","address":"640 Linden Junction","city":"Nangabere","zip_code":"5944"},
{"company_name":"Skaboo","address":"4 Kenwood Street","city":"Phu Kradueng","zip_code":"2901"},
{"company_name":"Oodoo","address":"777 Bashford Point","city":"Mashava","zip_code":"78"},
{"company_name":"Riffpedia","address":"01 Autumn Leaf Drive","city":"Orleans","zip_code":"67"},
{"company_name":"Quatz","address":"0 Huxley Trail","city":"Caen","zip_code":"889"},
{"company_name":"Jatri","address":"2737 Vermont Park","city":"Banjar Triwangsakeliki","zip_code":"2780"},
{"company_name":"Feedfish","address":"41701 Hauk Lane","city":"Shiqian","zip_code":"8599"},
{"company_name":"Oloo","address":"9 Kropf Place","city":"Balekambang","zip_code":"29"},
{"company_name":"Meeveo","address":"45627 Shasta Lane","city":"Zverevo","zip_code":"244"},
{"company_name":"Skibox","address":"73 Hauk Point","city":"Buerarema","zip_code":"779"},
{"company_name":"Feedbug","address":"8 Oriole Lane","city":"South River","zip_code":"98475"},
{"company_name":"Pixope","address":"3 Anniversary Crossing","city":"Thomastown","zip_code":"8928"},
{"company_name":"Flashpoint","address":"5974 Lillian Lane","city":"Paninggaran","zip_code":"0"},
{"company_name":"Dabjam","address":"2 Westridge Alley","city":"Chelu","zip_code":"24332"},
{"company_name":"Snaptags","address":"42587 Alpine Trail","city":"Sussex","zip_code":"5"},
{"company_name":"Chatterpoint","address":"00043 Blue Bill Park Terrace","city":"Cipeundeuy","zip_code":"4723"},
{"company_name":"Jaxbean","address":"352 Fallview Circle","city":"Balneário Camboriú","zip_code":"3349"},
{"company_name":"Voolith","address":"793 Summit Pass","city":"Apeldoorn","zip_code":"261"},
{"company_name":"Skilith","address":"9 Banding Park","city":"Thaton","zip_code":"8"},
{"company_name":"Quinu","address":"7300 Merrick Place","city":"Huangling","zip_code":"5907"},
{"company_name":"Photobug","address":"57 Esker Court","city":"Novokhovrino","zip_code":"478"},
{"company_name":"Topicshots","address":"122 Graedel Terrace","city":"Shaft","zip_code":"9"},
{"company_name":"Nlounge","address":"96170 Crescent Oaks Court","city":"Itaporanga","zip_code":"82469"},
{"company_name":"Meetz","address":"53571 Hermina Way","city":"Yanmen","zip_code":"066"},
{"company_name":"Youspan","address":"179 Bayside Street","city":"Karanganyar","zip_code":"6769"},
{"company_name":"DabZ","address":"2422 Eggendart Crossing","city":"Donggaocun","zip_code":"8273"},
{"company_name":"Agimba","address":"643 2nd Pass","city":"Khal’ch","zip_code":"869"},
{"company_name":"Shufflester","address":"240 Lyons Plaza","city":"Ḩajjah","zip_code":"03"},
{"company_name":"Riffpedia","address":"56724 Mayer Circle","city":"Genyem","zip_code":"7"},
{"company_name":"Kwinu","address":"83117 Lyons Hill","city":"Nauchnyy Gorodok","zip_code":"134"},
{"company_name":"Topicware","address":"251 Trailsway Park","city":"Pandaan","zip_code":"96"},
{"company_name":"Skaboo","address":"990 Blue Bill Park Junction","city":"Alíartos","zip_code":"5"},
{"company_name":"Chatterbridge","address":"8660 Esch Hill","city":"Auch","zip_code":"1"},
{"company_name":"Meevee","address":"8 Bayside Trail","city":"San Pedro","zip_code":"8"},
{"company_name":"Blogtag","address":"8249 Glendale Crossing","city":"Khlong Sam Wa","zip_code":"49022"},
{"company_name":"Voolith","address":"74 Kinsman Pass","city":"Ballymun","zip_code":"4"},
{"company_name":"Twimm","address":"6 Ryan Center","city":"Susapaya","zip_code":"0"},
{"company_name":"Wordware","address":"551 Comanche Lane","city":"Tha Uthen","zip_code":"25711"},
{"company_name":"Wordtune","address":"76 Artisan Road","city":"Maromitsa","zip_code":"121"},
{"company_name":"Tazzy","address":"1553 Texas Drive","city":"Issoudun","zip_code":"57839"},
{"company_name":"Quatz","address":"686 Merry Trail","city":"Majiang","zip_code":"2"},
{"company_name":"Gabspot","address":"98325 Paget Junction","city":"Kināna","zip_code":"424"},
{"company_name":"Chatterpoint","address":"9 Mayer Hill","city":"São Pedro de Trafaria","zip_code":"72"},
{"company_name":"Browsedrive","address":"993 Granby Trail","city":"Ob’","zip_code":"490"},
{"company_name":"Topicblab","address":"861 Commercial Drive","city":"Ormož","zip_code":"4340"},
{"company_name":"Bluezoom","address":"4492 Buhler Park","city":"Bagikkedok Lauk","zip_code":"7"},
{"company_name":"Katz","address":"290 Northview Drive","city":"Avignon","zip_code":"1"},
{"company_name":"Livefish","address":"7 Del Sol Court","city":"Dongluqiao","zip_code":"2990"},
{"company_name":"Dablist","address":"41 Algoma Center","city":"Ngeni","zip_code":"01830"},
{"company_name":"Quamba","address":"0 Garrison Trail","city":"Aguadas","zip_code":"57"},
{"company_name":"Skalith","address":"751 Sloan Terrace","city":"Al Bayḑā’","zip_code":"0695"},
{"company_name":"Wordtune","address":"44831 Barby Park","city":"Cimanggu Girang","zip_code":"64"},
{"company_name":"Podcat","address":"5170 Lake View Hill","city":"Ithari","zip_code":"4"},
{"company_name":"Brainverse","address":"8543 American Ash Center","city":"Wielki Kack","zip_code":"93"},
{"company_name":"Zoomdog","address":"4845 Hauk Court","city":"Weitian","zip_code":"616"},
{"company_name":"Photojam","address":"2 Cody Place","city":"Luojiang","zip_code":"45"},
{"company_name":"Skiba","address":"95407 Coolidge Circle","city":"Nakhchivan","zip_code":"46"},
{"company_name":"Livepath","address":"16 Daystar Lane","city":"Lukolela","zip_code":"801"},
{"company_name":"Skynoodle","address":"26757 Ilene Lane","city":"Yunmeng Chengguanzhen","zip_code":"6"},
{"company_name":"Brightdog","address":"38267 Arapahoe Drive","city":"Phoenix","zip_code":"9"},
{"company_name":"Divape","address":"09 Killdeer Street","city":"Masatepe","zip_code":"1409"},
{"company_name":"Shufflebeat","address":"69179 Eastlawn Junction","city":"Sierakowice","zip_code":"2464"},
{"company_name":"DabZ","address":"5 Charing Cross Road","city":"Telagasari","zip_code":"251"},
{"company_name":"Voomm","address":"8053 Briar Crest Trail","city":"Minuyan","zip_code":"4"},
{"company_name":"Bubblemix","address":"2 Coolidge Park","city":"Samboan","zip_code":"79876"},
{"company_name":"Yotz","address":"3394 Harbort Drive","city":"Hōfu","zip_code":"2"},
{"company_name":"Aibox","address":"42996 Bonner Drive","city":"San Benito","zip_code":"38"},
{"company_name":"Dynazzy","address":"3 Sherman Road","city":"Kołczygłowy","zip_code":"80"},
{"company_name":"Jabbercube","address":"7126 Sherman Alley","city":"Mae Wang","zip_code":"69"},
{"company_name":"Chatterpoint","address":"6 Buhler Junction","city":"Palmital","zip_code":"410"},
{"company_name":"Latz","address":"9448 American Center","city":"Bozkow","zip_code":"02659"},
{"company_name":"Voomm","address":"42 West Alley","city":"Vakhrushi","zip_code":"35398"},
{"company_name":"Mudo","address":"9 Haas Circle","city":"Lubāna","zip_code":"6"},
{"company_name":"Oyoba","address":"188 Grim Way","city":"Kotabumi","zip_code":"923"},
{"company_name":"Brainbox","address":"0 Hauk Park","city":"Padangtiji","zip_code":"52574"},
{"company_name":"Fivechat","address":"7289 Lunder Park","city":"Nāḩiyat Alī ash Sharqī","zip_code":"55"},
{"company_name":"Tanoodle","address":"1828 Lake View Junction","city":"Јегуновце","zip_code":"318"},
{"company_name":"Gigashots","address":"872 Lukken Lane","city":"Tegalrejo","zip_code":"8"},
{"company_name":"Zava","address":"575 Spaight Way","city":"Mococa","zip_code":"83887"},
{"company_name":"Dynabox","address":"70 Golf Lane","city":"Kapotnya","zip_code":"7"},
{"company_name":"Jazzy","address":"556 Moland Street","city":"Bang Bua Thong","zip_code":"02"},
{"company_name":"Realbuzz","address":"082 Harbort Junction","city":"Alpedrinha","zip_code":"8050"},
{"company_name":"Tagcat","address":"0122 Hintze Court","city":"Mora","zip_code":"58650"},
{"company_name":"Edgeclub","address":"21131 Fisk Lane","city":"Dagang","zip_code":"7"},
{"company_name":"Lajo","address":"49255 Crest Line Terrace","city":"Chambray-lès-Tours","zip_code":"83755"},
{"company_name":"Yakidoo","address":"68 Northfield Crossing","city":"Shuangfeng","zip_code":"432"},
{"company_name":"Avavee","address":"61 Elmside Crossing","city":"Wasquehal","zip_code":"78488"},
{"company_name":"Buzzster","address":"68 Northport Hill","city":"Wyszogród","zip_code":"2845"},
{"company_name":"Flipstorm","address":"70674 Gulseth Avenue","city":"Wailang","zip_code":"221"},
{"company_name":"Vitz","address":"7583 Goodland Pass","city":"Bern","zip_code":"3"},
{"company_name":"Katz","address":"64869 Bayside Circle","city":"Pringu","zip_code":"7"},
{"company_name":"Skinder","address":"1531 Village Green Terrace","city":"Bayanhongor","zip_code":"49"},
{"company_name":"Wordify","address":"93 Caliangt Way","city":"Lumbang","zip_code":"5948"},
{"company_name":"Yotz","address":"8 Forest Run Court","city":"Halayhay","zip_code":"32"},
{"company_name":"Jabbersphere","address":"07642 Marquette Junction","city":"Kuchinarai","zip_code":"726"},
{"company_name":"Jamia","address":"7 Sugar Trail","city":"Roxas","zip_code":"22"},
{"company_name":"Yakidoo","address":"4 Brickson Park Center","city":"Soreang","zip_code":"86627"},
{"company_name":"Meembee","address":"2531 Di Loreto Center","city":"Matsena","zip_code":"88"},
{"company_name":"Yakijo","address":"22825 Lyons Way","city":"Jiaokou","zip_code":"8"},
{"company_name":"Flashdog","address":"455 Scott Park","city":"Casal","zip_code":"916"},
{"company_name":"Eamia","address":"2 Dorton Circle","city":"Oeiras","zip_code":"70927"},
{"company_name":"Flashset","address":"4821 Farmco Road","city":"Bandar-e Māhshahr","zip_code":"09"},
{"company_name":"Oba","address":"1346 Grayhawk Place","city":"Kotlas","zip_code":"5"},
{"company_name":"Gabvine","address":"216 Arkansas Court","city":"Bécancour","zip_code":"898"},
{"company_name":"Meembee","address":"21319 Toban Trail","city":"Kuala Terengganu","zip_code":"70011"},
{"company_name":"Cogidoo","address":"547 Buell Parkway","city":"Boto","zip_code":"4354"},
{"company_name":"Jatri","address":"5877 Moulton Court","city":"Łęknica","zip_code":"7"},
{"company_name":"Shufflebeat","address":"29589 Westerfield Place","city":"Wudui","zip_code":"201"},
{"company_name":"Eidel","address":"342 Elka Alley","city":"Podu","zip_code":"7953"},
{"company_name":"Topicblab","address":"29643 Derek Hill","city":"Trondheim","zip_code":"2"},
{"company_name":"Divanoodle","address":"03335 Hoard Trail","city":"Valerik","zip_code":"6559"},
{"company_name":"Buzzbean","address":"475 Packers Junction","city":"Pop Shahri","zip_code":"43"},
{"company_name":"Yabox","address":"63619 International Circle","city":"Bulo","zip_code":"85"},
{"company_name":"Edgeify","address":"87 Prentice Way","city":"Pryluky","zip_code":"3"},
{"company_name":"Skipfire","address":"19 Farmco Parkway","city":"Soca","zip_code":"8"},
{"company_name":"Layo","address":"5 High Crossing Way","city":"Dudchany","zip_code":"3401"},
{"company_name":"Photolist","address":"0 Katie Avenue","city":"Challhuahuacho","zip_code":"609"},
{"company_name":"Muxo","address":"19749 Loeprich Center","city":"Muroto-misakicho","zip_code":"3"},
{"company_name":"Lajo","address":"87415 Fisk Street","city":"Monte Patria","zip_code":"4434"},
{"company_name":"Roombo","address":"0 Maryland Lane","city":"Boucinha","zip_code":"6"},
{"company_name":"Chatterbridge","address":"537 Buhler Pass","city":"Salamá","zip_code":"7"},
{"company_name":"Mymm","address":"7754 Gina Junction","city":"Szydłowo","zip_code":"00"},
{"company_name":"Meetz","address":"17 Florence Terrace","city":"Kafir Yasif","zip_code":"864"},
{"company_name":"Skidoo","address":"34618 Bay Place","city":"Sizhou","zip_code":"10"},
{"company_name":"Realcube","address":"0662 Summit Center","city":"Nantes","zip_code":"01087"},
{"company_name":"Mydeo","address":"94090 Golf Court","city":"New York City","zip_code":"66682"},
{"company_name":"Bubblemix","address":"204 Monica Street","city":"Säffle","zip_code":"75"},
{"company_name":"Vidoo","address":"46 Mockingbird Way","city":"Hohhot","zip_code":"81279"},
{"company_name":"Edgeify","address":"39 Forest Dale Plaza","city":"Sananrejo","zip_code":"19575"},
{"company_name":"Twitterworks","address":"9861 Anthes Point","city":"Nartkala","zip_code":"469"},
{"company_name":"Skimia","address":"6128 Rowland Court","city":"Valle San Francisco","zip_code":"401"},
{"company_name":"Pixonyx","address":"8453 Troy Road","city":"Rio Branco do Sul","zip_code":"41138"},
{"company_name":"Buzzshare","address":"3 Cody Park","city":"Miaoling","zip_code":"5"},
{"company_name":"Jaxbean","address":"803 Esker Circle","city":"Grebnevo","zip_code":"77735"},
{"company_name":"Linklinks","address":"51 Sunnyside Center","city":"Beloeil","zip_code":"4106"},
{"company_name":"Katz","address":"60 Havey Park","city":"Kými","zip_code":"89"},
{"company_name":"Oyondu","address":"05 Sachtjen Hill","city":"Balpyk Bī","zip_code":"0712"},
{"company_name":"Vinte","address":"044 Paget Circle","city":"Boco","zip_code":"92"},
{"company_name":"Mynte","address":"773 Truax Hill","city":"Strömsund","zip_code":"188"},
{"company_name":"Midel","address":"3 Dottie Junction","city":"Pingdong","zip_code":"950"},
{"company_name":"Pixoboo","address":"5 Hoard Point","city":"Skövde","zip_code":"7924"},
{"company_name":"Digitube","address":"3250 Graceland Place","city":"Lüxiang","zip_code":"056"},
{"company_name":"Rhybox","address":"26763 Evergreen Junction","city":"Pyetrykaw","zip_code":"6"},
{"company_name":"Dabvine","address":"34 Harper Road","city":"Torzhok","zip_code":"7"},
{"company_name":"Jaxnation","address":"109 Kedzie Way","city":"Sanxi","zip_code":"3698"},
{"company_name":"Feednation","address":"641 Jana Plaza","city":"Luleå","zip_code":"0"},
{"company_name":"Dynazzy","address":"6521 Esker Crossing","city":"Phetchabun","zip_code":"25705"},
{"company_name":"Brightbean","address":"64415 Namekagon Parkway","city":"Noveleta","zip_code":"222"},
{"company_name":"Pixoboo","address":"78 Division Crossing","city":"Kista","zip_code":"942"},
{"company_name":"Fatz","address":"44473 Russell Park","city":"Aksarka","zip_code":"506"},
{"company_name":"Tagcat","address":"831 Thackeray Crossing","city":"Hougaoshizhuang","zip_code":"504"},
{"company_name":"Pixope","address":"42206 Corry Junction","city":"Sambong","zip_code":"441"},
{"company_name":"Blogtag","address":"99089 Grasskamp Place","city":"Liucun","zip_code":"7327"},
{"company_name":"Topicware","address":"69934 Luster Lane","city":"Shikārpur","zip_code":"25"},
{"company_name":"Zoombox","address":"985 Judy Plaza","city":"Looc","zip_code":"33"},
{"company_name":"Flashspan","address":"2 Mendota Alley","city":"Pasirlimus","zip_code":"6"},
{"company_name":"Skinder","address":"8200 Mariners Cove Street","city":"Lloqan","zip_code":"51667"},
{"company_name":"Oyondu","address":"82 Anhalt Drive","city":"Kolodeznyy","zip_code":"9"},
{"company_name":"Realfire","address":"80203 Surrey Street","city":"Zhukovskiy","zip_code":"46"},
{"company_name":"Skidoo","address":"38748 Hazelcrest Pass","city":"Dalongdong","zip_code":"30"},
{"company_name":"Twitterwire","address":"97 Raven Place","city":"Takamatsu-shi","zip_code":"81460"},
{"company_name":"Ainyx","address":"78469 Granby Park","city":"Nishi-Tokyo-shi","zip_code":"39"},
{"company_name":"Youfeed","address":"575 Oak Valley Circle","city":"Bydgoszcz","zip_code":"56"},
{"company_name":"Divavu","address":"2341 Dayton Drive","city":"Matola","zip_code":"10"},
{"company_name":"Quimm","address":"766 Northfield Trail","city":"Baitao","zip_code":"58989"},
{"company_name":"Zoovu","address":"978 Elka Plaza","city":"Cayur","zip_code":"28"},
{"company_name":"Rhynoodle","address":"285 Clarendon Court","city":"Nogueira","zip_code":"4959"},
{"company_name":"Meezzy","address":"3 Golden Leaf Trail","city":"Oropéndolas","zip_code":"302"},
{"company_name":"Dynabox","address":"11 Sloan Park","city":"Palmdale","zip_code":"945"},
{"company_name":"Jabbertype","address":"48 International Court","city":"Micheng","zip_code":"96437"},
{"company_name":"Twitterlist","address":"1470 Menomonie Junction","city":"Kudirkos Naumiestis","zip_code":"961"},
{"company_name":"Buzzster","address":"42 Karstens Alley","city":"Kurchaloy","zip_code":"0037"},
{"company_name":"Twitterbeat","address":"6 Lillian Junction","city":"New York City","zip_code":"5"},
{"company_name":"Babbleset","address":"190 Chive Crossing","city":"Shuishaping","zip_code":"25929"},
{"company_name":"Photolist","address":"06 Havey Hill","city":"Hinunangan","zip_code":"045"},
{"company_name":"Wordpedia","address":"23736 Northport Road","city":"Arklow","zip_code":"4153"},
{"company_name":"Plajo","address":"7539 Mccormick Trail","city":"Mbanza Congo","zip_code":"177"},
{"company_name":"Realmix","address":"3987 6th Trail","city":"Jiazhi","zip_code":"5"},
{"company_name":"Kimia","address":"6241 Oriole Alley","city":"Bogorodsk","zip_code":"70"},
{"company_name":"Bubblemix","address":"5578 Larry Point","city":"Tengjia","zip_code":"15"},
{"company_name":"Yakidoo","address":"86 Maple Wood Place","city":"Quemú Quemú","zip_code":"2950"},
{"company_name":"Browsebug","address":"9 Blackbird Street","city":"Nuyno","zip_code":"23"},
{"company_name":"Wikizz","address":"58062 Golf View Pass","city":"Dodoma","zip_code":"45"},
{"company_name":"Thoughtbeat","address":"89271 Westend Road","city":"Al Nashmah","zip_code":"3"},
{"company_name":"Oyoba","address":"6613 5th Point","city":"Loúros","zip_code":"9"},
{"company_name":"Teklist","address":"0 Kingsford Terrace","city":"Independencia","zip_code":"4346"},
{"company_name":"Thoughtblab","address":"620 Toban Court","city":"Surami","zip_code":"595"},
{"company_name":"Quaxo","address":"8 Cherokee Park","city":"Saint Louis","zip_code":"339"},
{"company_name":"Fivebridge","address":"0 Valley Edge Drive","city":"Thị Trấn Ngan Dừa","zip_code":"10743"},
{"company_name":"Avamba","address":"9229 Dottie Junction","city":"Moroto","zip_code":"21"},
{"company_name":"Eire","address":"3252 Mayer Parkway","city":"Yidu","zip_code":"5"},
{"company_name":"Skyndu","address":"307 Gale Junction","city":"Adamantina","zip_code":"16583"},
{"company_name":"Realbridge","address":"20 Charing Cross Court","city":"Sergiyev Posad","zip_code":"275"},
{"company_name":"JumpXS","address":"3850 Kinsman Road","city":"Tomteboda","zip_code":"768"},
{"company_name":"Trudeo","address":"995 Pepper Wood Street","city":"Saint John","zip_code":"47074"},
{"company_name":"Zoomcast","address":"80748 Warrior Center","city":"Fujiayan","zip_code":"3966"},
{"company_name":"BlogXS","address":"80 Bluejay Point","city":"Disina","zip_code":"81"},
{"company_name":"Mynte","address":"287 Oak Avenue","city":"Tarłów","zip_code":"9"},
{"company_name":"Devpulse","address":"37 Golf View Crossing","city":"Makrýgialos","zip_code":"13"},
{"company_name":"Tagpad","address":"7 Holmberg Alley","city":"Vermoim","zip_code":"7"},
{"company_name":"Browseblab","address":"82347 Kropf Court","city":"Brooklyn","zip_code":"8"},
{"company_name":"Topicware","address":"914 Meadow Valley Point","city":"Nanling","zip_code":"46575"},
{"company_name":"Buzzbean","address":"84131 Johnson Drive","city":"Xindu","zip_code":"7"},
{"company_name":"Yakidoo","address":"074 Westridge Way","city":"Ballyhaunis","zip_code":"86"},
{"company_name":"Abata","address":"888 Cherokee Road","city":"Ndewel","zip_code":"07"},
{"company_name":"Kanoodle","address":"5664 Bultman Circle","city":"Guanajay","zip_code":"030"},
{"company_name":"Camimbo","address":"5 Tony Terrace","city":"Isla Pucú","zip_code":"4"},
{"company_name":"Skippad","address":"55 Mariners Cove Park","city":"Malakal","zip_code":"2674"},
{"company_name":"Blogpad","address":"199 Waywood Hill","city":"Saitama","zip_code":"6761"},
{"company_name":"Wikivu","address":"3 Emmet Avenue","city":"Yitulihe","zip_code":"872"},
{"company_name":"Voomm","address":"01362 Schlimgen Parkway","city":"Loreto","zip_code":"492"},
{"company_name":"Kare","address":"21395 Corry Terrace","city":"Gembu","zip_code":"9836"},
{"company_name":"Jaxworks","address":"0 Dunning Way","city":"Mulandoro","zip_code":"8196"},
{"company_name":"Wordify","address":"11 Gale Crossing","city":"Shinkafe","zip_code":"97"},
{"company_name":"Twitterworks","address":"454 Ludington Terrace","city":"Stratónion","zip_code":"72571"},
{"company_name":"Trunyx","address":"1822 Hauk Street","city":"Iroquois Falls","zip_code":"143"},
{"company_name":"Dynabox","address":"9 South Hill","city":"El Capulin","zip_code":"8327"},
{"company_name":"Realpoint","address":"3 Pawling Junction","city":"Molinos","zip_code":"4"},
{"company_name":"Flashpoint","address":"2 David Court","city":"Doujia","zip_code":"44130"},
{"company_name":"Blogspan","address":"8768 Goodland Center","city":"Shuanggang","zip_code":"11142"},
{"company_name":"Twiyo","address":"2 Northview Road","city":"Sinisian","zip_code":"923"},
{"company_name":"Livetube","address":"03678 Sloan Pass","city":"Spartanburg","zip_code":"5"},
{"company_name":"Zooveo","address":"9756 Fair Oaks Center","city":"Nemuro","zip_code":"0718"},
{"company_name":"Skilith","address":"8761 Manley Hill","city":"Huanghuai","zip_code":"623"},
{"company_name":"Skyndu","address":"7689 Wayridge Junction","city":"Vysokogornyy","zip_code":"6"},
{"company_name":"Twimbo","address":"891 Pleasure Drive","city":"Borāzjān","zip_code":"949"},
{"company_name":"Snaptags","address":"44938 Harper Alley","city":"Gedangan","zip_code":"0"},
{"company_name":"Quatz","address":"4629 Debra Crossing","city":"Heřmanův Městec","zip_code":"7139"},
{"company_name":"Einti","address":"939 Straubel Hill","city":"Kongjiang","zip_code":"58"},
{"company_name":"Leenti","address":"30 Tomscot Hill","city":"Maicao","zip_code":"054"},
{"company_name":"Flipbug","address":"8 Mallard Center","city":"Balabac","zip_code":"258"},
{"company_name":"Thoughtbridge","address":"708 Florence Center","city":"Coalaque","zip_code":"342"},
{"company_name":"Podcat","address":"1987 Mitchell Point","city":"Oesena","zip_code":"09"},
{"company_name":"Quatz","address":"50 Hanover Plaza","city":"Sokoto","zip_code":"8"},
{"company_name":"Ooba","address":"21 Surrey Terrace","city":"La Goulette","zip_code":"349"},
{"company_name":"Topicstorm","address":"173 Raven Park","city":"Mesa","zip_code":"26379"},
{"company_name":"Zooxo","address":"9153 Buena Vista Terrace","city":"Penengahan","zip_code":"4"},
{"company_name":"Lajo","address":"843 Manley Parkway","city":"Khlong Yai","zip_code":"3"},
{"company_name":"Skinder","address":"6 Village Green Pass","city":"Jinbo","zip_code":"24265"},
{"company_name":"Leexo","address":"36 Nelson Lane","city":"Balahovit","zip_code":"76"},
{"company_name":"Tagfeed","address":"85 Redwing Trail","city":"Gegu","zip_code":"56"},
{"company_name":"Flipopia","address":"865 Elmside Parkway","city":"Arlington","zip_code":"8"},
{"company_name":"Zoomcast","address":"71 Pankratz Terrace","city":"Açucena","zip_code":"02526"},
{"company_name":"Babbleopia","address":"6650 Haas Drive","city":"Zwierzyń","zip_code":"4"},
{"company_name":"Brightbean","address":"22 Hazelcrest Parkway","city":"Kohtla-Järve","zip_code":"6"},
{"company_name":"Omba","address":"5 Maple Street","city":"Juranalas","zip_code":"52609"},
{"company_name":"Babbleblab","address":"738 Homewood Avenue","city":"Guimarei","zip_code":"91762"},
{"company_name":"Gabtune","address":"00801 Anthes Plaza","city":"Seboruco","zip_code":"46516"},
{"company_name":"Yakijo","address":"2515 Cottonwood Court","city":"Bronnitsy","zip_code":"35673"},
{"company_name":"LiveZ","address":"91837 Village Green Way","city":"Ouro Sogui","zip_code":"5"},
{"company_name":"Bluejam","address":"71 Katie Road","city":"Nepeña","zip_code":"7785"},
{"company_name":"Skidoo","address":"021 American Terrace","city":"Caçapava do Sul","zip_code":"4"},
{"company_name":"Youopia","address":"26669 Drewry Alley","city":"Gaofeng","zip_code":"0"},
{"company_name":"Oyoyo","address":"39230 Elgar Hill","city":"Mingjiu","zip_code":"85674"},
{"company_name":"Topicshots","address":"61 New Castle Lane","city":"Masparrito","zip_code":"9186"},
{"company_name":"Browsecat","address":"4 Dapin Hill","city":"Mariposa","zip_code":"3212"},
{"company_name":"Demivee","address":"45 Grim Crossing","city":"Don Mueang","zip_code":"6"},
{"company_name":"Innojam","address":"2 Packers Parkway","city":"Kademangan","zip_code":"4924"},
{"company_name":"Skyble","address":"540 Merchant Center","city":"Koncang","zip_code":"725"},
{"company_name":"Youspan","address":"4 Lerdahl Trail","city":"Çlirim","zip_code":"62"},
{"company_name":"Browsetype","address":"8145 Dennis Avenue","city":"Finiq","zip_code":"379"},
{"company_name":"Feedfire","address":"594 Arkansas Park","city":"Brušperk","zip_code":"35411"},
{"company_name":"Ozu","address":"46344 Dayton Place","city":"Santa Maria","zip_code":"5"},
{"company_name":"Edgeclub","address":"8835 Talisman Place","city":"Tierp","zip_code":"839"},
{"company_name":"Skimia","address":"720 Lerdahl Street","city":"Kitahama","zip_code":"1889"},
{"company_name":"Meetz","address":"7 Calypso Avenue","city":"Pasar","zip_code":"09549"},
{"company_name":"Digitube","address":"4746 Valley Edge Point","city":"Chichigalpa","zip_code":"04697"},
{"company_name":"Topicware","address":"84 Packers Way","city":"Robonkon","zip_code":"9"},
{"company_name":"Tambee","address":"4682 Maple Wood Way","city":"Agen","zip_code":"4"},
{"company_name":"Eire","address":"74 Rutledge Plaza","city":"Córdoba","zip_code":"47807"},
{"company_name":"Plajo","address":"101 5th Point","city":"Qincheng","zip_code":"8953"},
{"company_name":"Divape","address":"125 Hoffman Avenue","city":"Bor","zip_code":"4"},
{"company_name":"Skyvu","address":"95450 Eagle Crest Hill","city":"Badajoz","zip_code":"34039"},
{"company_name":"Lazzy","address":"55 Stuart Way","city":"Nguken","zip_code":"9"},
{"company_name":"Flashpoint","address":"08461 Columbus Park","city":"Cutral-Có","zip_code":"6"},
{"company_name":"Jayo","address":"5521 Del Sol Alley","city":"Lewokluok","zip_code":"3365"},
{"company_name":"Rhycero","address":"8 Hoard Crossing","city":"Baraguá","zip_code":"92488"},
{"company_name":"Rooxo","address":"0881 Fairview Junction","city":"Açucena","zip_code":"1"},
{"company_name":"Browseblab","address":"97 Gateway Point","city":"Changliang","zip_code":"203"},
{"company_name":"Avamm","address":"2452 Maple Wood Circle","city":"Pampas","zip_code":"93317"},
{"company_name":"Ailane","address":"08 Kings Junction","city":"Varberg","zip_code":"68775"},
{"company_name":"Quimm","address":"7626 Crest Line Place","city":"Datun","zip_code":"8354"},
{"company_name":"Yodo","address":"45 Rockefeller Court","city":"General Enrique Mosconi","zip_code":"1630"},
{"company_name":"Trunyx","address":"11736 Drewry Pass","city":"President Roxas","zip_code":"6"},
{"company_name":"Mydeo","address":"54 Pearson Road","city":"Hankha","zip_code":"01917"},
{"company_name":"Tazz","address":"6019 Lawn Point","city":"Tayasan","zip_code":"246"},
{"company_name":"Viva","address":"7 2nd Park","city":"Prilep","zip_code":"85"},
{"company_name":"Meevee","address":"1550 Rieder Pass","city":"Maria Aurora","zip_code":"89848"},
{"company_name":"Vipe","address":"35 Rusk Pass","city":"Quintinha","zip_code":"57"},
{"company_name":"Twiyo","address":"36860 Gateway Way","city":"Outokumpu","zip_code":"412"},
{"company_name":"Oyoba","address":"27928 Maywood Center","city":"Pirojpur","zip_code":"1322"},
{"company_name":"Eimbee","address":"16 Lyons Center","city":"Muraloka","zip_code":"24"},
{"company_name":"Podcat","address":"11 Vidon Parkway","city":"Bifeng","zip_code":"2709"},
{"company_name":"Yozio","address":"7220 Monterey Lane","city":"Mērsrags","zip_code":"701"},
{"company_name":"Tagtune","address":"9 Packers Place","city":"Herrljunga","zip_code":"16"},
{"company_name":"Twinder","address":"457 Caliangt Hill","city":"Hexi","zip_code":"3111"},
{"company_name":"Demimbu","address":"6 Atwood Court","city":"Jiulong","zip_code":"083"},
{"company_name":"Agivu","address":"848 Judy Junction","city":"Amaury","zip_code":"357"},
{"company_name":"Quinu","address":"689 Cardinal Lane","city":"Combapata","zip_code":"3"},
{"company_name":"Mybuzz","address":"07157 Spohn Park","city":"Palama","zip_code":"71"},
{"company_name":"Ntags","address":"8145 Oakridge Park","city":"Kanye","zip_code":"390"},
{"company_name":"Quamba","address":"28 Hagan Junction","city":"Menglie","zip_code":"479"},
{"company_name":"Eazzy","address":"90 Truax Point","city":"Benešov nad Ploučnicí","zip_code":"69"},
{"company_name":"Yakidoo","address":"93305 Loomis Drive","city":"Weetombo","zip_code":"328"},
{"company_name":"Twitterbridge","address":"65 Pawling Crossing","city":"Impendle","zip_code":"01"},
{"company_name":"Bubbletube","address":"5566 Banding Street","city":"Paulba","zip_code":"84"},
{"company_name":"Katz","address":"29060 Armistice Trail","city":"Ikongo","zip_code":"08858"},
{"company_name":"Janyx","address":"9 Schiller Plaza","city":"Gaurnadi","zip_code":"06"},
{"company_name":"Dynabox","address":"7626 Lyons Hill","city":"Safonovo","zip_code":"467"},
{"company_name":"Blogtag","address":"4 Claremont Avenue","city":"Raposeira","zip_code":"327"},
{"company_name":"Voolith","address":"822 Caliangt Alley","city":"Duraykīsh","zip_code":"899"},
{"company_name":"Dynazzy","address":"3 Erie Point","city":"Ariguaní","zip_code":"6132"},
{"company_name":"Wordware","address":"11 Valley Edge Point","city":"Suizhong","zip_code":"0880"},
{"company_name":"Wikivu","address":"161 Coleman Alley","city":"Meukek","zip_code":"2"},
{"company_name":"Wordware","address":"9 Blaine Crossing","city":"Indianapolis","zip_code":"12577"},
{"company_name":"Meemm","address":"0537 Reinke Park","city":"Don Tan","zip_code":"4"},
{"company_name":"Twinder","address":"9 Nobel Park","city":"Chongqing","zip_code":"50629"},
{"company_name":"Yadel","address":"5957 Steensland Circle","city":"Malaba","zip_code":"862"},
{"company_name":"Dabvine","address":"109 Sauthoff Avenue","city":"Baota","zip_code":"6"},
{"company_name":"Thoughtbridge","address":"4198 Calypso Point","city":"Santa Rita","zip_code":"6355"},
{"company_name":"Meevee","address":"921 Miller Drive","city":"Panshan","zip_code":"5037"},
{"company_name":"Youspan","address":"2822 Columbus Road","city":"Sol’-Iletsk","zip_code":"57"},
{"company_name":"Mynte","address":"0 Schlimgen Street","city":"Ust-Kamenogorsk","zip_code":"952"},
{"company_name":"Divanoodle","address":"6516 Helena Avenue","city":"Gaoqiao","zip_code":"888"},
{"company_name":"Gevee","address":"633 Pepper Wood Crossing","city":"Kamaishi","zip_code":"6905"},
{"company_name":"Oyoloo","address":"621 Dawn Alley","city":"Bodiosa a Velha","zip_code":"434"},
{"company_name":"Realbuzz","address":"29 Sutherland Point","city":"Iwonicz-Zdrój","zip_code":"8"},
{"company_name":"Centimia","address":"20 Talmadge Crossing","city":"Zhoutie","zip_code":"2"},
{"company_name":"Kanoodle","address":"96 Autumn Leaf Circle","city":"Yonggu","zip_code":"219"},
{"company_name":"Blogpad","address":"18125 Sunbrook Park","city":"Guantian","zip_code":"5815"},
{"company_name":"Dynazzy","address":"99935 Blaine Junction","city":"Tembang","zip_code":"359"},
{"company_name":"Tagcat","address":"57809 Dakota Park","city":"Reggada","zip_code":"8837"},
{"company_name":"Linkbridge","address":"25465 Judy Place","city":"Portela","zip_code":"4"},
{"company_name":"Tagfeed","address":"5 Northview Road","city":"Shuanggang","zip_code":"9855"},
{"company_name":"Devcast","address":"5 Mallard Trail","city":"Wenfu","zip_code":"8"},
{"company_name":"Wordware","address":"75892 Artisan Center","city":"Dujuuma","zip_code":"6521"},
{"company_name":"Vipe","address":"405 Blackbird Park","city":"Araçoiaba da Serra","zip_code":"07"},
{"company_name":"Voolia","address":"18 Carberry Hill","city":"Jabranti","zip_code":"7445"},
{"company_name":"Shuffletag","address":"533 Mifflin Junction","city":"Binagadi","zip_code":"654"},
{"company_name":"Jetwire","address":"5445 Dwight Court","city":"Feni","zip_code":"9284"},
{"company_name":"Devpoint","address":"9555 Stoughton Court","city":"Marseille","zip_code":"0"},
{"company_name":"Skiptube","address":"9 Tony Drive","city":"Boise","zip_code":"671"},
{"company_name":"Quinu","address":"535 Miller Drive","city":"Damietta","zip_code":"9"},
{"company_name":"Skimia","address":"38 Hazelcrest Park","city":"Espírito Santo do Pinhal","zip_code":"0594"},
{"company_name":"Kare","address":"1 Vera Lane","city":"Nancha","zip_code":"176"},
{"company_name":"Skinte","address":"3094 Hoepker Hill","city":"Gununglarang","zip_code":"2"},
{"company_name":"Photolist","address":"478 Old Gate Plaza","city":"Xinglong","zip_code":"5"},
{"company_name":"Jabbersphere","address":"8657 Mitchell Court","city":"Jednorożec","zip_code":"572"},
{"company_name":"Photobug","address":"4173 Manley Plaza","city":"Comandante Fontana","zip_code":"4549"},
{"company_name":"Avaveo","address":"3930 Sunbrook Place","city":"Atafu Village","zip_code":"5"},
{"company_name":"Cogilith","address":"45 Transport Terrace","city":"Guomaying","zip_code":"49887"},
{"company_name":"Plajo","address":"31 Westport Lane","city":"Przesmyki","zip_code":"662"},
{"company_name":"Fivechat","address":"564 Melvin Point","city":"Liaobu","zip_code":"4378"},
{"company_name":"Miboo","address":"7520 Pawling Circle","city":"Huskvarna","zip_code":"34"},
{"company_name":"Babbleblab","address":"1 Quincy Parkway","city":"Dallas","zip_code":"547"},
{"company_name":"Zoomzone","address":"4 Stoughton Lane","city":"Batakte","zip_code":"78"},
{"company_name":"Photofeed","address":"99214 Sherman Junction","city":"La Sabana","zip_code":"7"},
{"company_name":"BlogXS","address":"2428 Fairview Point","city":"Oslo","zip_code":"45"},
{"company_name":"Mydo","address":"212 Monument Hill","city":"Shangyuan","zip_code":"216"},
{"company_name":"Gabcube","address":"52059 Clove Crossing","city":"Otyń","zip_code":"320"},
{"company_name":"Skiptube","address":"2598 Eastlawn Avenue","city":"Xiamujiao","zip_code":"46973"},
{"company_name":"Omba","address":"174 Gina Circle","city":"Madrid","zip_code":"528"},
{"company_name":"Dabshots","address":"3465 Vahlen Park","city":"Virolahti","zip_code":"62"},
{"company_name":"Oloo","address":"1850 Pond Court","city":"Nyazepetrovsk","zip_code":"1"},
{"company_name":"Centizu","address":"8 Scofield Trail","city":"Di Linh","zip_code":"58"},
{"company_name":"Quire","address":"16232 David Place","city":"Biharamulo","zip_code":"8"},
{"company_name":"Tazzy","address":"007 Fieldstone Parkway","city":"Guagua","zip_code":"74"},
{"company_name":"Skyvu","address":"831 Delladonna Park","city":"Luklukan","zip_code":"2917"},
{"company_name":"Edgewire","address":"250 Delladonna Way","city":"Delicias","zip_code":"7526"},
{"company_name":"Zoomdog","address":"06 Mccormick Park","city":"Daxin","zip_code":"06"},
{"company_name":"Camido","address":"6 Nevada Court","city":"Binzhou","zip_code":"78180"},
{"company_name":"Skalith","address":"5 Maywood Hill","city":"Fullerton","zip_code":"16544"},
{"company_name":"Skaboo","address":"7 Montana Place","city":"Pointe-à-Pitre","zip_code":"72"},
{"company_name":"Photolist","address":"4214 Spohn Point","city":"Luleå","zip_code":"68622"},
{"company_name":"Kwilith","address":"377 Lakewood Gardens Alley","city":"Antimácheia","zip_code":"15476"},
{"company_name":"Podcat","address":"85786 Coolidge Plaza","city":"Shimokizukuri","zip_code":"47"},
{"company_name":"Kazu","address":"40 Anniversary Way","city":"Velingrad","zip_code":"5"},
{"company_name":"Topdrive","address":"668 Mallory Terrace","city":"Donghai","zip_code":"8905"},
{"company_name":"Cogibox","address":"69 Marcy Street","city":"Pilar","zip_code":"42931"},
{"company_name":"Mudo","address":"2434 Huxley Pass","city":"Niba","zip_code":"155"},
{"company_name":"Mynte","address":"68157 Delladonna Way","city":"Caçador","zip_code":"8871"},
{"company_name":"Realpoint","address":"4 Melody Junction","city":"Varginha","zip_code":"809"},
{"company_name":"Voomm","address":"12 Sullivan Terrace","city":"Lumsden","zip_code":"7"},
{"company_name":"Bubblebox","address":"29 South Lane","city":"Saku","zip_code":"9305"},
{"company_name":"Katz","address":"8 Jenna Place","city":"Al Karmil","zip_code":"9"},
{"company_name":"Devpulse","address":"41 Forest Dale Lane","city":"Cagdianao","zip_code":"21"},
{"company_name":"Avavee","address":"72164 Melby Point","city":"Songgang-dong","zip_code":"73"},
{"company_name":"Skyvu","address":"801 Blaine Parkway","city":"Nyagla","zip_code":"7912"},
{"company_name":"Reallinks","address":"097 Anhalt Alley","city":"Kuruman","zip_code":"0"},
{"company_name":"Zoomcast","address":"562 Graedel Trail","city":"Nakhchivan","zip_code":"8875"},
{"company_name":"Muxo","address":"52 Moulton Plaza","city":"Gumdag","zip_code":"419"},
{"company_name":"Skimia","address":"392 Rutledge Way","city":"Santa Maria Oliveira","zip_code":"9924"},
{"company_name":"Miboo","address":"0 Hansons Avenue","city":"Weligama","zip_code":"9844"},
{"company_name":"Realcube","address":"773 Montana Point","city":"Błażowa","zip_code":"60261"},
{"company_name":"Brainsphere","address":"50 Forest Lane","city":"At-Bashi","zip_code":"6"},
{"company_name":"Innotype","address":"672 Pleasure Hill","city":"Tushi","zip_code":"3"},
{"company_name":"Kwimbee","address":"56 Judy Center","city":"Nong Ki","zip_code":"07745"},
{"company_name":"Dynabox","address":"642 Bunting Plaza","city":"Xiaxihao","zip_code":"61"},
{"company_name":"Rhynyx","address":"72 Red Cloud Park","city":"Rondonópolis","zip_code":"76"},
{"company_name":"Gabspot","address":"4055 Marquette Road","city":"Buena Vista","zip_code":"67"},
{"company_name":"Topiclounge","address":"5 Scoville Plaza","city":"Sicheng","zip_code":"42212"},
{"company_name":"Youtags","address":"97 Novick Road","city":"Unidad","zip_code":"84234"},
{"company_name":"Plambee","address":"497 Rigney Terrace","city":"Toluviejo","zip_code":"619"},
{"company_name":"Gabvine","address":"01 Buell Road","city":"Langtou","zip_code":"1344"},
{"company_name":"Yodo","address":"8132 Spohn Lane","city":"Bueng Kan","zip_code":"585"},
{"company_name":"Vidoo","address":"331 Algoma Crossing","city":"Ad Dawādimī","zip_code":"9492"},
{"company_name":"Zoonder","address":"0737 Westport Lane","city":"Daxi","zip_code":"944"},
{"company_name":"Kwilith","address":"81069 Randy Drive","city":"Sisŏphŏn","zip_code":"29"},
{"company_name":"Meedoo","address":"8628 Stang Lane","city":"Santa Lucía","zip_code":"32076"},
{"company_name":"Twitterbridge","address":"60520 Oak Street","city":"Angoulême","zip_code":"3"},
{"company_name":"Avamm","address":"800 Fair Oaks Parkway","city":"Rača","zip_code":"1"},
{"company_name":"Linkbuzz","address":"13779 Surrey Drive","city":"Hollola","zip_code":"745"},
{"company_name":"Thoughtstorm","address":"77120 Brentwood Street","city":"Balice","zip_code":"67"},
{"company_name":"Jaloo","address":"2 Johnson Crossing","city":"Yuanling","zip_code":"0273"},
{"company_name":"Katz","address":"7993 Hauk Junction","city":"Huaqiao","zip_code":"06"},
{"company_name":"Eamia","address":"4 Kim Lane","city":"Schengen","zip_code":"307"},
{"company_name":"Realmix","address":"290 Arapahoe Center","city":"Puerto Obaldía","zip_code":"1"},
{"company_name":"Mynte","address":"3126 Hayes Lane","city":"Laizhou","zip_code":"6826"},
{"company_name":"Tagtune","address":"81449 Meadow Ridge Park","city":"Qiancheng","zip_code":"8051"},
{"company_name":"Kaymbo","address":"82318 Pankratz Alley","city":"Auxerre","zip_code":"0"},
{"company_name":"Photobug","address":"23539 Oak Valley Place","city":"Sztum","zip_code":"76317"},
{"company_name":"Chatterpoint","address":"70 Rieder Court","city":"El Bolsón","zip_code":"302"},
{"company_name":"Eayo","address":"892 Straubel Drive","city":"Strenči","zip_code":"2"},
{"company_name":"Mynte","address":"40 Northfield Center","city":"Zhongyuan","zip_code":"37"},
{"company_name":"Photobug","address":"51 Golf Course Point","city":"Xiaozhi","zip_code":"585"},
{"company_name":"Rooxo","address":"87540 Goodland Street","city":"Monastirákion","zip_code":"0"},
{"company_name":"Voonte","address":"7 Amoth Way","city":"Trenton","zip_code":"94329"},
{"company_name":"Agivu","address":"365 Stang Circle","city":"Nariño","zip_code":"37293"},
{"company_name":"Avaveo","address":"102 Londonderry Park","city":"El Nido","zip_code":"99369"},
{"company_name":"Camido","address":"4 Lotheville Plaza","city":"Osapsio","zip_code":"2191"},
{"company_name":"Nlounge","address":"4 Leroy Court","city":"Dzvinogrud","zip_code":"04825"},
{"company_name":"Reallinks","address":"596 Emmet Point","city":"Balete","zip_code":"6061"},
{"company_name":"Topiczoom","address":"2 Sage Avenue","city":"Ängelholm","zip_code":"1375"},
{"company_name":"Roodel","address":"8450 Johnson Parkway","city":"Shilong","zip_code":"362"},
{"company_name":"Browsedrive","address":"45360 Lindbergh Junction","city":"Goodlands","zip_code":"3755"},
{"company_name":"Rhyzio","address":"6 Lerdahl Parkway","city":"Diré","zip_code":"3757"},
{"company_name":"Voolith","address":"5157 Bonner Avenue","city":"Thongwa","zip_code":"2"},
{"company_name":"Yabox","address":"47 Waywood Street","city":"Payao","zip_code":"9313"},
{"company_name":"Avaveo","address":"57 Birchwood Place","city":"Richmond","zip_code":"5529"},
{"company_name":"Flipstorm","address":"21 Eastlawn Junction","city":"Krasnyy Lyman","zip_code":"9"},
{"company_name":"Rhybox","address":"71011 Prairieview Circle","city":"Yessentuki","zip_code":"85423"},
{"company_name":"Vitz","address":"02508 Algoma Street","city":"Albacete","zip_code":"8813"},
{"company_name":"Jaxbean","address":"2635 Bashford Crossing","city":"Chhāgalnāiya","zip_code":"94"},
{"company_name":"Jamia","address":"72619 Esker Terrace","city":"Gavião","zip_code":"52"},
{"company_name":"Eare","address":"18 Moose Avenue","city":"Bunga Mas","zip_code":"9216"},
{"company_name":"Flipopia","address":"9790 Fremont Pass","city":"Bayt ‘Ūr at Taḩtā","zip_code":"101"},
{"company_name":"Jayo","address":"130 Golf Course Place","city":"Mendeleyevskiy","zip_code":"091"},
{"company_name":"Topicshots","address":"6 Bluejay Junction","city":"Ichuña","zip_code":"62"},
{"company_name":"Jabberstorm","address":"751 Hanover Street","city":"Ampara","zip_code":"21377"},
{"company_name":"Jabbersphere","address":"02 Main Place","city":"Pisões","zip_code":"95"},
{"company_name":"Roomm","address":"4 Carioca Street","city":"Pali","zip_code":"667"},
{"company_name":"Meedoo","address":"7 Jenifer Hill","city":"Maun","zip_code":"54146"},
{"company_name":"Blogspan","address":"93 Waywood Avenue","city":"Xinglong","zip_code":"140"},
{"company_name":"Chatterbridge","address":"7 Kinsman Trail","city":"Uritsk","zip_code":"30734"},
{"company_name":"Gabspot","address":"8 Prentice Junction","city":"Zhongchao","zip_code":"451"},
{"company_name":"Lazz","address":"8 Everett Point","city":"Halong","zip_code":"2"},
{"company_name":"Flipopia","address":"9 Vidon Lane","city":"Shaba Zhen","zip_code":"4290"},
{"company_name":"Ntag","address":"519 8th Point","city":"Dapdap","zip_code":"7285"},
{"company_name":"Trupe","address":"19 Clemons Point","city":"Bella Vista","zip_code":"6424"},
{"company_name":"Twinder","address":"12046 Harper Avenue","city":"Sampangbitung","zip_code":"3"},
{"company_name":"Cogibox","address":"45 Crowley Pass","city":"Pining","zip_code":"8748"},
{"company_name":"Youtags","address":"61944 Tomscot Point","city":"Hövsan","zip_code":"669"},
{"company_name":"Vipe","address":"134 Independence Alley","city":"Aguasay","zip_code":"19"},
{"company_name":"Skimia","address":"20 Sage Crossing","city":"Duncan Town","zip_code":"43"},
{"company_name":"Twitterworks","address":"155 Dovetail Pass","city":"Uddevalla","zip_code":"656"},
{"company_name":"Skaboo","address":"14177 Ilene Parkway","city":"Llipa","zip_code":"7"},
{"company_name":"Babbleblab","address":"796 Stang Plaza","city":"Azilal","zip_code":"5304"},
{"company_name":"Chatterpoint","address":"01 Warner Junction","city":"Point Pedro","zip_code":"587"},
{"company_name":"Lazzy","address":"6202 Petterle Crossing","city":"Hägersten","zip_code":"9054"},
{"company_name":"Yakidoo","address":"658 Coleman Pass","city":"Santa Bárbara de Padrões","zip_code":"30578"},
{"company_name":"Skajo","address":"88609 Evergreen Parkway","city":"Rîşcani","zip_code":"132"},
{"company_name":"Yata","address":"21402 Susan Circle","city":"Arvayheer","zip_code":"24"},
{"company_name":"Shufflebeat","address":"30282 La Follette Terrace","city":"Arteche","zip_code":"4790"},
{"company_name":"Flashpoint","address":"21 Elka Center","city":"Oslo","zip_code":"68608"},
{"company_name":"Divape","address":"0339 Garrison Crossing","city":"Rancaseneng","zip_code":"36"},
{"company_name":"Feednation","address":"4426 Vera Crossing","city":"Monte da Pedra","zip_code":"7"},
{"company_name":"Quamba","address":"32766 Trailsway Crossing","city":"Angan","zip_code":"808"},
{"company_name":"Demizz","address":"2 Manley Court","city":"Jing’an","zip_code":"541"},
{"company_name":"Divanoodle","address":"87890 Lillian Crossing","city":"Borås","zip_code":"2"},
{"company_name":"Kwimbee","address":"1 Susan Pass","city":"Anxi","zip_code":"0"},
{"company_name":"Topicblab","address":"340 Colorado Park","city":"Olonets","zip_code":"94"},
{"company_name":"Twinder","address":"8599 Bowman Court","city":"Hrodna","zip_code":"53"},
{"company_name":"Blogpad","address":"5566 East Avenue","city":"Zungeru","zip_code":"60345"},
{"company_name":"Yodoo","address":"20952 Blaine Hill","city":"Xinwan","zip_code":"371"},
{"company_name":"Skyndu","address":"979 Bonner Junction","city":"Aş Şafaqayn","zip_code":"2"},
{"company_name":"Vitz","address":"0419 Havey Street","city":"Kanghe","zip_code":"86"},
{"company_name":"Livetube","address":"619 Lunder Junction","city":"Daba","zip_code":"32488"},
{"company_name":"Eayo","address":"216 Glendale Trail","city":"Sheregesh","zip_code":"8"},
{"company_name":"Mybuzz","address":"068 Cambridge Lane","city":"Jiehu","zip_code":"4"},
{"company_name":"Rhyzio","address":"59 Reindahl Crossing","city":"Xiongbei","zip_code":"5551"},
{"company_name":"Skidoo","address":"66688 Jay Plaza","city":"Oksa","zip_code":"4573"},
{"company_name":"Skinix","address":"28185 Monterey Lane","city":"Bentar","zip_code":"69"},
{"company_name":"Photobug","address":"2478 Old Shore Court","city":"Yamagata-shi","zip_code":"442"},
{"company_name":"Layo","address":"400 Little Fleur Crossing","city":"Quận Năm","zip_code":"2"},
{"company_name":"Quamba","address":"39166 Ohio Road","city":"Tanjungbatu","zip_code":"06"},
{"company_name":"Livefish","address":"4817 Wayridge Court","city":"Rudnik","zip_code":"6"},
{"company_name":"Yodel","address":"6380 Crest Line Place","city":"Broto","zip_code":"46887"},
{"company_name":"JumpXS","address":"2 Toban Parkway","city":"Drakhtik","zip_code":"12642"},
{"company_name":"Livepath","address":"08659 Sundown Street","city":"Palca","zip_code":"0"},
{"company_name":"Avaveo","address":"7236 Moland Avenue","city":"Tembilahan","zip_code":"59"},
{"company_name":"Skinix","address":"7603 Daystar Park","city":"Tatuí","zip_code":"0"},
{"company_name":"Realcube","address":"379 Vidon Alley","city":"Bochum","zip_code":"0"},
{"company_name":"Dabfeed","address":"678 Granby Avenue","city":"Port Hawkesbury","zip_code":"552"},
{"company_name":"Zoombeat","address":"8 5th Trail","city":"Xiangdong","zip_code":"6"},
{"company_name":"Oyoba","address":"71864 Farwell Place","city":"Novyye Kuz’minki","zip_code":"00180"},
{"company_name":"Brightdog","address":"324 Almo Street","city":"Sadabumi","zip_code":"6"},
{"company_name":"Kazio","address":"02797 Oneill Terrace","city":"Bugembe","zip_code":"8"},
{"company_name":"Gevee","address":"188 Quincy Plaza","city":"Thị Trấn Bắc Hà","zip_code":"991"},
{"company_name":"Blogtag","address":"5 Crownhardt Drive","city":"Fonte Boa","zip_code":"5166"},
{"company_name":"Flipstorm","address":"62 Nevada Hill","city":"Shkodër","zip_code":"94326"},
{"company_name":"Agimba","address":"6 Mifflin Point","city":"Tiantang","zip_code":"971"},
{"company_name":"Flipstorm","address":"9086 Tomscot Plaza","city":"Caldas","zip_code":"79"},
{"company_name":"Edgeclub","address":"2069 Cambridge Court","city":"Hamhŭng","zip_code":"12920"},
{"company_name":"Wordpedia","address":"4 Shelley Lane","city":"Tallahassee","zip_code":"368"},
{"company_name":"Trupe","address":"7704 Kipling Way","city":"Navashino","zip_code":"35325"},
{"company_name":"Kazio","address":"5949 Grayhawk Center","city":"Burgaltay","zip_code":"66752"},
{"company_name":"Feedmix","address":"9180 Duke Alley","city":"Anyar","zip_code":"3170"},
{"company_name":"Topicshots","address":"711 Montana Trail","city":"Juhut","zip_code":"096"},
{"company_name":"Miboo","address":"29 South Road","city":"Ni’ao","zip_code":"8"},
{"company_name":"Yacero","address":"39 Gina Trail","city":"Dnestrovsc","zip_code":"65"},
{"company_name":"BlogXS","address":"53645 Buhler Road","city":"Prinza","zip_code":"738"},
{"company_name":"Eare","address":"64873 Fallview Junction","city":"Qumudi","zip_code":"445"},
{"company_name":"Twitterbeat","address":"34117 Parkside Crossing","city":"Denver","zip_code":"751"},
{"company_name":"Feednation","address":"4744 Cherokee Road","city":"Daiyue","zip_code":"5671"},
{"company_name":"Plajo","address":"38988 Summit Alley","city":"Támara","zip_code":"02"},
{"company_name":"Roomm","address":"8386 Rusk Junction","city":"Guagua","zip_code":"777"},
{"company_name":"Yata","address":"201 Ludington Street","city":"Klapagada","zip_code":"9598"},
{"company_name":"Skilith","address":"4374 Utah Street","city":"Providence","zip_code":"095"},
{"company_name":"Wikizz","address":"576 Declaration Alley","city":"Primorskiy","zip_code":"23301"},
{"company_name":"Devpoint","address":"3838 Chive Pass","city":"Bama","zip_code":"01"},
{"company_name":"Kayveo","address":"157 Glacier Hill Terrace","city":"Baranów","zip_code":"5"},
{"company_name":"Livepath","address":"35 Texas Court","city":"Gémeos","zip_code":"7530"},
{"company_name":"Quaxo","address":"87 Browning Park","city":"Francistown","zip_code":"02"},
{"company_name":"Snaptags","address":"92 Darwin Parkway","city":"Neochóri","zip_code":"84400"},
{"company_name":"Fliptune","address":"9630 Arapahoe Center","city":"Hushan","zip_code":"4463"},
{"company_name":"Eamia","address":"328 South Drive","city":"Lihu","zip_code":"655"},
{"company_name":"Oyondu","address":"43 Jenna Park","city":"Laiguangying","zip_code":"9"},
{"company_name":"Innojam","address":"74729 Magdeline Street","city":"Ciwaru","zip_code":"77566"},
{"company_name":"Zoomcast","address":"6 Basil Drive","city":"Zhoujiaba","zip_code":"473"},
{"company_name":"Myworks","address":"36 Sachs Avenue","city":"Sam Chuk","zip_code":"74177"},
{"company_name":"Muxo","address":"6868 Meadow Valley Trail","city":"Ajax","zip_code":"51557"},
{"company_name":"Zoombox","address":"5 La Follette Crossing","city":"Shalamzār","zip_code":"7"},
{"company_name":"Quatz","address":"0 Anderson Way","city":"Eustaquio Lopez","zip_code":"63"},
{"company_name":"Quinu","address":"426 Ludington Avenue","city":"Bartolomé Masó","zip_code":"4"},
{"company_name":"Edgetag","address":"364 Rutledge Point","city":"Cuilco","zip_code":"65278"},
{"company_name":"Tambee","address":"3 Commercial Street","city":"Horodok","zip_code":"91"},
{"company_name":"Devshare","address":"363 Roth Park","city":"Ejido","zip_code":"284"},
{"company_name":"Jamia","address":"7 Pond Terrace","city":"Kornyn","zip_code":"33"},
{"company_name":"Thoughtblab","address":"71 Dixon Place","city":"Meicheng","zip_code":"701"},
{"company_name":"Avamba","address":"704 Dorton Junction","city":"Paraiso","zip_code":"574"},
{"company_name":"Brainlounge","address":"37 Mesta Avenue","city":"Mbanga","zip_code":"48307"},
{"company_name":"Eadel","address":"65912 Caliangt Street","city":"Banjar Bengkelgede","zip_code":"75033"},
{"company_name":"Yata","address":"776 Hansons Lane","city":"Atlantis","zip_code":"0"},
{"company_name":"Blogtag","address":"1010 Stephen Pass","city":"Donglai","zip_code":"7061"},
{"company_name":"Rhybox","address":"53354 Dennis Terrace","city":"Nikolinci","zip_code":"6879"},
{"company_name":"Blogspan","address":"22 Shelley Avenue","city":"Soras","zip_code":"59108"},
{"company_name":"Skimia","address":"718 West Parkway","city":"Nageswari","zip_code":"8862"},
{"company_name":"Avaveo","address":"23 Warner Junction","city":"Veselí nad Lužnicí","zip_code":"08900"},
{"company_name":"Skidoo","address":"32379 Katie Pass","city":"Vilcún","zip_code":"0851"},
{"company_name":"Quire","address":"75 Lake View Lane","city":"Xinshiba","zip_code":"6"},
{"company_name":"Twitternation","address":"03942 Lien Circle","city":"Pantaihambawang","zip_code":"084"},
{"company_name":"Dynava","address":"7 Manufacturers Plaza","city":"Bronx","zip_code":"042"},
{"company_name":"Jabbersphere","address":"765 Michigan Hill","city":"Ayapel","zip_code":"93"},
{"company_name":"Skajo","address":"91845 Homewood Avenue","city":"Noyemberyan","zip_code":"506"},
{"company_name":"Voonder","address":"6439 Marcy Parkway","city":"Tangdong","zip_code":"1166"},
{"company_name":"Realbuzz","address":"16 Arrowood Road","city":"Grevená","zip_code":"3536"},
{"company_name":"Zoonoodle","address":"764 Harper Avenue","city":"Nato","zip_code":"028"},
{"company_name":"Youfeed","address":"5951 Talisman Street","city":"Banjar Bucu","zip_code":"21"},
{"company_name":"Blogpad","address":"42 Helena Circle","city":"Khon Buri","zip_code":"0"},
{"company_name":"Skiptube","address":"4 Old Gate Point","city":"La Gomera","zip_code":"245"},
{"company_name":"Photojam","address":"82 Moland Park","city":"Lom Kao","zip_code":"92972"},
{"company_name":"Ailane","address":"0 Arkansas Drive","city":"Cililitan","zip_code":"83"},
{"company_name":"Browsetype","address":"88 Anniversary Trail","city":"Abay","zip_code":"3"},
{"company_name":"Trilith","address":"6 Dorton Park","city":"Quezon","zip_code":"3050"},
{"company_name":"Browseblab","address":"52514 Elgar Road","city":"Muara Sabak","zip_code":"499"},
{"company_name":"Demizz","address":"048 Spenser Court","city":"Laojunpo","zip_code":"9"},
{"company_name":"Photofeed","address":"96385 Portage Circle","city":"San Juan de Mata","zip_code":"2"},
{"company_name":"Skimia","address":"141 Manitowish Plaza","city":"Chastyye","zip_code":"084"},
{"company_name":"Oyondu","address":"53415 Village Green Lane","city":"Alor Setar","zip_code":"675"},
{"company_name":"Vidoo","address":"8 Arrowood Junction","city":"Wesoła","zip_code":"91831"},
{"company_name":"Voomm","address":"7 Annamark Point","city":"Tennō","zip_code":"3"},
{"company_name":"Oyonder","address":"6685 Jenifer Drive","city":"Kato Pyrgos","zip_code":"284"},
{"company_name":"Quimba","address":"11441 Maywood Pass","city":"Whitehorse","zip_code":"77"},
{"company_name":"Topdrive","address":"69 Blaine Avenue","city":"Takum","zip_code":"28"},
{"company_name":"JumpXS","address":"72109 Debs Trail","city":"Balingcanaway","zip_code":"88"},
{"company_name":"Linkbuzz","address":"006 Londonderry Street","city":"Batangtoru","zip_code":"19"},
{"company_name":"Plambee","address":"2133 Roth Alley","city":"Novaya Lyalya","zip_code":"0863"},
{"company_name":"Centimia","address":"9777 Summit Lane","city":"Langtou","zip_code":"1233"},
{"company_name":"Demizz","address":"484 Corscot Point","city":"Jand","zip_code":"91"},
{"company_name":"Camimbo","address":"5255 Nelson Place","city":"Färjestaden","zip_code":"34"},
{"company_name":"Babbleset","address":"17 Jana Place","city":"Chachagüí","zip_code":"622"},
{"company_name":"Eire","address":"1429 Eastwood Street","city":"Uttar Char Fasson","zip_code":"036"},
{"company_name":"Zooveo","address":"4042 Mallard Point","city":"Devesa","zip_code":"594"},
{"company_name":"Vipe","address":"5 Forster Court","city":"Los Pinos","zip_code":"8"},
{"company_name":"Zoonoodle","address":"053 Nevada Drive","city":"Huangcun","zip_code":"97"},
{"company_name":"Skalith","address":"46 Weeping Birch Junction","city":"Sanmiaoqian","zip_code":"5"},
{"company_name":"Yadel","address":"4 Scofield Crossing","city":"Karabash","zip_code":"43"},
{"company_name":"Twitterlist","address":"47 Bellgrove Plaza","city":"Paucar","zip_code":"14"},
{"company_name":"Quimm","address":"4716 Northfield Court","city":"Huangnan","zip_code":"686"},
{"company_name":"Zoonoodle","address":"41889 Nancy Park","city":"Feni","zip_code":"3"},
{"company_name":"Livepath","address":"913 Rowland Parkway","city":"Chaoyang","zip_code":"8"},
{"company_name":"Mybuzz","address":"24284 Maywood Road","city":"Montceau-les-Mines","zip_code":"325"},
{"company_name":"Photojam","address":"6876 Granby Avenue","city":"Zhoutou","zip_code":"21"},
{"company_name":"Tekfly","address":"94774 Lien Crossing","city":"Tuofeng","zip_code":"38498"},
{"company_name":"Thoughtworks","address":"4 Hallows Trail","city":"Hushaat","zip_code":"23675"},
{"company_name":"Midel","address":"756 Hagan Center","city":"Rezovac","zip_code":"570"},
{"company_name":"Buzzshare","address":"78780 Meadow Valley Point","city":"Totoral","zip_code":"8052"},
{"company_name":"Browsezoom","address":"18950 Glacier Hill Junction","city":"Águas de Lindóia","zip_code":"8379"},
{"company_name":"Feedmix","address":"61 Chinook Center","city":"Oslo","zip_code":"8"},
{"company_name":"Voolia","address":"8 Holy Cross Circle","city":"’Unābah","zip_code":"51423"},
{"company_name":"Ntags","address":"4642 Sunfield Drive","city":"Malway","zip_code":"0"},
{"company_name":"Jetpulse","address":"5242 Bluestem Crossing","city":"Fort Smith","zip_code":"766"},
{"company_name":"Yodo","address":"73743 Barby Drive","city":"Psygansu","zip_code":"45"},
{"company_name":"Voolith","address":"998 Esker Trail","city":"Saatlı","zip_code":"45758"},
{"company_name":"Tagchat","address":"93854 Clemons Court","city":"Kilju","zip_code":"84191"},
{"company_name":"Aibox","address":"8 Independence Park","city":"Byerazino","zip_code":"0136"},
{"company_name":"Meezzy","address":"803 Farragut Point","city":"Rozhniv","zip_code":"5091"},
{"company_name":"Eabox","address":"0 Eastlawn Terrace","city":"Feng’an","zip_code":"6234"},
{"company_name":"Jabberstorm","address":"57399 Mayer Pass","city":"Heung-hai","zip_code":"82"},
{"company_name":"Realpoint","address":"43 Laurel Trail","city":"Gwadabawa","zip_code":"9566"},
{"company_name":"Rhynyx","address":"13798 Mockingbird Drive","city":"Banjar Tengahbelayu","zip_code":"86"},
{"company_name":"Blogtag","address":"2 Oakridge Way","city":"Malabago","zip_code":"804"},
{"company_name":"Devpulse","address":"163 Dahle Junction","city":"Banatsko Veliko Selo","zip_code":"789"},
{"company_name":"Riffwire","address":"782 Crowley Center","city":"Paris 19","zip_code":"8"},
{"company_name":"Cogilith","address":"41 Namekagon Lane","city":"Cibitung","zip_code":"63"},
{"company_name":"Npath","address":"0 Hoard Street","city":"Apače","zip_code":"47"},
{"company_name":"Tagchat","address":"513 Myrtle Junction","city":"Tataouine","zip_code":"04"},
{"company_name":"Topicstorm","address":"34490 Sachtjen Point","city":"Oksa","zip_code":"903"},
{"company_name":"Jazzy","address":"2131 Hollow Ridge Road","city":"Balung","zip_code":"08"},
{"company_name":"Riffpath","address":"200 Browning Pass","city":"Taltal","zip_code":"516"},
{"company_name":"Eimbee","address":"8 Cardinal Crossing","city":"Santo Domingo de los Colorados","zip_code":"84934"},
{"company_name":"Gigazoom","address":"2057 Vera Alley","city":"Tata","zip_code":"87"},
{"company_name":"Feedmix","address":"92763 Duke Point","city":"Qā’en","zip_code":"9"},
{"company_name":"Meevee","address":"2 Larry Place","city":"Santa Fe","zip_code":"56"},
{"company_name":"Eadel","address":"4774 Pearson Terrace","city":"San Andrés Xecul","zip_code":"8308"},
{"company_name":"Fanoodle","address":"45 Oxford Terrace","city":"Mindyak","zip_code":"368"},
{"company_name":"Oyope","address":"4145 La Follette Court","city":"Youzha","zip_code":"77256"},
{"company_name":"Eayo","address":"8 Armistice Lane","city":"Torbeck","zip_code":"58156"},
{"company_name":"Oyope","address":"75432 Loomis Trail","city":"Khalkhāl","zip_code":"8147"},
{"company_name":"Thoughtstorm","address":"9822 Kinsman Parkway","city":"Podhum","zip_code":"760"},
{"company_name":"Buzzster","address":"645 Manufacturers Road","city":"Urayasu","zip_code":"06"},
{"company_name":"Yabox","address":"642 Pine View Parkway","city":"Hecun","zip_code":"648"},
{"company_name":"Realbuzz","address":"6 Riverside Lane","city":"Vinhedo","zip_code":"7401"},
{"company_name":"Pixonyx","address":"639 Iowa Court","city":"Rafaï","zip_code":"4134"},
{"company_name":"Buzzbean","address":"395 Lerdahl Crossing","city":"Hualfín","zip_code":"0"},
{"company_name":"Janyx","address":"0476 High Crossing Terrace","city":"Jami","zip_code":"61206"},
{"company_name":"Yoveo","address":"2 East Drive","city":"Cacequi","zip_code":"1164"},
{"company_name":"Ozu","address":"6 Basil Street","city":"Strasbourg","zip_code":"8630"},
{"company_name":"Dynava","address":"75801 Division Circle","city":"Dzięgielów","zip_code":"57330"},
{"company_name":"Jetpulse","address":"16 Hintze Drive","city":"Örnsköldsvik","zip_code":"98"},
{"company_name":"Feedbug","address":"642 Northwestern Lane","city":"Mainque","zip_code":"16"},
{"company_name":"Wordify","address":"9 Troy Terrace","city":"Taoyuan","zip_code":"5"},
{"company_name":"Ntag","address":"9119 Londonderry Street","city":"Portela","zip_code":"158"},
{"company_name":"Dabjam","address":"74 Mifflin Hill","city":"Phanat Nikhom","zip_code":"5"},
{"company_name":"Yakidoo","address":"68143 Merry Lane","city":"Rio Pardo","zip_code":"92"},
{"company_name":"Twitterbeat","address":"43035 2nd Way","city":"Mekele","zip_code":"49399"},
{"company_name":"Devpulse","address":"8 Mayfield Point","city":"Buriwutung","zip_code":"4"},
{"company_name":"Dabshots","address":"6 Mandrake Court","city":"Montauban","zip_code":"0154"},
{"company_name":"Realcube","address":"0863 Bayside Road","city":"Masoyila","zip_code":"35"},
{"company_name":"Voonder","address":"2390 Sutteridge Trail","city":"Jijiga","zip_code":"35"},
{"company_name":"Jaxnation","address":"908 Ryan Way","city":"Les Abymes","zip_code":"5"},
{"company_name":"Jayo","address":"05 Pine View Plaza","city":"Maunatlala","zip_code":"30"},
{"company_name":"Shufflebeat","address":"2545 Sycamore Road","city":"Huiyuan","zip_code":"1981"},
{"company_name":"Miboo","address":"9756 Elmside Point","city":"Ningxin","zip_code":"5"},
{"company_name":"Einti","address":"386 Mandrake Junction","city":"Śniadowo","zip_code":"0998"},
{"company_name":"Lazzy","address":"761 Killdeer Terrace","city":"Meijiang","zip_code":"9860"},
{"company_name":"Vinder","address":"40 Elmside Trail","city":"Port Erin","zip_code":"77799"},
{"company_name":"Kazu","address":"7222 Mallard Park","city":"Zhongxing","zip_code":"26"},
{"company_name":"Photofeed","address":"3 Ruskin Parkway","city":"Rennes","zip_code":"25"},
{"company_name":"Oozz","address":"53162 Veith Avenue","city":"Sigou","zip_code":"4941"},
{"company_name":"Divape","address":"0 Marquette Center","city":"Itzig","zip_code":"06"},
{"company_name":"Skalith","address":"15400 Buell Parkway","city":"Ar Rubū‘","zip_code":"149"},
{"company_name":"Flipbug","address":"54 Stephen Drive","city":"Borås","zip_code":"87468"},
{"company_name":"Fatz","address":"100 Upham Parkway","city":"Maralik","zip_code":"192"},
{"company_name":"Avavee","address":"4109 Harbort Crossing","city":"Baldone","zip_code":"9"},
{"company_name":"Vitz","address":"697 Victoria Hill","city":"Yanglong","zip_code":"762"},
{"company_name":"Katz","address":"682 Mitchell Avenue","city":"Wat Bot","zip_code":"210"},
{"company_name":"Yoveo","address":"6661 Hanover Hill","city":"Houxixi","zip_code":"21157"},
{"company_name":"Skalith","address":"88 Clove Terrace","city":"Sihe","zip_code":"5826"},
{"company_name":"Tagfeed","address":"943 Independence Lane","city":"Dimitsána","zip_code":"13597"},
{"company_name":"Bluejam","address":"660 Sycamore Way","city":"Hegarmulya","zip_code":"91"},
{"company_name":"Yodel","address":"2 Carioca Alley","city":"Três Pontas","zip_code":"64"},
{"company_name":"Aimbo","address":"3 Arrowood Hill","city":"Nar'yan-Mar","zip_code":"4"},
{"company_name":"Jaxworks","address":"8 Columbus Parkway","city":"Batan","zip_code":"9850"},
{"company_name":"Devcast","address":"61 Novick Avenue","city":"Rameshki","zip_code":"3"},
{"company_name":"LiveZ","address":"816 Katie Parkway","city":"Panganiban","zip_code":"434"},
{"company_name":"Feedmix","address":"82310 High Crossing Hill","city":"Jomda","zip_code":"7"},
{"company_name":"Layo","address":"641 Buena Vista Lane","city":"Tivat","zip_code":"16874"},
{"company_name":"Brainbox","address":"27327 Park Meadow Park","city":"Gorna Oryakhovitsa","zip_code":"505"},
{"company_name":"Edgepulse","address":"3229 Katie Center","city":"Daugavgrīva","zip_code":"319"},
{"company_name":"Feedbug","address":"36612 Bashford Parkway","city":"Cascavel","zip_code":"2"},
{"company_name":"Gevee","address":"95 Northridge Crossing","city":"Metz","zip_code":"79"},
{"company_name":"Skinte","address":"91 Killdeer Lane","city":"Linköping","zip_code":"7837"},
{"company_name":"Quinu","address":"681 School Circle","city":"Roma","zip_code":"0278"},
{"company_name":"Jetwire","address":"1 Lawn Drive","city":"Kampong Thom","zip_code":"31745"},
{"company_name":"Topiclounge","address":"49244 Commercial Crossing","city":"Naifalo","zip_code":"462"},
{"company_name":"Yacero","address":"84 Anthes Terrace","city":"Chita","zip_code":"64"},
{"company_name":"Photojam","address":"7320 Brentwood Avenue","city":"Palca","zip_code":"2031"},
{"company_name":"Abatz","address":"35595 Hermina Park","city":"Artemisa","zip_code":"50011"},
{"company_name":"Jabbercube","address":"429 Hauk Lane","city":"Batangafo","zip_code":"9"},
{"company_name":"Buzzbean","address":"67 Johnson Avenue","city":"Tegalgede Kulon","zip_code":"10661"},
{"company_name":"Yamia","address":"6 Meadow Valley Hill","city":"Jovim","zip_code":"4"},
{"company_name":"Browsebug","address":"0366 Sachtjen Lane","city":"Songshan","zip_code":"155"},
{"company_name":"Shuffledrive","address":"43 Mesta Terrace","city":"Rongxing","zip_code":"31582"},
{"company_name":"Agivu","address":"7 Golf Course Avenue","city":"Mao","zip_code":"1697"},
{"company_name":"Oozz","address":"02 8th Drive","city":"El Tránsito","zip_code":"03921"},
{"company_name":"Thoughtworks","address":"227 Commercial Pass","city":"Bayshint","zip_code":"8"},
{"company_name":"Youtags","address":"661 Mitchell Way","city":"Quesada","zip_code":"7"},
{"company_name":"Fanoodle","address":"0 Tony Court","city":"Patimuan","zip_code":"6397"},
{"company_name":"Thoughtmix","address":"59 Old Gate Way","city":"Dongshui","zip_code":"6"},
{"company_name":"Linklinks","address":"61 Stuart Road","city":"Saumur","zip_code":"38124"},
{"company_name":"Skinder","address":"05 Esker Alley","city":"Kimaam","zip_code":"334"},
{"company_name":"Kwimbee","address":"3 Swallow Terrace","city":"Angered","zip_code":"66231"},
{"company_name":"Blogtag","address":"853 Elka Hill","city":"Lallayug","zip_code":"9"},
{"company_name":"Photospace","address":"2 Mcbride Street","city":"Taozhou","zip_code":"0180"},
{"company_name":"Realcube","address":"434 Vidon Point","city":"Orléans","zip_code":"714"},
{"company_name":"Dazzlesphere","address":"5058 Pennsylvania Place","city":"Karlshamn","zip_code":"7"},
{"company_name":"Fivespan","address":"769 Morningstar Street","city":"Şaḩneh","zip_code":"2107"},
{"company_name":"Skaboo","address":"97678 Weeping Birch Crossing","city":"Goussainville","zip_code":"09274"},
{"company_name":"Rhybox","address":"035 Hudson Drive","city":"Paris 06","zip_code":"96177"},
{"company_name":"Tagcat","address":"8190 Corscot Trail","city":"Bovec","zip_code":"3759"},
{"company_name":"Quimba","address":"4030 Sauthoff Point","city":"Beaufort","zip_code":"9430"},
{"company_name":"Reallinks","address":"3673 Rigney Plaza","city":"Cañasgordas","zip_code":"92"},
{"company_name":"Blogpad","address":"42000 Talmadge Road","city":"Toulon","zip_code":"83229"},
{"company_name":"Tagchat","address":"7 Coolidge Court","city":"San José de Mayo","zip_code":"62860"},
{"company_name":"Shufflester","address":"7 Hovde Place","city":"Mafraq","zip_code":"3222"},
{"company_name":"Npath","address":"49280 Algoma Center","city":"Boyany","zip_code":"36114"},
{"company_name":"Gabspot","address":"6527 Petterle Center","city":"Carreira","zip_code":"29361"},
{"company_name":"Twitternation","address":"91 Marcy Plaza","city":"Mankoeng","zip_code":"676"},
{"company_name":"Zoovu","address":"9765 Bowman Road","city":"Sharïngol","zip_code":"46"},
{"company_name":"Eire","address":"60884 Armistice Crossing","city":"Plato","zip_code":"0604"},
{"company_name":"Wikido","address":"71 Lawn Road","city":"Gereykhanovskoye","zip_code":"22018"},
{"company_name":"Fanoodle","address":"939 Bultman Place","city":"Xiaozhoushan","zip_code":"59"},
{"company_name":"Oloo","address":"38 Lotheville Avenue","city":"Pacasmayo","zip_code":"25"},
{"company_name":"Avavee","address":"101 Springs Street","city":"Harian","zip_code":"601"},
{"company_name":"Rhyloo","address":"0152 Kipling Crossing","city":"Kalpáki","zip_code":"15730"},
{"company_name":"Skidoo","address":"887 Bobwhite Street","city":"Delft","zip_code":"4"},
{"company_name":"Mudo","address":"71 Fremont Parkway","city":"Kuršumlija","zip_code":"1431"},
{"company_name":"Blogpad","address":"45 Brown Way","city":"Chinch'ŏn","zip_code":"4936"},
{"company_name":"Quimm","address":"800 Acker Road","city":"Tours","zip_code":"1348"},
{"company_name":"Riffpedia","address":"969 Mosinee Pass","city":"Montego Bay","zip_code":"2"},
{"company_name":"Buzzdog","address":"4584 Mesta Drive","city":"Tiztoutine","zip_code":"43"},
{"company_name":"Eamia","address":"9837 Northport Terrace","city":"Ngaoundéré","zip_code":"17043"},
{"company_name":"Dablist","address":"782 Manley Trail","city":"Rizal","zip_code":"86"},
{"company_name":"Gigazoom","address":"77594 Sherman Plaza","city":"Tolkmicko","zip_code":"4495"},
{"company_name":"Skyba","address":"8 Homewood Plaza","city":"Tilmi","zip_code":"059"},
{"company_name":"Skyble","address":"9881 Maple Wood Trail","city":"Kotauneng","zip_code":"1244"},
{"company_name":"Dabfeed","address":"232 Algoma Junction","city":"Guacara","zip_code":"5"},
{"company_name":"Livetube","address":"40 Schiller Way","city":"Kotabaru Hilir","zip_code":"6"},
{"company_name":"Eire","address":"2 Sheridan Crossing","city":"Cartagena","zip_code":"18431"},
{"company_name":"Dynazzy","address":"3 Nobel Plaza","city":"Magrath","zip_code":"0512"},
{"company_name":"Rhycero","address":"0217 Scofield Crossing","city":"Zelenokumsk","zip_code":"50711"},
{"company_name":"Rhynyx","address":"9849 Division Trail","city":"El Capulin","zip_code":"1183"},
{"company_name":"Yata","address":"9 Scofield Pass","city":"Zibo","zip_code":"69861"},
{"company_name":"Topicblab","address":"77 Rutledge Street","city":"Santa Ana","zip_code":"44837"},
{"company_name":"Skipstorm","address":"922 Magdeline Lane","city":"Vol’nyy Aul","zip_code":"4575"},
{"company_name":"Flashdog","address":"6335 7th Trail","city":"Xincheng","zip_code":"214"},
{"company_name":"Edgeclub","address":"77961 Kropf Street","city":"Kasiyan","zip_code":"88"},
{"company_name":"Jayo","address":"636 Crescent Oaks Place","city":"Galván","zip_code":"87"},
{"company_name":"Meezzy","address":"7 Carioca Trail","city":"Leninsk","zip_code":"59"},
{"company_name":"Browseblab","address":"7 Washington Trail","city":"Posedarje","zip_code":"2"},
{"company_name":"Vidoo","address":"9076 Pond Hill","city":"Socorro","zip_code":"0618"},
{"company_name":"Dynabox","address":"1170 Susan Crossing","city":"Ilha de Moçambique","zip_code":"8"},
{"company_name":"Livetube","address":"6 Warrior Trail","city":"Krajan Timur Suger Kidul","zip_code":"01"},
{"company_name":"Layo","address":"261 Pleasure Point","city":"Nicosia","zip_code":"686"},
{"company_name":"Browseblab","address":"1287 Upham Circle","city":"Kuching","zip_code":"57"},
{"company_name":"Skyba","address":"2 Anzinger Street","city":"Knivsta","zip_code":"84106"},
{"company_name":"Skipfire","address":"314 Myrtle Trail","city":"Valkeakoski","zip_code":"12"},
{"company_name":"Skyble","address":"0756 Service Point","city":"Shar","zip_code":"1"},
{"company_name":"Brightdog","address":"82170 Ludington Alley","city":"Cikaras","zip_code":"392"},
{"company_name":"Eamia","address":"57345 Hudson Parkway","city":"Listvyanskiy","zip_code":"092"},
{"company_name":"Shufflebeat","address":"87 Homewood Circle","city":"Boise","zip_code":"72485"},
{"company_name":"Linkbridge","address":"573 Grasskamp Point","city":"Xinbao","zip_code":"1761"},
{"company_name":"Youspan","address":"44200 Jenifer Hill","city":"Suslonger","zip_code":"6385"},
{"company_name":"Zazio","address":"63683 Hoepker Junction","city":"Sangmu","zip_code":"96"},
{"company_name":"Photojam","address":"1677 Caliangt Parkway","city":"Wangtuan","zip_code":"9305"},
{"company_name":"Aimbo","address":"9 Arkansas Place","city":"Magersari","zip_code":"24"},
{"company_name":"Jabberstorm","address":"48986 Merchant Point","city":"Blackfalds","zip_code":"6"},
{"company_name":"Meezzy","address":"39721 Debs Parkway","city":"Auas","zip_code":"555"},
{"company_name":"Shuffletag","address":"668 Hovde Trail","city":"Raniżów","zip_code":"7"},
{"company_name":"Demizz","address":"3749 Jenna Pass","city":"Miejska Górka","zip_code":"53"},
{"company_name":"Centizu","address":"183 Sachtjen Parkway","city":"Oss","zip_code":"0"},
{"company_name":"Thoughtblab","address":"6882 Acker Parkway","city":"Qishui","zip_code":"5"},
{"company_name":"Digitube","address":"58756 Kinsman Parkway","city":"Vasyshcheve","zip_code":"79"},
{"company_name":"Tekfly","address":"20 International Street","city":"Bourail","zip_code":"81"},
{"company_name":"Dabshots","address":"8 Trailsway Crossing","city":"Wulijie","zip_code":"237"},
{"company_name":"Leenti","address":"64 Sunfield Alley","city":"Indang","zip_code":"6067"},
{"company_name":"Dynazzy","address":"61550 Bellgrove Junction","city":"Zárkos","zip_code":"0"},
{"company_name":"Gigashots","address":"12 Fairview Alley","city":"San Antonio","zip_code":"9929"},
{"company_name":"Yacero","address":"8 Morningstar Road","city":"Salimbao","zip_code":"40"},
{"company_name":"Kazu","address":"16487 Beilfuss Place","city":"Canillo","zip_code":"897"},
{"company_name":"Realpoint","address":"61 Reinke Avenue","city":"Kovilj","zip_code":"3"},
{"company_name":"Eamia","address":"47059 Monument Lane","city":"Yuncheng","zip_code":"27124"},
{"company_name":"Zazio","address":"43 Hooker Lane","city":"Jacareí","zip_code":"41"},
{"company_name":"Yakitri","address":"518 Mosinee Pass","city":"Garça","zip_code":"713"},
{"company_name":"Aivee","address":"48295 Dennis Alley","city":"Tuochuan","zip_code":"393"},
{"company_name":"Bluejam","address":"02667 Ridge Oak Park","city":"Huitán","zip_code":"74"},
{"company_name":"Tagpad","address":"69551 Marcy Circle","city":"Petit Valley","zip_code":"2318"},
{"company_name":"Avavee","address":"2 Petterle Pass","city":"Pasirnangka","zip_code":"8"},
{"company_name":"Dabfeed","address":"25 Schlimgen Center","city":"Anh Son","zip_code":"0709"},
{"company_name":"Livetube","address":"9472 Waubesa Drive","city":"Sambungjaya","zip_code":"6"},
{"company_name":"Dazzlesphere","address":"0793 Golf Terrace","city":"Driefontein","zip_code":"0625"},
{"company_name":"Twitternation","address":"20 Esker Road","city":"Nanlü","zip_code":"0357"},
{"company_name":"Kare","address":"463 Hansons Alley","city":"Hoit Taria","zip_code":"53868"},
{"company_name":"Vinder","address":"7 Granby Center","city":"Cimadang","zip_code":"6028"},
{"company_name":"Jazzy","address":"49 Vera Place","city":"San Jose","zip_code":"567"},
{"company_name":"Latz","address":"64 Golf Course Pass","city":"Wantou","zip_code":"79926"},
{"company_name":"Gabvine","address":"9 Express Crossing","city":"Gainesville","zip_code":"077"},
{"company_name":"Skibox","address":"0 8th Plaza","city":"Rancakuya","zip_code":"9"},
{"company_name":"Brainbox","address":"80 Ludington Avenue","city":"Ketampak","zip_code":"9"},
{"company_name":"Jayo","address":"5 Paget Circle","city":"Ambositra","zip_code":"413"},
{"company_name":"Zava","address":"47 Norway Maple Road","city":"Regueiro","zip_code":"55"},
{"company_name":"Quaxo","address":"88 Stephen Pass","city":"Pampierstad","zip_code":"49"},
{"company_name":"Tambee","address":"6 Katie Alley","city":"Yanghuxiang","zip_code":"07"},
{"company_name":"Pixonyx","address":"3 Tony Street","city":"Cikuning","zip_code":"30121"},
{"company_name":"Thoughtbridge","address":"96 Northridge Drive","city":"Serra","zip_code":"06685"},
{"company_name":"Zoomzone","address":"80 Melody Plaza","city":"Les Coteaux","zip_code":"71"},
{"company_name":"Divavu","address":"5202 Hauk Street","city":"Cantaura","zip_code":"5969"},
{"company_name":"Twiyo","address":"17452 Kinsman Trail","city":"Belogorsk","zip_code":"88"},
{"company_name":"Meemm","address":"84 Sheridan Alley","city":"General Alvear","zip_code":"91516"},
{"company_name":"Wordpedia","address":"15355 Swallow Junction","city":"Sävsjö","zip_code":"701"}]