[{"company_name":"Wikibox","address":"4442 Bowman Road","city":"Il’inskiy","zip_code":"558"},
{"company_name":"Oyoba","address":"75767 Pine View Trail","city":"Guapimirim","zip_code":"14"},
{"company_name":"Jabbersphere","address":"11 Riverside Park","city":"Puno","zip_code":"282"},
{"company_name":"Dabvine","address":"2442 Crownhardt Park","city":"Bajia","zip_code":"1511"},
{"company_name":"Rhynoodle","address":"09562 Wayridge Trail","city":"Launceston","zip_code":"586"},
{"company_name":"Twitternation","address":"607 Lakewood Place","city":"Mamer","zip_code":"16524"},
{"company_name":"Realfire","address":"8911 Warrior Point","city":"Lengji","zip_code":"14"},
{"company_name":"Miboo","address":"3 Old Shore Drive","city":"Xufeng","zip_code":"4"},
{"company_name":"Trilia","address":"96790 Old Gate Street","city":"Novotroitsk","zip_code":"9814"},
{"company_name":"Pixoboo","address":"44102 Karstens Terrace","city":"Pitrufquén","zip_code":"16"},
{"company_name":"Oyonder","address":"0 Steensland Lane","city":"San Alberto","zip_code":"3"},
{"company_name":"Flashspan","address":"8089 Larry Circle","city":"Bāmyān","zip_code":"0"},
{"company_name":"Jetpulse","address":"763 Declaration Street","city":"Tsagaanders","zip_code":"40452"},
{"company_name":"Mudo","address":"80 Ronald Regan Pass","city":"Cẩm Phả","zip_code":"581"},
{"company_name":"Blogpad","address":"8573 Havey Hill","city":"Telgawah","zip_code":"5"},
{"company_name":"Shufflebeat","address":"669 Sheridan Drive","city":"Osapsio","zip_code":"7162"},
{"company_name":"Miboo","address":"2649 Russell Park","city":"Trilj","zip_code":"87"},
{"company_name":"Meemm","address":"72804 Lerdahl Parkway","city":"Ndwedwe","zip_code":"7"},
{"company_name":"Fivebridge","address":"1 Russell Way","city":"Sysert’","zip_code":"6"},
{"company_name":"Buzzdog","address":"9 Gerald Point","city":"Zolotkovo","zip_code":"6"},
{"company_name":"Kaymbo","address":"8362 Algoma Pass","city":"Carangola","zip_code":"31393"},
{"company_name":"Npath","address":"2324 Fisk Trail","city":"Radashkovichy","zip_code":"4"},
{"company_name":"Jatri","address":"41545 Bay Parkway","city":"Mosquée","zip_code":"6"},
{"company_name":"Thoughtblab","address":"70402 Victoria Court","city":"Belyye Stolby","zip_code":"70615"},
{"company_name":"Skyndu","address":"9221 Mandrake Pass","city":"Xinchengzi","zip_code":"318"},
{"company_name":"Edgeclub","address":"002 Sheridan Way","city":"Bangolo","zip_code":"5123"},
{"company_name":"Photojam","address":"9502 Melody Avenue","city":"Jinshan","zip_code":"7"},
{"company_name":"Zooxo","address":"12 Straubel Way","city":"Mouzáki","zip_code":"407"},
{"company_name":"Blogspan","address":"81171 Glacier Hill Circle","city":"Kuala Lumpur","zip_code":"338"},
{"company_name":"Kwideo","address":"663 Morrow Lane","city":"Normandin","zip_code":"20"},
{"company_name":"Trudeo","address":"401 Anhalt Road","city":"Igbaras","zip_code":"36"},
{"company_name":"Fadeo","address":"0 Sachs Junction","city":"Kremenets’","zip_code":"1308"},
{"company_name":"Abata","address":"6627 Continental Center","city":"Tanbu","zip_code":"08044"},
{"company_name":"Geba","address":"7206 Longview Road","city":"Huaquillas","zip_code":"67712"},
{"company_name":"Zoovu","address":"6313 Crest Line Junction","city":"Calçada","zip_code":"5"},
{"company_name":"Jetwire","address":"70 Helena Plaza","city":"Debeljača","zip_code":"0"},
{"company_name":"Topiczoom","address":"716 Coolidge Lane","city":"Iñapari","zip_code":"14"},
{"company_name":"Gabcube","address":"8576 Rigney Drive","city":"Colonia Minga Porá","zip_code":"008"},
{"company_name":"Yakitri","address":"534 Knutson Street","city":"Rokycany","zip_code":"153"},
{"company_name":"Thoughtstorm","address":"12 Bartillon Junction","city":"Pancoran","zip_code":"3991"},
{"company_name":"Ntags","address":"515 Dapin Center","city":"Jardoeira","zip_code":"47"},
{"company_name":"Tanoodle","address":"11328 Buell Center","city":"Sokółka","zip_code":"97966"},
{"company_name":"Shufflebeat","address":"91593 Lakewood Gardens Junction","city":"Górki","zip_code":"10009"},
{"company_name":"Kazu","address":"2 Kenwood Place","city":"Huayuan","zip_code":"9"},
{"company_name":"Shufflebeat","address":"50 Oneill Point","city":"Uren’","zip_code":"810"},
{"company_name":"Aivee","address":"173 Debs Parkway","city":"Barda","zip_code":"1414"},
{"company_name":"Blognation","address":"68 Florence Avenue","city":"Dakingari","zip_code":"3104"},
{"company_name":"Avamm","address":"9 Hudson Alley","city":"Agadez","zip_code":"7611"},
{"company_name":"Plambee","address":"5248 Fairview Center","city":"Pokrov","zip_code":"90873"},
{"company_name":"Buzzshare","address":"9804 West Alley","city":"Littleton","zip_code":"70"},
{"company_name":"Brainverse","address":"6679 Ruskin Drive","city":"Boju","zip_code":"985"},
{"company_name":"Demimbu","address":"6 Westridge Court","city":"Akashi","zip_code":"2379"},
{"company_name":"Skaboo","address":"084 La Follette Place","city":"Pendembu","zip_code":"37"},
{"company_name":"Oyoba","address":"3 Beilfuss Court","city":"Bystra","zip_code":"6"},
{"company_name":"Youbridge","address":"069 Summerview Street","city":"Viškovci","zip_code":"7"},
{"company_name":"Eamia","address":"47 Dennis Terrace","city":"Jieheshi","zip_code":"658"},
{"company_name":"Skyndu","address":"02 Sloan Trail","city":"Baiyin","zip_code":"9"},
{"company_name":"Skinder","address":"0 Calypso Circle","city":"Arcueil","zip_code":"3647"},
{"company_name":"Jaloo","address":"0 Mifflin Crossing","city":"Bang Na","zip_code":"3649"},
{"company_name":"Kwinu","address":"58865 Grim Point","city":"Postojna","zip_code":"6069"},
{"company_name":"Jabbertype","address":"878 Ohio Terrace","city":"Yunga","zip_code":"076"},
{"company_name":"Kamba","address":"27 Anderson Hill","city":"Sanying","zip_code":"711"},
{"company_name":"Trilia","address":"940 Lakeland Circle","city":"Khao Kho","zip_code":"87416"},
{"company_name":"Linktype","address":"97491 Macpherson Parkway","city":"Pameče","zip_code":"15241"},
{"company_name":"Ntag","address":"5 Farragut Street","city":"Huilelot","zip_code":"545"},
{"company_name":"Rhynyx","address":"2884 Lukken Avenue","city":"Ulee Gle","zip_code":"48"},
{"company_name":"Rooxo","address":"724 Clarendon Lane","city":"Pergamino","zip_code":"9927"},
{"company_name":"Skyndu","address":"16 Loeprich Place","city":"Espinal","zip_code":"973"},
{"company_name":"Oyope","address":"6860 Bonner Road","city":"Kamen’-na-Obi","zip_code":"9681"},
{"company_name":"Photobug","address":"73979 Oxford Avenue","city":"Lago da Pedra","zip_code":"30"},
{"company_name":"Abatz","address":"90 Nobel Pass","city":"Ciherang","zip_code":"082"},
{"company_name":"Centidel","address":"6733 Hudson Alley","city":"Brotas","zip_code":"1058"},
{"company_name":"Jabbertype","address":"15656 Thierer Junction","city":"Gorey","zip_code":"529"},
{"company_name":"Rhynoodle","address":"165 Westend Court","city":"Cuauhtemoc","zip_code":"0439"},
{"company_name":"Topiclounge","address":"84322 Rigney Place","city":"Beishan","zip_code":"27908"},
{"company_name":"Twiyo","address":"596 Trailsway Circle","city":"Bi’r al Ḩufayy","zip_code":"18"},
{"company_name":"Centimia","address":"08 Grasskamp Drive","city":"Rzeczenica","zip_code":"413"},
{"company_name":"Tagtune","address":"2847 Ludington Parkway","city":"Alicante/Alacant","zip_code":"15958"},
{"company_name":"Topicware","address":"4792 Mifflin Avenue","city":"Pehčevo","zip_code":"264"},
{"company_name":"Yodo","address":"5590 Hovde Alley","city":"Katrineholm","zip_code":"6"},
{"company_name":"Thoughtstorm","address":"2 Bluejay Plaza","city":"Tqibuli","zip_code":"14"},
{"company_name":"Eidel","address":"81520 Knutson Parkway","city":"Itabirito","zip_code":"92"},
{"company_name":"Brightdog","address":"14045 Scott Point","city":"Charagua","zip_code":"081"},
{"company_name":"Vinte","address":"8838 Tennyson Circle","city":"Rongkou","zip_code":"21465"},
{"company_name":"Kwimbee","address":"0 Bunker Hill Center","city":"Mtinko","zip_code":"863"},
{"company_name":"Twitterbridge","address":"1328 Bluestem Alley","city":"Isawa","zip_code":"917"},
{"company_name":"Lajo","address":"5 Pierstorff Park","city":"Belajen","zip_code":"988"},
{"company_name":"Avamba","address":"48 Sunbrook Crossing","city":"Oka","zip_code":"5"},
{"company_name":"Livetube","address":"37 Chive Way","city":"Sumoto","zip_code":"958"},
{"company_name":"Bubbletube","address":"62990 Leroy Street","city":"Gansa","zip_code":"216"},
{"company_name":"Cogidoo","address":"8 High Crossing Alley","city":"Jasieniec","zip_code":"5"},
{"company_name":"Skaboo","address":"6 Glendale Lane","city":"Huangfang","zip_code":"1935"},
{"company_name":"Rhyzio","address":"0 Dixon Place","city":"Gorodishche","zip_code":"56428"},
{"company_name":"Edgeblab","address":"77 Lake View Park","city":"Pétionville","zip_code":"77"},
{"company_name":"Babbleblab","address":"14849 Kennedy Lane","city":"Zhongxiang","zip_code":"2599"},
{"company_name":"Yadel","address":"0439 Riverside Road","city":"Chikola","zip_code":"47514"},
{"company_name":"Abata","address":"57 Northview Crossing","city":"Laojieji","zip_code":"1"},
{"company_name":"Twitterbeat","address":"397 Welch Street","city":"Varāmīn","zip_code":"85560"},
{"company_name":"Ntag","address":"358 Texas Street","city":"Mulyo","zip_code":"86"},
{"company_name":"Kayveo","address":"8895 Packers Hill","city":"Maonon","zip_code":"4"},
{"company_name":"Demimbu","address":"685 Gina Drive","city":"Thị Trấn Mường Khương","zip_code":"5692"},
{"company_name":"Tazzy","address":"183 Vahlen Terrace","city":"Lyublino","zip_code":"0792"},
{"company_name":"Skinte","address":"163 Grasskamp Place","city":"Verkhniye Osel’ki","zip_code":"206"},
{"company_name":"Demivee","address":"8575 Harper Avenue","city":"Jakšić","zip_code":"61"},
{"company_name":"Ntag","address":"9 Express Crossing","city":"Lianzhou","zip_code":"81261"},
{"company_name":"Riffpath","address":"7168 Dwight Park","city":"Mengzhai","zip_code":"19095"},
{"company_name":"Skajo","address":"265 Cody Place","city":"Moravský Písek","zip_code":"3"},
{"company_name":"Buzzshare","address":"85 Raven Place","city":"Mandor","zip_code":"472"},
{"company_name":"Realblab","address":"8067 Sommers Court","city":"Järfälla","zip_code":"27616"},
{"company_name":"Jabberstorm","address":"31 Redwing Avenue","city":"Infanta","zip_code":"762"},
{"company_name":"Centizu","address":"881 Dovetail Center","city":"Ipatinga","zip_code":"6"},
{"company_name":"Oyoyo","address":"1601 Stephen Pass","city":"Borehbangle","zip_code":"3"},
{"company_name":"Shufflebeat","address":"519 East Court","city":"Gniechowice","zip_code":"8"},
{"company_name":"Linktype","address":"924 Duke Terrace","city":"Zürich","zip_code":"503"},
{"company_name":"Photobug","address":"544 Prairie Rose Court","city":"Torkanivka","zip_code":"53960"},
{"company_name":"Cogidoo","address":"9 Hoffman Junction","city":"Krajan Sale","zip_code":"36"},
{"company_name":"Realbridge","address":"088 Mitchell Point","city":"Kabir","zip_code":"8502"},
{"company_name":"Rhyloo","address":"7223 Macpherson Hill","city":"Az Zulfi","zip_code":"34"},
{"company_name":"Podcat","address":"5713 Saint Paul Street","city":"Garoua","zip_code":"8"},
{"company_name":"Centimia","address":"28 Brickson Park Street","city":"Aksu","zip_code":"33191"},
{"company_name":"Realfire","address":"07 Continental Lane","city":"Garoua","zip_code":"3444"},
{"company_name":"Innojam","address":"81 Canary Place","city":"Chiduo","zip_code":"90"},
{"company_name":"Oloo","address":"04 Lake View Pass","city":"Datong","zip_code":"45"},
{"company_name":"Thoughtsphere","address":"8007 Browning Drive","city":"Donegal","zip_code":"5118"},
{"company_name":"Yambee","address":"34361 Sauthoff Parkway","city":"Artashat","zip_code":"688"},
{"company_name":"Flashdog","address":"438 Shelley Avenue","city":"Leuweheq","zip_code":"82"},
{"company_name":"Avavee","address":"58 Toban Pass","city":"Amsterdam Nieuw West","zip_code":"6570"},
{"company_name":"Dynava","address":"2 Shopko Point","city":"Périgny","zip_code":"0150"},
{"company_name":"Geba","address":"0424 Crownhardt Parkway","city":"Otofuke","zip_code":"507"},
{"company_name":"Zooxo","address":"53029 Bellgrove Center","city":"Xiwu","zip_code":"158"},
{"company_name":"Agimba","address":"2 Becker Point","city":"Salamanca","zip_code":"56402"},
{"company_name":"Realmix","address":"09 Almo Lane","city":"Kokop","zip_code":"2583"},
{"company_name":"Edgepulse","address":"37135 Dayton Park","city":"Białołeka","zip_code":"513"},
{"company_name":"Digitube","address":"637 Killdeer Pass","city":"Uyuni","zip_code":"871"},
{"company_name":"Lazz","address":"6066 Waywood Way","city":"Fiais da Beira","zip_code":"3650"},
{"company_name":"Thoughtstorm","address":"154 Maple Wood Road","city":"Antopal’","zip_code":"33374"},
{"company_name":"Realcube","address":"671 Ludington Park","city":"Semuda","zip_code":"08403"},
{"company_name":"Podcat","address":"8 Oriole Street","city":"Hrvatini","zip_code":"461"},
{"company_name":"Meedoo","address":"3318 Fremont Road","city":"Ústí nad Orlicí","zip_code":"2"},
{"company_name":"Leenti","address":"03 Esch Lane","city":"San Cristóbal","zip_code":"14853"},
{"company_name":"Chatterbridge","address":"54 Dwight Parkway","city":"Raymond","zip_code":"02157"},
{"company_name":"Dynazzy","address":"9 Vidon Point","city":"Lazdijai","zip_code":"7"},
{"company_name":"Tagopia","address":"20848 Anthes Center","city":"Horton","zip_code":"2"},
{"company_name":"Dabjam","address":"0560 Monument Place","city":"Vakhrushi","zip_code":"055"},
{"company_name":"Fivechat","address":"314 Pankratz Center","city":"Maputsoe","zip_code":"463"},
{"company_name":"Quinu","address":"5 Oak Valley Court","city":"Sumberrejo","zip_code":"151"},
{"company_name":"Kazu","address":"3887 Vernon Park","city":"Aţ Ţaybah","zip_code":"24"},
{"company_name":"Dazzlesphere","address":"8 Florence Road","city":"Cabatang","zip_code":"079"},
{"company_name":"Yoveo","address":"0 Ludington Point","city":"Nouakchott","zip_code":"4"},
{"company_name":"Gevee","address":"3894 Donald Avenue","city":"Longquan","zip_code":"54"},
{"company_name":"Skajo","address":"429 Duke Place","city":"Bayshint","zip_code":"26"},
{"company_name":"Yodo","address":"17812 Artisan Terrace","city":"Pohrebyshche","zip_code":"3"},
{"company_name":"Miboo","address":"04 Sunbrook Center","city":"Sukasenang","zip_code":"14162"},
{"company_name":"Skilith","address":"726 Lakeland Park","city":"Peyima","zip_code":"7"},
{"company_name":"Yodoo","address":"01253 Anthes Alley","city":"Oematnunu","zip_code":"1794"},
{"company_name":"Layo","address":"2468 Commercial Park","city":"Qianqiao","zip_code":"157"},
{"company_name":"Podcat","address":"115 Warbler Drive","city":"Jinshanpu","zip_code":"48492"},
{"company_name":"Voonyx","address":"16170 Barnett Court","city":"Pedra Furada","zip_code":"84"},
{"company_name":"Tagopia","address":"991 Tomscot Road","city":"Araguaiana","zip_code":"4464"},
{"company_name":"Midel","address":"153 Redwing Trail","city":"Lawa-an","zip_code":"1"},
{"company_name":"Dynabox","address":"4214 3rd Alley","city":"Naberera","zip_code":"3784"},
{"company_name":"Rhynoodle","address":"90 Green Center","city":"Estevan","zip_code":"63528"},
{"company_name":"Pixope","address":"56921 Eagan Plaza","city":"L’vovskiy","zip_code":"5248"},
{"company_name":"Skinte","address":"4123 Quincy Parkway","city":"Yumaguzino","zip_code":"41"},
{"company_name":"Devify","address":"7 Onsgard Trail","city":"Ropcha","zip_code":"4"},
{"company_name":"Thoughtbridge","address":"2082 Elgar Lane","city":"Kedungbacin","zip_code":"04"},
{"company_name":"Brainverse","address":"5 Bluejay Drive","city":"San José","zip_code":"82744"},
{"company_name":"Riffwire","address":"146 Hermina Pass","city":"Cap Malheureux","zip_code":"66"},
{"company_name":"Bluezoom","address":"8 Sommers Plaza","city":"Mönhbulag","zip_code":"8955"},
{"company_name":"Teklist","address":"8385 Upham Lane","city":"Zhongba","zip_code":"43"},
{"company_name":"Tekfly","address":"540 Swallow Street","city":"La Unión","zip_code":"3600"},
{"company_name":"Twitterbridge","address":"554 Dahle Parkway","city":"Gucun","zip_code":"393"},
{"company_name":"Blognation","address":"4 Ronald Regan Center","city":"Buenos Aires","zip_code":"6"},
{"company_name":"Aimbo","address":"3 Corry Park","city":"Prior Velho","zip_code":"1"},
{"company_name":"Snaptags","address":"660 Manufacturers Junction","city":"Mhamid","zip_code":"11"},
{"company_name":"Zoovu","address":"23 Doe Crossing Drive","city":"Masaling","zip_code":"745"},
{"company_name":"Shufflebeat","address":"054 Maple Wood Pass","city":"Stare Miasto","zip_code":"31007"},
{"company_name":"Flashdog","address":"3 Anhalt Pass","city":"Chai Nat","zip_code":"6"},
{"company_name":"Youopia","address":"4821 Valley Edge Hill","city":"La Huerta","zip_code":"1"},
{"company_name":"Janyx","address":"485 Lotheville Way","city":"Shagang","zip_code":"5863"},
{"company_name":"Gigazoom","address":"447 Mifflin Junction","city":"Bourgoin-Jallieu","zip_code":"07"},
{"company_name":"Kimia","address":"42 Menomonie Avenue","city":"La Roche-sur-Yon","zip_code":"728"},
{"company_name":"Trudeo","address":"92 Eastlawn Alley","city":"Vysoké nad Jizerou","zip_code":"78"},
{"company_name":"Kimia","address":"1008 Annamark Alley","city":"Huangdao","zip_code":"95921"},
{"company_name":"Dynabox","address":"80137 Graedel Junction","city":"Ahmadpur Siāl","zip_code":"84"},
{"company_name":"Eayo","address":"86 Algoma Alley","city":"Smiths Falls","zip_code":"941"},
{"company_name":"Jayo","address":"1577 Farmco Place","city":"Zhemtala","zip_code":"79"},
{"company_name":"Livepath","address":"9202 Chive Lane","city":"Täby","zip_code":"4"},
{"company_name":"Tanoodle","address":"92469 New Castle Park","city":"Binalbagan","zip_code":"29"},
{"company_name":"Brightbean","address":"882 Arizona Alley","city":"Nanjie","zip_code":"9"},
{"company_name":"Pixope","address":"02 Union Parkway","city":"Västanfjärd","zip_code":"56020"},
{"company_name":"Cogidoo","address":"3 Comanche Trail","city":"Yueshan","zip_code":"615"},
{"company_name":"Innotype","address":"902 Texas Place","city":"Preko","zip_code":"36843"},
{"company_name":"Devcast","address":"816 Browning Point","city":"Formosa","zip_code":"48318"},
{"company_name":"Quatz","address":"98 Shoshone Street","city":"Xinglong","zip_code":"546"},
{"company_name":"Gabcube","address":"83 Lunder Court","city":"Épinal","zip_code":"61075"},
{"company_name":"Jabbersphere","address":"23557 Carioca Road","city":"New York City","zip_code":"589"},
{"company_name":"Digitube","address":"8215 Oriole Way","city":"Misheronskiy","zip_code":"690"},
{"company_name":"Dabvine","address":"2982 Union Pass","city":"Östersund","zip_code":"1"},
{"company_name":"Lajo","address":"31288 Katie Junction","city":"Jönköping","zip_code":"3"},
{"company_name":"Wikivu","address":"2467 Burning Wood Street","city":"Monroe","zip_code":"633"},
{"company_name":"Kwimbee","address":"792 Mendota Terrace","city":"Shuangfeng","zip_code":"77"},
{"company_name":"Flashpoint","address":"1066 Iowa Circle","city":"Toulouse","zip_code":"4640"},
{"company_name":"Wikizz","address":"23 Northview Avenue","city":"Kalapadua","zip_code":"42283"},
{"company_name":"Photojam","address":"88903 Cambridge Court","city":"Stara Kornica","zip_code":"123"},
{"company_name":"Edgeclub","address":"06 Evergreen Hill","city":"Lahad Datu","zip_code":"05543"},
{"company_name":"Gigashots","address":"2825 Kensington Trail","city":"Tanahmerah","zip_code":"35566"},
{"company_name":"Agivu","address":"11182 Nobel Terrace","city":"Santa María Ixhuatán","zip_code":"41711"},
{"company_name":"Plambee","address":"11608 Maple Road","city":"Miao’ertan","zip_code":"60323"},
{"company_name":"Photobug","address":"597 East Hill","city":"Cihaurbeuti","zip_code":"496"},
{"company_name":"Bubblebox","address":"3 Russell Pass","city":"Huangxikou","zip_code":"4381"},
{"company_name":"Blogpad","address":"238 Fallview Avenue","city":"Borovoy","zip_code":"00815"},
{"company_name":"Lazzy","address":"5045 Monterey Road","city":"Obiaruku Quarters","zip_code":"74123"},
{"company_name":"Shuffledrive","address":"4 Daystar Avenue","city":"Lapi","zip_code":"24"},
{"company_name":"Ntag","address":"67 Anhalt Place","city":"Pariti","zip_code":"083"},
{"company_name":"Buzzbean","address":"0810 Main Alley","city":"Uchaly","zip_code":"8"},
{"company_name":"Kwinu","address":"2 Summer Ridge Terrace","city":"Milove","zip_code":"7560"},
{"company_name":"Eare","address":"7 Summer Ridge Court","city":"Sovetakan","zip_code":"46696"},
{"company_name":"Fanoodle","address":"11124 Carioca Point","city":"Minle","zip_code":"705"},
{"company_name":"Thoughtsphere","address":"43067 Fisk Drive","city":"Kouango","zip_code":"591"},
{"company_name":"Realblab","address":"8 Carpenter Drive","city":"Banjar Asahduren","zip_code":"67411"},
{"company_name":"Kare","address":"3952 8th Park","city":"Panganiban","zip_code":"73507"},
{"company_name":"Voonte","address":"053 Grim Court","city":"Ojrzeń","zip_code":"5587"},
{"company_name":"Yacero","address":"8612 Hoepker Road","city":"Yangtan","zip_code":"814"},
{"company_name":"Zoomdog","address":"1394 School Park","city":"Tres Arroyos","zip_code":"2"},
{"company_name":"Tagtune","address":"22233 Forster Street","city":"Buenavista","zip_code":"17774"},
{"company_name":"Centizu","address":"17853 5th Avenue","city":"Santa Maria","zip_code":"1"},
{"company_name":"Flashpoint","address":"75 Hermina Crossing","city":"Binkolo","zip_code":"3"},
{"company_name":"Devpoint","address":"8 Mendota Drive","city":"Arras","zip_code":"7428"},
{"company_name":"Riffpath","address":"1632 Tennessee Court","city":"Krajan","zip_code":"25333"},
{"company_name":"Twimm","address":"3943 Arrowood Road","city":"Gbawe","zip_code":"7"},
{"company_name":"Youtags","address":"57 Burrows Court","city":"Cahors","zip_code":"4"},
{"company_name":"Eare","address":"714 Swallow Hill","city":"Stakhanov","zip_code":"5713"},
{"company_name":"Ntags","address":"7354 Kensington Hill","city":"La Plaine-Saint-Denis","zip_code":"2662"},
{"company_name":"Mymm","address":"90637 Crest Line Court","city":"Funan Chengguanzhen","zip_code":"677"},
{"company_name":"Layo","address":"48053 Kenwood Trail","city":"Józefów","zip_code":"2188"},
{"company_name":"Realblab","address":"73913 Eggendart Park","city":"Saramech","zip_code":"9"},
{"company_name":"Aivee","address":"4 Gerald Crossing","city":"Waterbury","zip_code":"12"},
{"company_name":"Buzzdog","address":"952 Trailsway Park","city":"Getung","zip_code":"322"},
{"company_name":"Skiba","address":"3115 Messerschmidt Court","city":"Taibai","zip_code":"211"},
{"company_name":"Oyoloo","address":"083 Bartelt Center","city":"Dodu Dua","zip_code":"5368"},
{"company_name":"Jatri","address":"276 Muir Center","city":"Santa Fe","zip_code":"74"},
{"company_name":"Topiczoom","address":"24 Comanche Point","city":"Gavea","zip_code":"63250"},
{"company_name":"Zazio","address":"82843 Spenser Parkway","city":"Jinping","zip_code":"9698"},
{"company_name":"Bubbletube","address":"5722 3rd Point","city":"Mokotów","zip_code":"6"},
{"company_name":"Pixonyx","address":"3584 Karstens Hill","city":"Thị Trấn Tà Lùng","zip_code":"86"},
{"company_name":"Snaptags","address":"1 Dixon Pass","city":"Foundiougne","zip_code":"0710"},
{"company_name":"Jayo","address":"069 Little Fleur Terrace","city":"Penghu","zip_code":"68370"},
{"company_name":"Jabberbean","address":"74 Russell Junction","city":"Pasarkayu","zip_code":"6"},
{"company_name":"Skalith","address":"65 Sachtjen Crossing","city":"Orillia","zip_code":"5973"},
{"company_name":"Pixope","address":"66836 Chinook Circle","city":"Sobreira","zip_code":"8188"},
{"company_name":"Brightdog","address":"49926 Hallows Trail","city":"Gongjiang","zip_code":"22068"},
{"company_name":"Eire","address":"242 Carey Terrace","city":"Magallanes","zip_code":"190"},
{"company_name":"Eimbee","address":"29833 Mallard Plaza","city":"Duque de Caxias","zip_code":"1912"},
{"company_name":"Brightbean","address":"73114 Grayhawk Crossing","city":"Al Madān","zip_code":"02310"},
{"company_name":"Eimbee","address":"9115 Sutteridge Terrace","city":"Abengourou","zip_code":"32"},
{"company_name":"Eayo","address":"362 Village Drive","city":"Bonsari","zip_code":"36"},
{"company_name":"DabZ","address":"19489 Buhler Street","city":"Shanxi","zip_code":"6"},
{"company_name":"Gigabox","address":"88557 Maywood Street","city":"Toulouse","zip_code":"60"},
{"company_name":"Browsetype","address":"96589 Hagan Point","city":"Balzers","zip_code":"116"},
{"company_name":"Blogspan","address":"055 Barnett Road","city":"Blessington","zip_code":"31109"},
{"company_name":"Roombo","address":"1638 Shasta Point","city":"Trenton","zip_code":"041"},
{"company_name":"Divavu","address":"3 Grover Lane","city":"Pushchino","zip_code":"342"},
{"company_name":"Yadel","address":"7455 Fulton Junction","city":"Mindyak","zip_code":"4423"},
{"company_name":"Thoughtmix","address":"74 Sauthoff Road","city":"Atlanta","zip_code":"056"},
{"company_name":"Wikizz","address":"7 Nevada Trail","city":"El Regalo","zip_code":"7"},
{"company_name":"Bubblebox","address":"993 Meadow Vale Lane","city":"Xiaoya","zip_code":"8073"},
{"company_name":"Skalith","address":"6290 Michigan Alley","city":"Arras","zip_code":"72147"},
{"company_name":"Fatz","address":"116 Tennyson Lane","city":"Badagry","zip_code":"3962"},
{"company_name":"Edgetag","address":"2 Grover Plaza","city":"Aksarka","zip_code":"535"},
{"company_name":"Lajo","address":"551 Debs Crossing","city":"Nevel’sk","zip_code":"66"},
{"company_name":"Topicblab","address":"13415 Gateway Road","city":"Sangzhou","zip_code":"72"},
{"company_name":"Pixope","address":"3 Leroy Hill","city":"Xianbao","zip_code":"2918"},
{"company_name":"InnoZ","address":"15947 Waubesa Lane","city":"Saint-Marcellin","zip_code":"8712"},
{"company_name":"Tanoodle","address":"54 6th Trail","city":"Tanjungrejo Lor","zip_code":"73"},
{"company_name":"Fadeo","address":"130 Paget Hill","city":"Thākurgaon","zip_code":"74925"},
{"company_name":"Photobug","address":"9 Stephen Parkway","city":"Vila Velha","zip_code":"0368"},
{"company_name":"Jaxspan","address":"19162 Stuart Parkway","city":"Dolní Sloupnice","zip_code":"90496"},
{"company_name":"Pixoboo","address":"389 Schmedeman Avenue","city":"Białobrzegi","zip_code":"7139"},
{"company_name":"Zooveo","address":"8985 Troy Pass","city":"Al Wāsiţah","zip_code":"4"},
{"company_name":"Janyx","address":"1574 Bunting Junction","city":"Yangdian","zip_code":"440"},
{"company_name":"Wikibox","address":"6 Talmadge Hill","city":"Sokolnice","zip_code":"207"},
{"company_name":"Fadeo","address":"34 Morrow Way","city":"Mafinga","zip_code":"7"},
{"company_name":"Vitz","address":"328 Merrick Plaza","city":"Stung Treng","zip_code":"44"},
{"company_name":"Zoomcast","address":"009 Dorton Pass","city":"Regulice","zip_code":"13807"},
{"company_name":"Izio","address":"3450 Grover Trail","city":"Carrascal","zip_code":"2"},
{"company_name":"Rhycero","address":"02399 Hollow Ridge Center","city":"Józefosław","zip_code":"19777"},
{"company_name":"Innotype","address":"2 Schurz Way","city":"Cineumbeuy","zip_code":"281"},
{"company_name":"Quimba","address":"71018 Carioca Place","city":"Xingong","zip_code":"263"},
{"company_name":"Trilith","address":"39 Mendota Center","city":"Bojonghaur","zip_code":"75531"},
{"company_name":"Minyx","address":"05531 Hazelcrest Lane","city":"Williamsfield","zip_code":"2199"},
{"company_name":"Ainyx","address":"11 Clemons Way","city":"Tenggina Daya","zip_code":"10"},
{"company_name":"Avamm","address":"60009 Sunfield Road","city":"Gaoyi","zip_code":"7"},
{"company_name":"Wordtune","address":"7 Express Plaza","city":"Saint-Germain-en-Laye","zip_code":"7"},
{"company_name":"Devcast","address":"90 Eastwood Center","city":"San Pedro","zip_code":"5112"},
{"company_name":"Thoughtbeat","address":"872 Hoard Junction","city":"Girijaya","zip_code":"8004"},
{"company_name":"Nlounge","address":"278 Russell Avenue","city":"Charlotte","zip_code":"819"},
{"company_name":"Gabtune","address":"56727 Main Trail","city":"Benešov","zip_code":"25"},
{"company_name":"Oba","address":"1661 Tennessee Avenue","city":"Messina","zip_code":"9"},
{"company_name":"Gigabox","address":"7729 Dennis Place","city":"Dinan","zip_code":"65225"},
{"company_name":"Layo","address":"65 Spohn Park","city":"Kusŏng","zip_code":"995"},
{"company_name":"Zazio","address":"7 Schurz Terrace","city":"Lakha Nëvre","zip_code":"95920"},
{"company_name":"Demizz","address":"62 Sunfield Crossing","city":"Chuarrancho","zip_code":"5"},
{"company_name":"Tanoodle","address":"98 Holmberg Circle","city":"San Pa Tong","zip_code":"70467"},
{"company_name":"Bluejam","address":"01 Barby Center","city":"Bilovods'k","zip_code":"767"},
{"company_name":"Jabbertype","address":"99 Maple Way","city":"Olenyok","zip_code":"9"},
{"company_name":"Skiba","address":"6712 Bunting Drive","city":"Nova Odesa","zip_code":"19940"},
{"company_name":"Lazz","address":"688 Schurz Place","city":"Ādaži","zip_code":"13"},
{"company_name":"Dazzlesphere","address":"1688 Stang Alley","city":"Polo","zip_code":"40"},
{"company_name":"Leexo","address":"1 Hagan Court","city":"Żabno","zip_code":"810"},
{"company_name":"Linktype","address":"864 Michigan Road","city":"Shimen","zip_code":"13967"},
{"company_name":"Zoomzone","address":"0 Laurel Park","city":"Solna","zip_code":"5"},
{"company_name":"Blognation","address":"7 Lakewood Gardens Trail","city":"Kuźnia Raciborska","zip_code":"87641"},
{"company_name":"Skyba","address":"0 Little Fleur Way","city":"Vidovci","zip_code":"7"},
{"company_name":"Voonder","address":"6763 Prairieview Park","city":"Columbus","zip_code":"7573"},
{"company_name":"Yacero","address":"04682 Corry Pass","city":"Bendoroto","zip_code":"95"},
{"company_name":"Skinix","address":"28 Sauthoff Lane","city":"Norrköping","zip_code":"5599"},
{"company_name":"Yacero","address":"9 Eastlawn Terrace","city":"Cilentung","zip_code":"0789"},
{"company_name":"Mydo","address":"44 Namekagon Alley","city":"Krujë","zip_code":"951"},
{"company_name":"Edgewire","address":"372 Crownhardt Crossing","city":"Oslo","zip_code":"59375"},
{"company_name":"Rooxo","address":"49 Kennedy Alley","city":"Jedlová","zip_code":"2"},
{"company_name":"Buzzbean","address":"2 Morning Plaza","city":"Boyle","zip_code":"1424"},
{"company_name":"Realcube","address":"5619 Schlimgen Terrace","city":"Mardīān","zip_code":"70725"},
{"company_name":"Edgewire","address":"2 Moland Pass","city":"Haoxue","zip_code":"1"},
{"company_name":"Voomm","address":"0 Magdeline Place","city":"Cabugao","zip_code":"80"},
{"company_name":"DabZ","address":"96 Starling Park","city":"Miami","zip_code":"787"},
{"company_name":"Oba","address":"86747 Loeprich Street","city":"Tacheng","zip_code":"3"},
{"company_name":"Feedfire","address":"03 Eastwood Plaza","city":"Karibib","zip_code":"683"},
{"company_name":"Twinder","address":"5 Spaight Trail","city":"Bayangol","zip_code":"5"},
{"company_name":"Tazz","address":"7 American Ash Avenue","city":"Panan","zip_code":"40433"},
{"company_name":"Jazzy","address":"31096 American Ash Center","city":"Malakhovka","zip_code":"6"},
{"company_name":"Tagcat","address":"245 Thierer Park","city":"Ngurore","zip_code":"62"},
{"company_name":"Skiptube","address":"95 Lawn Trail","city":"Wiskitki","zip_code":"26"},
{"company_name":"Tagcat","address":"78251 Boyd Point","city":"Sanana","zip_code":"8"},
{"company_name":"Brainverse","address":"81745 Luster Lane","city":"Watuka","zip_code":"49"},
{"company_name":"Youspan","address":"18081 Elmside Park","city":"Topolná","zip_code":"270"},
{"company_name":"Camimbo","address":"43852 Westerfield Junction","city":"Krzczonów","zip_code":"31"},
{"company_name":"Tagchat","address":"51 Hoepker Court","city":"Shinaihai","zip_code":"2"},
{"company_name":"Jabbersphere","address":"9481 Oak Valley Crossing","city":"Zborovice","zip_code":"263"},
{"company_name":"Oyondu","address":"95491 Tennessee Trail","city":"Virginia","zip_code":"88"},
{"company_name":"Bubblemix","address":"5 Park Meadow Street","city":"Solna","zip_code":"66"},
{"company_name":"Babbleset","address":"09 Lerdahl Way","city":"Colquechaca","zip_code":"25372"},
{"company_name":"Devcast","address":"1 Warbler Avenue","city":"Jardoeira","zip_code":"36"},
{"company_name":"Viva","address":"5 Tennyson Terrace","city":"Rodas","zip_code":"6887"},
{"company_name":"Aibox","address":"82 Lighthouse Bay Avenue","city":"Mae Fa Luang","zip_code":"68"},
{"company_name":"Tambee","address":"480 Hintze Parkway","city":"Malasila","zip_code":"41"},
{"company_name":"Kare","address":"18 John Wall Junction","city":"Aizhai","zip_code":"45"},
{"company_name":"Midel","address":"1 Delladonna Crossing","city":"Wucheng","zip_code":"66"},
{"company_name":"Devpulse","address":"3276 Eastlawn Trail","city":"Jeju-si","zip_code":"46"},
{"company_name":"Reallinks","address":"68 Hazelcrest Hill","city":"Sohbatpur","zip_code":"64246"},
{"company_name":"Quimm","address":"85431 Oakridge Way","city":"Sembalunbumbung","zip_code":"4"},
{"company_name":"Kwimbee","address":"916 Kennedy Way","city":"Thai Charoen","zip_code":"03"},
{"company_name":"Browsebug","address":"5 Hintze Hill","city":"Padre Bernardo","zip_code":"5"},
{"company_name":"Centimia","address":"69398 Brown Terrace","city":"Mulhouse","zip_code":"49850"},
{"company_name":"Skyvu","address":"94 Spaight Avenue","city":"Zharkent","zip_code":"7"},
{"company_name":"Minyx","address":"5848 Thierer Crossing","city":"El Regalo","zip_code":"117"},
{"company_name":"Yata","address":"2 5th Drive","city":"Havirga","zip_code":"1"},
{"company_name":"Brainverse","address":"57406 Atwood Street","city":"Iquique","zip_code":"5424"},
{"company_name":"Twitterwire","address":"4 Alpine Crossing","city":"Kawage","zip_code":"290"},
{"company_name":"Skyba","address":"10128 Aberg Park","city":"Tauca","zip_code":"275"},
{"company_name":"Gigabox","address":"013 Steensland Lane","city":"Buta Ranquil","zip_code":"7820"},
{"company_name":"Oyoloo","address":"7492 Vernon Plaza","city":"El Paso","zip_code":"48278"},
{"company_name":"Twitterbridge","address":"1 Kingsford Crossing","city":"Greytown","zip_code":"46042"},
{"company_name":"Kwimbee","address":"23 Del Mar Terrace","city":"Všestary","zip_code":"71903"},
{"company_name":"Yakitri","address":"38631 Kingsford Lane","city":"Kufayrit","zip_code":"85"},
{"company_name":"Viva","address":"8 Anderson Drive","city":"Jinotega","zip_code":"70"},
{"company_name":"Shufflebeat","address":"07284 Grover Point","city":"Kingisepp","zip_code":"4"},
{"company_name":"Kamba","address":"94799 Mockingbird Lane","city":"Pangkalan","zip_code":"33627"},
{"company_name":"Blogtags","address":"73 Lyons Road","city":"Ibirité","zip_code":"54833"},
{"company_name":"Kayveo","address":"673 Thackeray Lane","city":"Jonava","zip_code":"31"},
{"company_name":"Livepath","address":"2746 Carioca Pass","city":"Frei","zip_code":"01"},
{"company_name":"Zoonder","address":"60 Melvin Junction","city":"Mungyeong","zip_code":"1"},
{"company_name":"Devify","address":"50 Sage Crossing","city":"Bandar-e Torkaman","zip_code":"57"},
{"company_name":"Dynava","address":"08682 Melvin Pass","city":"Colorado Springs","zip_code":"11"},
{"company_name":"Midel","address":"51074 Scofield Pass","city":"Longsha","zip_code":"7150"},
{"company_name":"Photospace","address":"18 Center Hill","city":"Santana de Parnaíba","zip_code":"062"},
{"company_name":"Riffpedia","address":"98545 Glendale Junction","city":"Všenory","zip_code":"29857"},
{"company_name":"Gabvine","address":"5751 Roth Park","city":"Karakol","zip_code":"01610"},
{"company_name":"Zazio","address":"66664 Clarendon Drive","city":"Gort","zip_code":"392"},
{"company_name":"Riffpedia","address":"3578 Spaight Center","city":"Norrtälje","zip_code":"5326"},
{"company_name":"Oyondu","address":"3024 Hoepker Drive","city":"Zhaobaoshan","zip_code":"4"},
{"company_name":"Bluejam","address":"44241 4th Way","city":"Terra Chã","zip_code":"14"},
{"company_name":"Devshare","address":"3165 Oxford Park","city":"Efeng","zip_code":"901"},
{"company_name":"Browsecat","address":"7324 Eastlawn Court","city":"Nianba","zip_code":"852"},
{"company_name":"Topicware","address":"506 Drewry Alley","city":"Umingan","zip_code":"20"},
{"company_name":"Yadel","address":"797 Killdeer Road","city":"Rognedino","zip_code":"4"},
{"company_name":"Agimba","address":"1887 6th Crossing","city":"San Jacinto","zip_code":"989"},
{"company_name":"Eayo","address":"4213 Gateway Circle","city":"Chimbote","zip_code":"11"},
{"company_name":"Realfire","address":"1724 Thompson Hill","city":"Ishioka","zip_code":"2"},
{"company_name":"Jabberstorm","address":"81 Debs Plaza","city":"Gaotuo","zip_code":"8"},
{"company_name":"Jayo","address":"156 Quincy Point","city":"Mariestad","zip_code":"11624"},
{"company_name":"Flashset","address":"74 Oak Valley Road","city":"Bojongnangka","zip_code":"90"},
{"company_name":"Babbleopia","address":"21 Colorado Lane","city":"Bulusari","zip_code":"987"},
{"company_name":"Topicstorm","address":"6717 Gina Parkway","city":"Huanggong","zip_code":"0469"},
{"company_name":"Fivespan","address":"7 Tomscot Plaza","city":"Cojutepeque","zip_code":"75"},
{"company_name":"Realcube","address":"912 Buell Point","city":"Santo Antônio do Monte","zip_code":"1"},
{"company_name":"Kwinu","address":"5 Miller Parkway","city":"Hobscheid","zip_code":"58"},
{"company_name":"Dazzlesphere","address":"92 Vahlen Pass","city":"Zborište","zip_code":"255"},
{"company_name":"Oba","address":"494 Iowa Way","city":"Adelaide Mail Centre","zip_code":"596"},
{"company_name":"Bubblebox","address":"305 Shelley Parkway","city":"Jackson","zip_code":"411"},
{"company_name":"Thoughtsphere","address":"55 Reinke Street","city":"Kahabe","zip_code":"203"},
{"company_name":"Plajo","address":"6 Aberg Way","city":"Santiago dos Velhos","zip_code":"78929"},
{"company_name":"Quamba","address":"753 Manufacturers Trail","city":"Cigembong","zip_code":"672"},
{"company_name":"Lazz","address":"6 Truax Trail","city":"Łazy","zip_code":"0"},
{"company_name":"Skivee","address":"7 Mandrake Hill","city":"Siyang","zip_code":"89057"},
{"company_name":"Dynabox","address":"712 Center Lane","city":"Panikian","zip_code":"1697"},
{"company_name":"Flashspan","address":"8290 Barby Crossing","city":"Hualong","zip_code":"57005"},
{"company_name":"Vipe","address":"3372 Browning Point","city":"Middleton","zip_code":"01"},
{"company_name":"Vidoo","address":"061 Browning Park","city":"Buenavista","zip_code":"3464"},
{"company_name":"Reallinks","address":"8 Northwestern Pass","city":"Mawu","zip_code":"3437"},
{"company_name":"Plambee","address":"13 John Wall Court","city":"Binagadi","zip_code":"13"},
{"company_name":"Twiyo","address":"179 Carioca Drive","city":"Calhetas","zip_code":"96"},
{"company_name":"Youspan","address":"3494 Luster Place","city":"Qal‘at al Andalus","zip_code":"725"},
{"company_name":"Youopia","address":"44899 Anderson Place","city":"Krajan Atas Suger Lor","zip_code":"58417"},
{"company_name":"Kanoodle","address":"5682 Shasta Way","city":"Krajan Jamprong","zip_code":"75"},
{"company_name":"Roodel","address":"84 Moland Plaza","city":"Anserma","zip_code":"04"},
{"company_name":"Eidel","address":"57 Hagan Way","city":"Ribeirão Preto","zip_code":"9575"},
{"company_name":"Gabspot","address":"3 Reindahl Crossing","city":"Malangwa","zip_code":"16548"},
{"company_name":"Eidel","address":"6621 Straubel Alley","city":"Kuncen","zip_code":"6"},
{"company_name":"Thoughtworks","address":"8982 International Pass","city":"Liuxia","zip_code":"720"},
{"company_name":"Edgeclub","address":"5 Portage Terrace","city":"Debre Werk’","zip_code":"39650"},
{"company_name":"Devpulse","address":"6787 Everett Court","city":"Leluo","zip_code":"43418"},
{"company_name":"Oyoba","address":"9952 Dakota Road","city":"Buriwutung","zip_code":"0"},
{"company_name":"Rhybox","address":"0 Derek Parkway","city":"São José de Ribamar","zip_code":"83826"},
{"company_name":"Topicware","address":"29978 Meadow Ridge Avenue","city":"Haoxinying","zip_code":"519"},
{"company_name":"Zazio","address":"95863 Veith Road","city":"Selemadeg Kelod","zip_code":"82661"},
{"company_name":"Skinder","address":"6366 Graceland Alley","city":"Tonggakjati","zip_code":"38502"},
{"company_name":"Brainverse","address":"1507 West Avenue","city":"Ouidah","zip_code":"20"},
{"company_name":"Youspan","address":"55 Fairview Terrace","city":"Metallostroy","zip_code":"3669"},
{"company_name":"Livefish","address":"4800 Bowman Point","city":"Sanandaj","zip_code":"35132"},
{"company_name":"Einti","address":"6622 Kings Park","city":"Chisht-e Sharīf","zip_code":"95"},
{"company_name":"Avaveo","address":"35314 Pleasure Circle","city":"Tzaneen","zip_code":"20"},
{"company_name":"Thoughtblab","address":"37 Colorado Plaza","city":"Espérance Trébuchet","zip_code":"478"},
{"company_name":"Brightdog","address":"2346 Eastwood Road","city":"Guzhen","zip_code":"91301"},
{"company_name":"Myworks","address":"066 Prairieview Alley","city":"Kaliwates","zip_code":"82"},
{"company_name":"Feedfire","address":"5 Lukken Hill","city":"Enschede","zip_code":"771"},
{"company_name":"Zazio","address":"61723 Corben Road","city":"Bom Jesus da Lapa","zip_code":"3185"},
{"company_name":"Oyoloo","address":"97660 Lien Place","city":"Risālpur","zip_code":"09227"},
{"company_name":"Voomm","address":"3 Vernon Way","city":"Magtaking","zip_code":"09360"},
{"company_name":"Quatz","address":"1 Debs Avenue","city":"Marmashen","zip_code":"3"},
{"company_name":"Skyble","address":"2 Eggendart Park","city":"Santa Ana","zip_code":"8"},
{"company_name":"Meembee","address":"91 Green Ridge Trail","city":"Zhendong","zip_code":"85851"},
{"company_name":"Realpoint","address":"1252 Old Gate Road","city":"Bagratashen","zip_code":"4433"},
{"company_name":"Babbleblab","address":"359 Cardinal Hill","city":"Hengdian","zip_code":"285"},
{"company_name":"Kaymbo","address":"80163 Independence Place","city":"Linqu","zip_code":"9"},
{"company_name":"Linktype","address":"44 Declaration Junction","city":"Haoraoshan","zip_code":"7"},
{"company_name":"Muxo","address":"5705 Garrison Park","city":"Dodoma","zip_code":"40793"},
{"company_name":"Devpulse","address":"93 Parkside Way","city":"Gaoling","zip_code":"89"},
{"company_name":"Gigabox","address":"1 Esker Park","city":"Tân An","zip_code":"724"},
{"company_name":"Realmix","address":"489 Sutherland Terrace","city":"Shibi","zip_code":"9"},
{"company_name":"Youbridge","address":"47 Pennsylvania Parkway","city":"Zhuoshui","zip_code":"0357"},
{"company_name":"Centidel","address":"11114 Jackson Alley","city":"Oncativo","zip_code":"964"},
{"company_name":"Vinte","address":"47082 Michigan Hill","city":"Kosong","zip_code":"81009"},
{"company_name":"Dablist","address":"7 Thompson Lane","city":"Jianping","zip_code":"06"},
{"company_name":"Pixonyx","address":"778 Holy Cross Parkway","city":"Gustavsberg","zip_code":"9618"},
{"company_name":"Eadel","address":"80469 Bartillon Avenue","city":"Kolympári","zip_code":"645"},
{"company_name":"Aimbo","address":"30708 Michigan Hill","city":"Nowe Warpno","zip_code":"73"},
{"company_name":"Kwideo","address":"8244 West Park","city":"Lidu","zip_code":"84"},
{"company_name":"Feedfish","address":"69983 Dovetail Terrace","city":"Moba","zip_code":"4"},
{"company_name":"Skivee","address":"4 Doe Crossing Pass","city":"Kamenjane","zip_code":"46"},
{"company_name":"Ozu","address":"8190 Mallard Road","city":"Fenlu","zip_code":"90918"},
{"company_name":"Centizu","address":"13230 Anhalt Circle","city":"Ārān Bīdgol","zip_code":"4"},
{"company_name":"Yoveo","address":"5 Roth Plaza","city":"Abonnema","zip_code":"26"},
{"company_name":"Skipfire","address":"4809 Lakewood Gardens Pass","city":"Linpu","zip_code":"137"},
{"company_name":"Eimbee","address":"0 Dayton Point","city":"Nombre de Jesús","zip_code":"4"},
{"company_name":"Muxo","address":"77 Spaight Trail","city":"Tuzhu","zip_code":"23264"},
{"company_name":"Viva","address":"6 Little Fleur Court","city":"Zhongxin","zip_code":"341"},
{"company_name":"Twitterworks","address":"92385 Sloan Lane","city":"Lantian","zip_code":"52126"},
{"company_name":"Meetz","address":"0 Hanson Circle","city":"Czerniewice","zip_code":"97895"},
{"company_name":"Yombu","address":"24854 Ryan Crossing","city":"Hrodna","zip_code":"65040"},
{"company_name":"Kazio","address":"8436 Hazelcrest Place","city":"Jiufang","zip_code":"7"},
{"company_name":"Wordpedia","address":"81972 Continental Place","city":"Sychëvo","zip_code":"32"},
{"company_name":"Bluezoom","address":"9 Springview Circle","city":"Buyunshan","zip_code":"5964"},
{"company_name":"Plajo","address":"9 Calypso Plaza","city":"Strängnäs","zip_code":"6"},
{"company_name":"Katz","address":"2 Eagle Crest Hill","city":"Pathum Rat","zip_code":"2"},
{"company_name":"Pixope","address":"957 Dayton Junction","city":"Mönhbulag","zip_code":"0"},
{"company_name":"Yodo","address":"64 Rowland Terrace","city":"Suchen","zip_code":"93"},
{"company_name":"Dabtype","address":"95626 Saint Paul Place","city":"Baohe","zip_code":"2"},
{"company_name":"Gabtune","address":"25615 Lotheville Court","city":"Bukavu","zip_code":"255"},
{"company_name":"Voolith","address":"9 Loftsgordon Street","city":"Brzozów","zip_code":"78"},
{"company_name":"Avaveo","address":"37531 Bluestem Circle","city":"Anse Royale","zip_code":"874"},
{"company_name":"Skivee","address":"1 Packers Street","city":"Paris 20","zip_code":"0784"},
{"company_name":"Oodoo","address":"408 Spohn Plaza","city":"Esuk Oron","zip_code":"31643"},
{"company_name":"Youspan","address":"33735 Clemons Drive","city":"Tajike’abati","zip_code":"1474"},
{"company_name":"Agimba","address":"3 Weeping Birch Junction","city":"Manga","zip_code":"6692"},
{"company_name":"Mudo","address":"08867 Evergreen Pass","city":"Pul-e Khumrī","zip_code":"212"},
{"company_name":"Plambee","address":"706 Prairieview Avenue","city":"Indianapolis","zip_code":"50247"},
{"company_name":"Voonix","address":"321 Nobel Place","city":"Camingawan","zip_code":"559"},
{"company_name":"Oodoo","address":"0 Forest Dale Lane","city":"Galaz","zip_code":"0"},
{"company_name":"Bubblebox","address":"8 Donald Circle","city":"Bogandinskiy","zip_code":"537"},
{"company_name":"Skivee","address":"0 Red Cloud Parkway","city":"Aiguo","zip_code":"571"},
{"company_name":"Mybuzz","address":"537 Banding Trail","city":"Yanggu","zip_code":"68724"},
{"company_name":"Yotz","address":"87429 Warbler Drive","city":"Toutai","zip_code":"65419"},
{"company_name":"Thoughtbridge","address":"24 Kingsford Terrace","city":"Tokuyama","zip_code":"91"},
{"company_name":"Brainsphere","address":"96 Hermina Center","city":"Nossa Senhora da Glória","zip_code":"47"},
{"company_name":"Linkbuzz","address":"66 Springs Junction","city":"Bograd","zip_code":"84425"},
{"company_name":"Voolith","address":"974 Shoshone Road","city":"Mandala","zip_code":"22240"},
{"company_name":"Voonix","address":"387 Stang Parkway","city":"Chivor","zip_code":"36"},
{"company_name":"Eabox","address":"967 Moland Place","city":"Hannō","zip_code":"701"},
{"company_name":"Reallinks","address":"44 Jay Road","city":"Bendosari","zip_code":"44050"},
{"company_name":"Twinder","address":"85449 Cherokee Court","city":"Formosa","zip_code":"6656"},
{"company_name":"Quatz","address":"3714 7th Lane","city":"Belém","zip_code":"63337"},
{"company_name":"Edgeblab","address":"84 Riverside Hill","city":"Daxing","zip_code":"82576"},
{"company_name":"Livetube","address":"25665 Forest Center","city":"Upig","zip_code":"0064"},
{"company_name":"Yakitri","address":"12 Sycamore Crossing","city":"Palmas De Gran Canaria, Las","zip_code":"68"},
{"company_name":"Tagcat","address":"18965 Hallows Pass","city":"Drohobych","zip_code":"6223"},
{"company_name":"Myworks","address":"197 Linden Point","city":"Xikou","zip_code":"4998"},
{"company_name":"Aibox","address":"719 Pearson Junction","city":"Pasararba","zip_code":"3816"},
{"company_name":"Zoombeat","address":"150 Farwell Alley","city":"Santa Ana","zip_code":"9074"},
{"company_name":"Livepath","address":"6 Hermina Alley","city":"Zhongshan","zip_code":"7328"},
{"company_name":"Voonder","address":"41881 Warner Road","city":"Yayao","zip_code":"1"},
{"company_name":"Kayveo","address":"930 Springs Place","city":"Lesnoy","zip_code":"6"},
{"company_name":"Quimba","address":"45099 Mayfield Plaza","city":"Salamanca","zip_code":"262"},
{"company_name":"Oba","address":"62 Victoria Junction","city":"Rosignol","zip_code":"5"},
{"company_name":"Gigazoom","address":"1 Beilfuss Street","city":"Cernache do Bonjardim","zip_code":"62209"},
{"company_name":"Topicware","address":"1 Del Mar Park","city":"Aramecina","zip_code":"49794"},
{"company_name":"Skimia","address":"96 Bartelt Avenue","city":"Stockholm","zip_code":"1492"},
{"company_name":"Dynabox","address":"8 Twin Pines Parkway","city":"Sijunjung","zip_code":"128"},
{"company_name":"Voonder","address":"8033 Brickson Park Court","city":"Bezlyudivka","zip_code":"2914"},
{"company_name":"Topiclounge","address":"8 Fieldstone Pass","city":"Curití","zip_code":"07"},
{"company_name":"Yakidoo","address":"86 Spohn Trail","city":"Ash Shuyūkh","zip_code":"7"},
{"company_name":"Muxo","address":"82 Derek Pass","city":"Bang Phlat","zip_code":"41"},
{"company_name":"Kazu","address":"151 La Follette Hill","city":"Heping","zip_code":"9"},
{"company_name":"Voolith","address":"847 Lerdahl Circle","city":"Kokar","zip_code":"602"},
{"company_name":"Jabbersphere","address":"41 Bunker Hill Way","city":"Yuewan","zip_code":"1374"},
{"company_name":"Gigaclub","address":"80239 Raven Court","city":"Jubb Ramlah","zip_code":"54"},
{"company_name":"Quire","address":"029 Badeau Pass","city":"Rönninge","zip_code":"39494"},
{"company_name":"LiveZ","address":"572 Holy Cross Place","city":"Winong","zip_code":"96316"},
{"company_name":"Oozz","address":"7321 Village Green Way","city":"Blois","zip_code":"94006"},
{"company_name":"Roomm","address":"1 Clyde Gallagher Point","city":"Xinglongchang","zip_code":"70249"},
{"company_name":"Browsecat","address":"0034 Dixon Court","city":"Ar Rawḑah","zip_code":"64587"},
{"company_name":"Jazzy","address":"3284 Express Hill","city":"Omīdcheh","zip_code":"5531"},
{"company_name":"Skinix","address":"1 Vidon Street","city":"Odolena Voda","zip_code":"869"},
{"company_name":"Yotz","address":"851 Northview Hill","city":"Lingdangge","zip_code":"9"},
{"company_name":"Browsezoom","address":"5 Corscot Trail","city":"Dongxiang","zip_code":"1"},
{"company_name":"Yacero","address":"0161 Morrow Lane","city":"Puan","zip_code":"8488"},
{"company_name":"Thoughtblab","address":"62 Milwaukee Street","city":"Vista Hermosa","zip_code":"5047"},
{"company_name":"Viva","address":"4 Village Green Hill","city":"Olonets","zip_code":"4115"},
{"company_name":"Avaveo","address":"654 Autumn Leaf Drive","city":"Jinghai","zip_code":"5"},
{"company_name":"Voonder","address":"22813 Clyde Gallagher Terrace","city":"Anolaima","zip_code":"2667"},
{"company_name":"Blogpad","address":"00 Express Street","city":"Foz do Iguaçu","zip_code":"753"},
{"company_name":"Topiclounge","address":"391 Steensland Avenue","city":"Kalasin","zip_code":"42130"},
{"company_name":"Eadel","address":"1821 Superior Junction","city":"Ash Shiḩr","zip_code":"86"},
{"company_name":"Trudeo","address":"21 Bunker Hill Hill","city":"Hukou","zip_code":"127"},
{"company_name":"Devcast","address":"8 Sullivan Terrace","city":"Walakeri","zip_code":"05685"},
{"company_name":"Abatz","address":"82 Washington Parkway","city":"Shuangjie","zip_code":"3"},
{"company_name":"Oba","address":"4 Oak Valley Road","city":"Orahovac","zip_code":"52223"},
{"company_name":"Riffpath","address":"84732 Ryan Place","city":"Veverská Bítýška","zip_code":"005"},
{"company_name":"Dazzlesphere","address":"6 Thierer Plaza","city":"Huddinge","zip_code":"516"},
{"company_name":"Innojam","address":"05 Lake View Way","city":"Shiniu","zip_code":"786"},
{"company_name":"Flipstorm","address":"59824 Dottie Park","city":"Strömstad","zip_code":"59871"},
{"company_name":"Gigashots","address":"7 Packers Circle","city":"Siraway","zip_code":"1"},
{"company_name":"Feedspan","address":"56068 Kennedy Court","city":"Simpang","zip_code":"12944"},
{"company_name":"Yadel","address":"6 Waywood Crossing","city":"Qingshan","zip_code":"552"},
{"company_name":"Mudo","address":"16605 Meadow Valley Drive","city":"Madīnat Lab‘ūs","zip_code":"93469"},
{"company_name":"Tekfly","address":"17417 Linden Plaza","city":"Bueng Sam Phan","zip_code":"78"},
{"company_name":"Youspan","address":"0046 Loomis Center","city":"Mocoa","zip_code":"2028"},
{"company_name":"Demimbu","address":"87802 Talmadge Crossing","city":"Longxi","zip_code":"3"},
{"company_name":"Brainverse","address":"88745 Prairieview Junction","city":"Veselynove","zip_code":"96"},
{"company_name":"Jaxnation","address":"2 Leroy Place","city":"Robertsport","zip_code":"52"},
{"company_name":"Kwilith","address":"0 6th Junction","city":"São Bartolomeu","zip_code":"904"},
{"company_name":"Mycat","address":"80 Gulseth Junction","city":"Nubma","zip_code":"824"},
{"company_name":"Devcast","address":"065 Cardinal Lane","city":"Villamontes","zip_code":"343"},
{"company_name":"Divavu","address":"0842 Oneill Pass","city":"Lyubech","zip_code":"773"},
{"company_name":"Bubblemix","address":"549 Continental Street","city":"Liulin","zip_code":"7"},
{"company_name":"Abata","address":"43355 Fremont Parkway","city":"Andros Town","zip_code":"2063"},
{"company_name":"Yata","address":"18894 Roth Avenue","city":"Palmitas","zip_code":"781"},
{"company_name":"Cogibox","address":"04902 Daystar Drive","city":"Nanyi","zip_code":"64503"},
{"company_name":"Kare","address":"90 Jenifer Circle","city":"Arteche","zip_code":"1"},
{"company_name":"Linkbuzz","address":"515 Montana Junction","city":"Eadestown","zip_code":"23"},
{"company_name":"Shufflebeat","address":"6484 Tony Crossing","city":"Yuanbao","zip_code":"93"},
{"company_name":"Kwinu","address":"31436 Bobwhite Terrace","city":"Tenggong","zip_code":"52141"},
{"company_name":"Reallinks","address":"73 Dakota Terrace","city":"Baitian","zip_code":"2325"},
{"company_name":"Zoomcast","address":"74731 Talisman Terrace","city":"Xujiadian","zip_code":"71346"},
{"company_name":"Myworks","address":"8589 Boyd Junction","city":"Ríohacha","zip_code":"37631"},
{"company_name":"Jayo","address":"0 Lunder Alley","city":"Bašaid","zip_code":"5977"},
{"company_name":"Camido","address":"5098 Southridge Avenue","city":"Tianqian","zip_code":"346"},
{"company_name":"Linkbuzz","address":"742 Anthes Street","city":"San Pablo","zip_code":"29"},
{"company_name":"Meezzy","address":"7232 Oxford Junction","city":"Lavandeira","zip_code":"35962"},
{"company_name":"Vitz","address":"38 Main Place","city":"Hongchuan","zip_code":"41556"},
{"company_name":"Eayo","address":"8341 Marcy Center","city":"Yangba","zip_code":"417"},
{"company_name":"Camido","address":"1611 Dorton Parkway","city":"Rasskazovo","zip_code":"65726"},
{"company_name":"Feedmix","address":"69901 Old Gate Crossing","city":"Yampil’","zip_code":"4"},
{"company_name":"Blogspan","address":"1 Weeping Birch Point","city":"Matagami","zip_code":"84850"},
{"company_name":"Kazio","address":"97939 Hoffman Road","city":"Brodósqui","zip_code":"94"},
{"company_name":"BlogXS","address":"46 Bellgrove Junction","city":"Gävle","zip_code":"00020"},
{"company_name":"Bubblebox","address":"785 Sommers Terrace","city":"San Bernardino","zip_code":"02672"},
{"company_name":"Ooba","address":"8 Summerview Center","city":"Dasuhe","zip_code":"48"},
{"company_name":"Kanoodle","address":"2301 Elgar Drive","city":"Huotian","zip_code":"36"},
{"company_name":"Brainsphere","address":"673 Maple Wood Hill","city":"Ruse","zip_code":"949"},
{"company_name":"Gabcube","address":"290 Lawn Circle","city":"Crnilište","zip_code":"84500"},
{"company_name":"Eabox","address":"8 8th Crossing","city":"Panunggangan","zip_code":"5522"},
{"company_name":"Roombo","address":"238 Fuller Lane","city":"Sadek","zip_code":"08335"},
{"company_name":"Trudeo","address":"96184 Hooker Parkway","city":"Issa","zip_code":"682"},
{"company_name":"Gigashots","address":"604 Darwin Circle","city":"Jiangkou","zip_code":"06"},
{"company_name":"Izio","address":"4898 Prentice Lane","city":"Sidomulyo","zip_code":"0"},
{"company_name":"Aivee","address":"417 Dennis Junction","city":"Rana","zip_code":"79608"},
{"company_name":"Leexo","address":"5 Packers Terrace","city":"Chicago","zip_code":"7"},
{"company_name":"Eire","address":"3127 Dayton Lane","city":"Kučevo","zip_code":"6022"},
{"company_name":"Feedfish","address":"78 Hanover Hill","city":"Agía Foteiní","zip_code":"0"},
{"company_name":"Podcat","address":"34 Bluestem Way","city":"Oji River","zip_code":"7"},
{"company_name":"Jabbersphere","address":"295 International Lane","city":"Ijūin","zip_code":"40711"},
{"company_name":"Pixope","address":"4631 Surrey Drive","city":"Shibi","zip_code":"0"},
{"company_name":"InnoZ","address":"3868 Chive Road","city":"Vetlanda","zip_code":"3"},
{"company_name":"Dazzlesphere","address":"16 Mallory Alley","city":"San Lucas Sacatepéquez","zip_code":"199"},
{"company_name":"Fivebridge","address":"35284 Sycamore Road","city":"Maswarah","zip_code":"50232"},
{"company_name":"Fivebridge","address":"84412 Waxwing Junction","city":"Xiaoyangqi","zip_code":"28419"},
{"company_name":"Vitz","address":"2106 Hintze Road","city":"Qixian","zip_code":"0"},
{"company_name":"Yodoo","address":"01536 Anniversary Pass","city":"Kuzhu","zip_code":"37"},
{"company_name":"Midel","address":"4445 Express Street","city":"Yaozhuang","zip_code":"801"},
{"company_name":"Dablist","address":"6 Dryden Place","city":"Al Jumaylīyah","zip_code":"9212"},
{"company_name":"Devpulse","address":"8316 Dexter Avenue","city":"Bobadela","zip_code":"5"},
{"company_name":"Minyx","address":"59 Bartelt Center","city":"Kirovohrad","zip_code":"392"},
{"company_name":"JumpXS","address":"9 Warbler Place","city":"Dongfu","zip_code":"4308"},
{"company_name":"Katz","address":"12 Erie Terrace","city":"Bồng Sơn","zip_code":"5"},
{"company_name":"Avavee","address":"85 Merchant Parkway","city":"Tacoma","zip_code":"8"},
{"company_name":"Thoughtbridge","address":"87833 Melody Trail","city":"Calceta","zip_code":"3"},
{"company_name":"Feedfish","address":"050 Moulton Avenue","city":"Longgang","zip_code":"050"},
{"company_name":"Bubblemix","address":"96 Maple Place","city":"Kangar","zip_code":"61734"},
{"company_name":"Flipstorm","address":"0 Manitowish Crossing","city":"Canguçu","zip_code":"380"},
{"company_name":"Skimia","address":"5 Cascade Point","city":"Manchioneal","zip_code":"2913"},
{"company_name":"Flashdog","address":"8 Dennis Junction","city":"Palotina","zip_code":"4581"},
{"company_name":"Kayveo","address":"4687 Emmet Alley","city":"Bauru","zip_code":"5"},
{"company_name":"Photojam","address":"9 Mcguire Crossing","city":"Duishan","zip_code":"5"},
{"company_name":"Thoughtbridge","address":"99901 Jana Way","city":"Paobulan","zip_code":"31593"},
{"company_name":"Oyoyo","address":"926 Canary Trail","city":"Heqiao","zip_code":"71214"},
{"company_name":"Vidoo","address":"5795 Pleasure Place","city":"Rembes","zip_code":"01770"},
{"company_name":"Linktype","address":"51728 Bunker Hill Crossing","city":"Meizhuang","zip_code":"50536"},
{"company_name":"Wikizz","address":"4 Marquette Circle","city":"Jianshe","zip_code":"98"},
{"company_name":"Buzzshare","address":"9340 Anniversary Street","city":"Bagacay","zip_code":"58667"},
{"company_name":"Browsebug","address":"35055 Oak Valley Drive","city":"Talldaww","zip_code":"3285"},
{"company_name":"Trunyx","address":"6158 3rd Pass","city":"Anjozorobe","zip_code":"7"},
{"company_name":"Eamia","address":"38 La Follette Parkway","city":"Kiernozia","zip_code":"6"},
{"company_name":"Realfire","address":"92 East Circle","city":"Córdoba","zip_code":"7"},
{"company_name":"Feedspan","address":"906 Boyd Park","city":"Kimil’tey","zip_code":"348"},
{"company_name":"Topiclounge","address":"0147 Manitowish Lane","city":"Arvika","zip_code":"44"},
{"company_name":"Devpulse","address":"631 Graceland Way","city":"Facatativá","zip_code":"6"},
{"company_name":"Tagtune","address":"800 8th Trail","city":"Tabio","zip_code":"4"},
{"company_name":"Topiczoom","address":"027 Little Fleur Street","city":"Yufa","zip_code":"98772"},
{"company_name":"Flashspan","address":"2 Sommers Point","city":"Ralung","zip_code":"793"},
{"company_name":"Kare","address":"46 Sachs Point","city":"Gremyachinsk","zip_code":"069"},
{"company_name":"Linklinks","address":"5619 Sachtjen Drive","city":"Lianghekou","zip_code":"14"},
{"company_name":"Blogtags","address":"3751 Linden Alley","city":"Kraków","zip_code":"6"},
{"company_name":"Tagtune","address":"374 Lillian Center","city":"Savyon","zip_code":"61"},
{"company_name":"Flashset","address":"8917 Merchant Road","city":"Zamoskvorech’ye","zip_code":"1468"},
{"company_name":"Leenti","address":"462 Portage Point","city":"Chajarí","zip_code":"01192"},
{"company_name":"Yamia","address":"2857 Johnson Pass","city":"Pokrovskoye","zip_code":"524"},
{"company_name":"Feedbug","address":"22032 Mandrake Trail","city":"Ouranoupolis","zip_code":"8"},
{"company_name":"Quire","address":"0285 Texas Drive","city":"Crossmolina","zip_code":"391"},
{"company_name":"Fadeo","address":"015 Park Meadow Center","city":"Paamiut","zip_code":"374"},
{"company_name":"Jaxworks","address":"3091 Monica Plaza","city":"Oslo","zip_code":"0"},
{"company_name":"Realcube","address":"7 Village Trail","city":"Mugan","zip_code":"8"},
{"company_name":"Jaxbean","address":"66 Crest Line Avenue","city":"La Guadalupe","zip_code":"229"},
{"company_name":"Bubblemix","address":"2 Homewood Street","city":"Buk","zip_code":"67524"},
{"company_name":"Gabspot","address":"25 Burning Wood Way","city":"Bojong","zip_code":"83"},
{"company_name":"Topicstorm","address":"66 Vidon Terrace","city":"Maunggora","zip_code":"97"},
{"company_name":"Skiba","address":"09024 Schmedeman Alley","city":"Guomaying","zip_code":"2986"},
{"company_name":"Realblab","address":"6 Lighthouse Bay Center","city":"Lípa","zip_code":"90"},
{"company_name":"Talane","address":"250 Myrtle Crossing","city":"Dhahi","zip_code":"334"},
{"company_name":"Talane","address":"52 Mockingbird Circle","city":"Mangunjaya","zip_code":"2674"},
{"company_name":"Wordify","address":"00076 Farragut Pass","city":"Vinha","zip_code":"7192"},
{"company_name":"Linklinks","address":"4 Saint Paul Alley","city":"Malangwa","zip_code":"3"},
{"company_name":"Wordware","address":"2462 Lakeland Place","city":"Moog","zip_code":"6"},
{"company_name":"Yamia","address":"2813 Fuller Pass","city":"Petrovsk","zip_code":"3897"},
{"company_name":"Meejo","address":"8549 Canary Crossing","city":"Turka","zip_code":"08"},
{"company_name":"Yozio","address":"952 Sherman Center","city":"Lenchwe Le Tau","zip_code":"8996"},
{"company_name":"Yamia","address":"5 Blackbird Center","city":"Aknoul","zip_code":"161"},
{"company_name":"Jaxbean","address":"55 Nelson Point","city":"Maikawada","zip_code":"68"},
{"company_name":"Katz","address":"70245 Carpenter Alley","city":"Tiebukenwusan","zip_code":"2509"},
{"company_name":"Livetube","address":"23294 Marcy Park","city":"Xiuyu","zip_code":"6"},
{"company_name":"Zoombox","address":"52 Sage Court","city":"Cherëmushki","zip_code":"097"},
{"company_name":"Tazz","address":"97 Towne Point","city":"Wutumeiren","zip_code":"293"},
{"company_name":"Livefish","address":"736 Sommers Crossing","city":"Kabba","zip_code":"25"},
{"company_name":"Browsetype","address":"7393 Colorado Crossing","city":"Kamyshevka Vtoraya","zip_code":"1"},
{"company_name":"Kare","address":"85 East Hill","city":"Gedaliang","zip_code":"809"},
{"company_name":"Abata","address":"5834 Anzinger Alley","city":"São Miguel do Guamá","zip_code":"27493"},
{"company_name":"Zooxo","address":"2351 Service Court","city":"Bằng Lũng","zip_code":"8730"},
{"company_name":"Demizz","address":"520 Forest Dale Junction","city":"Kebili","zip_code":"66528"},
{"company_name":"Feedbug","address":"34090 Transport Point","city":"Pangpang","zip_code":"91885"},
{"company_name":"Meemm","address":"6 Buena Vista Park","city":"Guojiazhuang","zip_code":"7"},
{"company_name":"Abata","address":"82835 Sunbrook Parkway","city":"Strelka","zip_code":"3735"},
{"company_name":"Thoughtworks","address":"83657 Harper Court","city":"Karagandy","zip_code":"60"},
{"company_name":"Skimia","address":"0 Hazelcrest Alley","city":"Ādam","zip_code":"04"},
{"company_name":"Babbleset","address":"9 Spohn Trail","city":"Al Matūn","zip_code":"372"},
{"company_name":"Skyndu","address":"093 Bayside Point","city":"Yablochnyy","zip_code":"4072"},
{"company_name":"Trilia","address":"151 Bowman Alley","city":"Lizi","zip_code":"9"},
{"company_name":"Feedmix","address":"5871 Schurz Junction","city":"Birr","zip_code":"93"},
{"company_name":"Chatterpoint","address":"21003 Green Trail","city":"Schœlcher","zip_code":"0725"},
{"company_name":"Bluezoom","address":"79 Manufacturers Drive","city":"Tangerang","zip_code":"750"},
{"company_name":"Oyonder","address":"18219 Logan Terrace","city":"Andalan","zip_code":"0404"},
{"company_name":"Jetpulse","address":"4 Grim Lane","city":"Tangchijie","zip_code":"55"},
{"company_name":"Skaboo","address":"1 Weeping Birch Alley","city":"Pangian","zip_code":"24"},
{"company_name":"Buzzdog","address":"0064 Summer Ridge Place","city":"Rende","zip_code":"47796"},
{"company_name":"Skimia","address":"2695 Pleasure Circle","city":"Owo","zip_code":"34"},
{"company_name":"Leexo","address":"955 Crowley Alley","city":"Dahe","zip_code":"963"},
{"company_name":"Avamba","address":"4422 Rowland Terrace","city":"Cacoal","zip_code":"6382"},
{"company_name":"Yombu","address":"21 Forest Dale Way","city":"Magang","zip_code":"9"},
{"company_name":"Skipstorm","address":"36 Transport Alley","city":"Jianshe","zip_code":"87"},
{"company_name":"Dabjam","address":"3 Montana Plaza","city":"Krathum Baen","zip_code":"93297"},
{"company_name":"Twinder","address":"51419 Melby Road","city":"Povedniki","zip_code":"0451"},
{"company_name":"Voomm","address":"85354 Mariners Cove Terrace","city":"Dolisie","zip_code":"26"},
{"company_name":"Fiveclub","address":"03717 Fieldstone Trail","city":"Yazd","zip_code":"2190"},
{"company_name":"Tagtune","address":"14 Kingsford Junction","city":"Kiihtelysvaara","zip_code":"038"},
{"company_name":"Mydo","address":"146 Arrowood Road","city":"Kisanga","zip_code":"3"},
{"company_name":"Centidel","address":"5 Blaine Park","city":"Nobinobi","zip_code":"204"},
{"company_name":"Feedspan","address":"48577 Cardinal Road","city":"Taoyuan","zip_code":"22858"},
{"company_name":"Kanoodle","address":"0 Lake View Terrace","city":"Terny","zip_code":"6"},
{"company_name":"Yacero","address":"757 Nobel Park","city":"Paine","zip_code":"0698"},
{"company_name":"Youspan","address":"812 Graedel Park","city":"Ordos","zip_code":"21"},
{"company_name":"Skajo","address":"09 Green Ridge Center","city":"Rano","zip_code":"948"},
{"company_name":"Muxo","address":"7599 Buena Vista Point","city":"Řehlovice","zip_code":"38460"},
{"company_name":"Gigaclub","address":"9 Kropf Place","city":"Goris","zip_code":"843"},
{"company_name":"Photospace","address":"3 Hansons Lane","city":"Beishidian","zip_code":"48170"},
{"company_name":"Yodel","address":"1111 Fremont Circle","city":"White Rock","zip_code":"0"},
{"company_name":"Topiclounge","address":"7 Fair Oaks Park","city":"Tarkwa","zip_code":"33322"},
{"company_name":"Skyndu","address":"7069 Merry Park","city":"Korsze","zip_code":"9"},
{"company_name":"Cogilith","address":"84490 Everett Place","city":"Dzerzhinsk","zip_code":"334"},
{"company_name":"Thoughtstorm","address":"7 Ilene Terrace","city":"Loo","zip_code":"02452"},
{"company_name":"Voolia","address":"02213 6th Point","city":"Pensacola","zip_code":"84"},
{"company_name":"Jaloo","address":"920 Surrey Park","city":"Antony","zip_code":"53"},
{"company_name":"Rhyzio","address":"32 Harbort Street","city":"Maralal","zip_code":"1"},
{"company_name":"Jayo","address":"8116 Red Cloud Drive","city":"Longchi","zip_code":"5"},
{"company_name":"Oyope","address":"113 Norway Maple Park","city":"Maanĭt","zip_code":"7785"},
{"company_name":"Fadeo","address":"864 Ludington Center","city":"La Poma","zip_code":"2576"},
{"company_name":"Photofeed","address":"19 Duke Junction","city":"Ban Talat Yai","zip_code":"183"},
{"company_name":"Jayo","address":"7106 Manley Drive","city":"Sigayevo","zip_code":"07437"},
{"company_name":"Livepath","address":"81298 Westend Street","city":"Ulricehamn","zip_code":"0"},
{"company_name":"Flipbug","address":"71010 Parkside Street","city":"El Refugio","zip_code":"19696"},
{"company_name":"Edgeify","address":"002 Novick Point","city":"Phumĭ Véal Srê","zip_code":"22"},
{"company_name":"Abatz","address":"89 Browning Circle","city":"Diofior","zip_code":"53"},
{"company_name":"Blognation","address":"31 Westerfield Way","city":"Buenos Aires","zip_code":"99"},
{"company_name":"Browsecat","address":"987 Crescent Oaks Drive","city":"Zibu","zip_code":"965"},
{"company_name":"Wikido","address":"070 Burrows Drive","city":"Dongjia","zip_code":"44643"},
{"company_name":"Quatz","address":"4904 Hoepker Alley","city":"Terang","zip_code":"5"},
{"company_name":"Skiptube","address":"77 Welch Lane","city":"Tongyang","zip_code":"9"},
{"company_name":"Yakitri","address":"4 Burrows Plaza","city":"Norrtälje","zip_code":"416"},
{"company_name":"Abata","address":"39 Onsgard Point","city":"Barra de São Francisco","zip_code":"393"},
{"company_name":"Youfeed","address":"64 Quincy Court","city":"Wakiso","zip_code":"24228"},
{"company_name":"Mudo","address":"59198 Fallview Drive","city":"Kotel’niki","zip_code":"5448"},
{"company_name":"Skyndu","address":"7 Forster Parkway","city":"Trondheim","zip_code":"060"},
{"company_name":"Shufflester","address":"8210 Valley Edge Parkway","city":"Sulbiny Górne","zip_code":"99209"},
{"company_name":"Katz","address":"5823 Sugar Parkway","city":"Laspezia","zip_code":"80624"},
{"company_name":"Einti","address":"5 Carioca Street","city":"Stockholm","zip_code":"117"},
{"company_name":"Edgeblab","address":"847 Melrose Court","city":"Paico","zip_code":"9"},
{"company_name":"Brainlounge","address":"9793 Badeau Plaza","city":"Pushkino","zip_code":"670"},
{"company_name":"Blogtags","address":"6 Towne Street","city":"Manevychi","zip_code":"4566"},
{"company_name":"Browsecat","address":"430 Briar Crest Junction","city":"Batulenger Barat","zip_code":"656"},
{"company_name":"Feedmix","address":"7 Magdeline Alley","city":"Bucu Kidul","zip_code":"59"},
{"company_name":"Quaxo","address":"60362 Mallory Lane","city":"Ol’ginka","zip_code":"6"},
{"company_name":"Centimia","address":"455 Waubesa Crossing","city":"Qal‘ah-ye Shāhī","zip_code":"3"},
{"company_name":"Blognation","address":"57 Southridge Park","city":"Cajicá","zip_code":"87"},
{"company_name":"Flipstorm","address":"6029 Hudson Parkway","city":"Kiruru","zip_code":"384"},
{"company_name":"Topicblab","address":"9991 Schmedeman Lane","city":"Dalumangcob","zip_code":"1"},
{"company_name":"Oyoyo","address":"54 Michigan Alley","city":"Huifeng","zip_code":"5512"},
{"company_name":"Tagopia","address":"3 Center Road","city":"Ajasse Ipo","zip_code":"42440"},
{"company_name":"Twiyo","address":"607 Holmberg Hill","city":"Łomianki","zip_code":"2200"},
{"company_name":"Skiptube","address":"697 Farmco Plaza","city":"Khlong Toei","zip_code":"353"},
{"company_name":"Meezzy","address":"4167 Waxwing Crossing","city":"Sūq ar Rabū‘","zip_code":"67484"},
{"company_name":"Dynabox","address":"1454 Muir Place","city":"Las Palmas","zip_code":"584"},
{"company_name":"Oyonder","address":"21 Tony Place","city":"Carlos Tejedor","zip_code":"18075"},
{"company_name":"Photobug","address":"008 Burning Wood Point","city":"Canaries","zip_code":"05228"},
{"company_name":"Zava","address":"26236 Rieder Avenue","city":"Sîngerei","zip_code":"9"},
{"company_name":"Browsecat","address":"5823 Oxford Avenue","city":"Shangsanji","zip_code":"60"},
{"company_name":"Jetwire","address":"4 Mariners Cove Plaza","city":"Sizhou","zip_code":"91722"},
{"company_name":"Omba","address":"204 Leroy Trail","city":"Shiren","zip_code":"4"},
{"company_name":"Dabtype","address":"4520 Hoepker Alley","city":"Pimbalayan","zip_code":"75222"},
{"company_name":"Shufflebeat","address":"88809 Longview Place","city":"Yoshkar-Ola","zip_code":"8"},
{"company_name":"Bluejam","address":"0521 Stephen Pass","city":"Coutada","zip_code":"611"},
{"company_name":"Fadeo","address":"2 Lyons Center","city":"Liminka","zip_code":"5"},
{"company_name":"Wordpedia","address":"1 Kedzie Crossing","city":"Santa María Ixhuatán","zip_code":"31007"},
{"company_name":"Devshare","address":"2 Kensington Lane","city":"Nzeto","zip_code":"9"},
{"company_name":"Skidoo","address":"79 Spohn Parkway","city":"Noginsk","zip_code":"33"},
{"company_name":"Skyndu","address":"18904 Delladonna Trail","city":"La Tour-du-Pin","zip_code":"6199"},
{"company_name":"Eare","address":"56 Alpine Road","city":"San-Pédro","zip_code":"815"},
{"company_name":"Jabberstorm","address":"19 Namekagon Avenue","city":"Chuquitira","zip_code":"18"},
{"company_name":"Katz","address":"91983 Alpine Avenue","city":"Lidong","zip_code":"6"},
{"company_name":"Zooveo","address":"1 Fisk Lane","city":"Maymana","zip_code":"2202"},
{"company_name":"Browsecat","address":"9 Anzinger Street","city":"Mākū","zip_code":"0240"},
{"company_name":"Skaboo","address":"71061 Fordem Point","city":"Kinmparana","zip_code":"603"},
{"company_name":"Meedoo","address":"40438 Bashford Trail","city":"Bledzew","zip_code":"69719"},
{"company_name":"Vimbo","address":"35279 Ronald Regan Plaza","city":"Qingqu","zip_code":"25592"},
{"company_name":"Yozio","address":"3 Jackson Lane","city":"Douz","zip_code":"66248"},
{"company_name":"Voomm","address":"34314 Prentice Road","city":"Quixadá","zip_code":"66"},
{"company_name":"Skimia","address":"324 Claremont Drive","city":"Tubod","zip_code":"39"},
{"company_name":"Buzzbean","address":"117 Saint Paul Street","city":"Longcheng","zip_code":"86"},
{"company_name":"Roombo","address":"05045 Dapin Lane","city":"Caluya","zip_code":"377"},
{"company_name":"Oyoba","address":"66 Westridge Road","city":"Radomin","zip_code":"4009"},
{"company_name":"BlogXS","address":"45828 Dahle Hill","city":"Bollnäs","zip_code":"04"},
{"company_name":"Livetube","address":"74177 Cambridge Center","city":"Mistřice","zip_code":"89079"},
{"company_name":"Flashspan","address":"09 Melby Terrace","city":"Shuitou","zip_code":"2"},
{"company_name":"Npath","address":"4860 Tony Plaza","city":"Penghua","zip_code":"7523"},
{"company_name":"Fadeo","address":"70 Paget Plaza","city":"Chaínça","zip_code":"18"},
{"company_name":"Oyope","address":"735 Meadow Ridge Drive","city":"Shah Alam","zip_code":"50342"},
{"company_name":"Jaxnation","address":"69 Lunder Street","city":"Sakado","zip_code":"12061"},
{"company_name":"Wikizz","address":"775 Jenna Court","city":"Jalinan","zip_code":"2354"},
{"company_name":"Tambee","address":"0 Towne Parkway","city":"Muḩambal","zip_code":"7903"},
{"company_name":"Eare","address":"68 Lawn Pass","city":"Banatsko Veliko Selo","zip_code":"63784"},
{"company_name":"Eidel","address":"433 Grasskamp Drive","city":"Chivhu","zip_code":"87029"},
{"company_name":"Devpulse","address":"8 Lillian Terrace","city":"Zwolle","zip_code":"844"},
{"company_name":"Tagchat","address":"3543 Lunder Hill","city":"Köln","zip_code":"20648"},
{"company_name":"Dabfeed","address":"65717 Texas Point","city":"Göteborg","zip_code":"6052"},
{"company_name":"Oyoba","address":"98 Oxford Circle","city":"Bayshint","zip_code":"76834"},
{"company_name":"Photospace","address":"34 Morning Terrace","city":"Liběšice","zip_code":"1370"},
{"company_name":"Tekfly","address":"5 Towne Circle","city":"Punākha","zip_code":"650"},
{"company_name":"Browseblab","address":"0455 Fremont Terrace","city":"Jargalant","zip_code":"0"},
{"company_name":"Jetpulse","address":"9 Maryland Crossing","city":"Baitu","zip_code":"62"},
{"company_name":"LiveZ","address":"194 Buhler Drive","city":"Bagong Barrio","zip_code":"7516"},
{"company_name":"Tazzy","address":"536 Sherman Center","city":"Mityana","zip_code":"98215"},
{"company_name":"Brightbean","address":"7563 Fallview Crossing","city":"Ipís","zip_code":"8"},
{"company_name":"Wikido","address":"2 Anniversary Point","city":"Tubungan","zip_code":"7756"},
{"company_name":"Yotz","address":"42 Northview Road","city":"Pszczyna","zip_code":"824"},
{"company_name":"Skajo","address":"019 Merry Road","city":"Salvacion","zip_code":"346"},
{"company_name":"Abatz","address":"632 Elmside Junction","city":"Cambuga","zip_code":"45"},
{"company_name":"Rooxo","address":"093 Forest Dale Way","city":"Huifeng","zip_code":"7"},
{"company_name":"Photobug","address":"19 Pankratz Point","city":"Nedryhayliv","zip_code":"3"},
{"company_name":"Trupe","address":"4076 Transport Center","city":"Lwengo","zip_code":"54425"},
{"company_name":"Agimba","address":"71346 Bluejay Parkway","city":"San Andres","zip_code":"50"},
{"company_name":"Jayo","address":"3117 Meadow Ridge Circle","city":"Mosar","zip_code":"254"},
{"company_name":"Linkbuzz","address":"4459 Mandrake Drive","city":"Tsurib","zip_code":"4032"},
{"company_name":"Roodel","address":"68758 Burning Wood Trail","city":"Shāhīn Dezh","zip_code":"2"},
{"company_name":"Lajo","address":"67 Londonderry Trail","city":"Palu","zip_code":"6714"},
{"company_name":"Dabshots","address":"73 Corry Circle","city":"La Condamine","zip_code":"4"},
{"company_name":"Twitterbridge","address":"69010 Caliangt Lane","city":"Kresna","zip_code":"392"},
{"company_name":"Eadel","address":"3 Westport Avenue","city":"Rio Largo","zip_code":"305"},
{"company_name":"Bubblemix","address":"1911 Novick Crossing","city":"Évosmos","zip_code":"6"},
{"company_name":"Ntag","address":"638 Merrick Alley","city":"Moulins","zip_code":"73200"},
{"company_name":"Zooxo","address":"64 Autumn Leaf Alley","city":"Benito Juarez","zip_code":"126"},
{"company_name":"Browsezoom","address":"1981 Main Avenue","city":"Lopar","zip_code":"401"},
{"company_name":"Vipe","address":"171 Warbler Plaza","city":"Orekhovo-Borisovo Severnoye","zip_code":"79110"},
{"company_name":"Gevee","address":"552 Cordelia Circle","city":"Ikeja","zip_code":"888"},
{"company_name":"Quimm","address":"0 Monterey Street","city":"Lyuboml’","zip_code":"9"},
{"company_name":"Voolith","address":"6 Buena Vista Center","city":"Viejo Daan Banua","zip_code":"5"},
{"company_name":"Ozu","address":"642 Crescent Oaks Drive","city":"Mekkaw","zip_code":"568"},
{"company_name":"Skiba","address":"9 Jana Parkway","city":"Banjar Tengah","zip_code":"473"},
{"company_name":"Twitterbeat","address":"07 Banding Avenue","city":"Hushan","zip_code":"0"},
{"company_name":"Realcube","address":"8 Grasskamp Parkway","city":"Magrath","zip_code":"8802"},
{"company_name":"Wordtune","address":"405 Bashford Terrace","city":"Izazi","zip_code":"85"},
{"company_name":"Photospace","address":"6 Forest Dale Trail","city":"Tomas","zip_code":"9325"},
{"company_name":"Skajo","address":"17 Sullivan Center","city":"Aquiraz","zip_code":"47760"},
{"company_name":"Yata","address":"849 Troy Way","city":"Santa Teresa","zip_code":"36"},
{"company_name":"Kwinu","address":"7 Valley Edge Hill","city":"Nglego","zip_code":"5"},
{"company_name":"Ozu","address":"4537 Elgar Hill","city":"Ma Đa Gui","zip_code":"92"},
{"company_name":"Dabjam","address":"8 Lakewood Gardens Plaza","city":"Renhe","zip_code":"070"},
{"company_name":"Tavu","address":"291 Briar Crest Road","city":"Pacarkeling","zip_code":"0"},
{"company_name":"Gabvine","address":"0 Warbler Trail","city":"Rettikhovka","zip_code":"42592"},
{"company_name":"Riffpedia","address":"249 Little Fleur Crossing","city":"Jelbuk","zip_code":"984"},
{"company_name":"Jabbercube","address":"989 Bartelt Point","city":"Padej","zip_code":"947"},
{"company_name":"Thoughtsphere","address":"844 Warrior Circle","city":"Songhe","zip_code":"01129"},
{"company_name":"Realbridge","address":"7 Chive Crossing","city":"Banquero","zip_code":"464"},
{"company_name":"Photobug","address":"87721 Pearson Parkway","city":"Kortowo","zip_code":"19"},
{"company_name":"Zoonoodle","address":"9 Old Shore Court","city":"General Alvear","zip_code":"39"},
{"company_name":"Browsetype","address":"8980 Tony Place","city":"Yako","zip_code":"5"},
{"company_name":"Realcube","address":"59 Caliangt Street","city":"Abangay","zip_code":"0"},
{"company_name":"Mydo","address":"2 Fairfield Center","city":"Višňova","zip_code":"426"},
{"company_name":"Zoonder","address":"807 Novick Road","city":"Liushui","zip_code":"54734"},
{"company_name":"Cogilith","address":"67 Cardinal Court","city":"Sirājganj","zip_code":"5"},
{"company_name":"Brainbox","address":"20917 Corry Street","city":"Shanxi","zip_code":"5"},
{"company_name":"Camido","address":"25479 Shopko Center","city":"Manevychi","zip_code":"6582"},
{"company_name":"Twimbo","address":"4 Holy Cross Lane","city":"Båstad","zip_code":"3"},
{"company_name":"Oba","address":"496 Schlimgen Drive","city":"Kaduengang","zip_code":"217"},
{"company_name":"Zoomzone","address":"1282 Melby Plaza","city":"Ibiá","zip_code":"77995"},
{"company_name":"Divavu","address":"20048 Claremont Way","city":"Fengcheng","zip_code":"1795"},
{"company_name":"Wordpedia","address":"4329 Loftsgordon Junction","city":"København","zip_code":"9727"},
{"company_name":"Skilith","address":"06 Pond Lane","city":"Savannakhét","zip_code":"49967"},
{"company_name":"Quaxo","address":"1119 Gateway Point","city":"El Paso","zip_code":"1"},
{"company_name":"Omba","address":"147 Farwell Center","city":"Ô Môn","zip_code":"723"},
{"company_name":"Skyble","address":"421 Bonner Parkway","city":"El Carmen","zip_code":"2"},
{"company_name":"Tagopia","address":"578 Sycamore Drive","city":"Kusŏng","zip_code":"91808"},
{"company_name":"Shuffledrive","address":"29 Jenna Road","city":"Masohi","zip_code":"908"},
{"company_name":"Jabberstorm","address":"2031 Nelson Avenue","city":"Semenivka","zip_code":"1006"},
{"company_name":"Oyoba","address":"44 Butterfield Pass","city":"Qulai","zip_code":"2"},
{"company_name":"Thoughtblab","address":"1 Graedel Circle","city":"Aygek","zip_code":"43"},
{"company_name":"Babbleopia","address":"33 Beilfuss Parkway","city":"Stuttgart Stuttgart-Mitte","zip_code":"9054"},
{"company_name":"Blogtag","address":"44 Prairie Rose Circle","city":"Chojnice","zip_code":"53447"},
{"company_name":"Jaxnation","address":"27189 Pennsylvania Street","city":"Carhuac","zip_code":"555"},
{"company_name":"Zoonoodle","address":"10234 Ridge Oak Road","city":"Nam Đàn","zip_code":"0024"},
{"company_name":"Dynava","address":"39 Schurz Plaza","city":"Bošnjaci","zip_code":"4"},
{"company_name":"Jabberstorm","address":"66 Brown Road","city":"Shicheng","zip_code":"512"},
{"company_name":"Tagchat","address":"8047 Petterle Road","city":"Boulaide","zip_code":"2195"},
{"company_name":"Blogtag","address":"65726 Knutson Pass","city":"Cambuga","zip_code":"0082"},
{"company_name":"Realcube","address":"416 Rowland Terrace","city":"Essen","zip_code":"6547"},
{"company_name":"Twimbo","address":"314 Kinsman Terrace","city":"Szubin","zip_code":"62"},
{"company_name":"Wikibox","address":"8980 Petterle Pass","city":"Lenart v Slov. Goricah","zip_code":"09"},
{"company_name":"Skivee","address":"671 Colorado Alley","city":"Zaozerne","zip_code":"4"},
{"company_name":"Topicshots","address":"2 Fordem Lane","city":"Sosnovka","zip_code":"15936"},
{"company_name":"Centidel","address":"0 Cottonwood Plaza","city":"Aglalana","zip_code":"18"},
{"company_name":"Trunyx","address":"8612 Northridge Center","city":"Abangay","zip_code":"8034"},
{"company_name":"Bubblemix","address":"8570 Old Shore Alley","city":"Matagalpa","zip_code":"77"},
{"company_name":"Tavu","address":"1860 Reinke Hill","city":"Naifaru","zip_code":"0"},
{"company_name":"Skilith","address":"1916 Johnson Avenue","city":"Maicao","zip_code":"428"},
{"company_name":"Kare","address":"8 Bunting Park","city":"Dongzaogang","zip_code":"155"},
{"company_name":"Flashdog","address":"921 Algoma Road","city":"Sorong","zip_code":"57755"},
{"company_name":"Dazzlesphere","address":"9 Ridgeway Terrace","city":"Slawharad","zip_code":"2364"},
{"company_name":"Dynabox","address":"4 Union Way","city":"Columbeira","zip_code":"4774"},
{"company_name":"Dabvine","address":"8 Burning Wood Point","city":"Březová","zip_code":"32534"},
{"company_name":"Twitterworks","address":"2 Banding Avenue","city":"Dayeuhluhur","zip_code":"66882"},
{"company_name":"Dabjam","address":"57010 Bowman Road","city":"Tungol","zip_code":"06767"},
{"company_name":"Realfire","address":"91 Cody Plaza","city":"Aix-les-Bains","zip_code":"59"},
{"company_name":"Blognation","address":"2023 Farmco Avenue","city":"Stockholm","zip_code":"348"},
{"company_name":"Eidel","address":"25 Mifflin Circle","city":"Vila Nova da Baronia","zip_code":"712"},
{"company_name":"Kamba","address":"0 Superior Way","city":"Kota Trieng","zip_code":"52"},
{"company_name":"Vipe","address":"752 Eagle Crest Point","city":"Airdrie","zip_code":"804"},
{"company_name":"Babbleopia","address":"7357 Upham Court","city":"Fasi","zip_code":"2"},
{"company_name":"Youopia","address":"25 Oak Valley Drive","city":"Cikomara","zip_code":"70"},
{"company_name":"Quamba","address":"80487 Farmco Park","city":"Iwade","zip_code":"31"},
{"company_name":"Realcube","address":"8873 Waubesa Road","city":"Raymond","zip_code":"4338"},
{"company_name":"Avamba","address":"6 Surrey Pass","city":"Ganjiang","zip_code":"4377"},
{"company_name":"Feednation","address":"69 Melby Place","city":"Basen","zip_code":"84991"},
{"company_name":"Yodel","address":"5 Vidon Terrace","city":"Grujugan","zip_code":"66"},
{"company_name":"Meemm","address":"5 Knutson Center","city":"Dorupare","zip_code":"5243"},
{"company_name":"Mymm","address":"40 Manley Street","city":"Chadong","zip_code":"4"},
{"company_name":"Quatz","address":"1 Garrison Pass","city":"Cengang","zip_code":"56661"},
{"company_name":"Bluezoom","address":"037 International Junction","city":"Summerside","zip_code":"2380"},
{"company_name":"Camimbo","address":"88087 Starling Lane","city":"Biyang","zip_code":"75"},
{"company_name":"Topicstorm","address":"089 Fallview Road","city":"Paris 15","zip_code":"62"},
{"company_name":"Fatz","address":"0 South Parkway","city":"Phra Pradaeng","zip_code":"12"},
{"company_name":"Skivee","address":"090 Fairview Drive","city":"Drahovo","zip_code":"7377"},
{"company_name":"Photospace","address":"710 Trailsway Lane","city":"Langnga","zip_code":"86"},
{"company_name":"Riffpedia","address":"75 Alpine Drive","city":"Chalchuapa","zip_code":"3254"},
{"company_name":"Meejo","address":"7845 Thierer Way","city":"Kambove","zip_code":"5"},
{"company_name":"Yambee","address":"0601 Ludington Place","city":"Vapnyarka","zip_code":"12"},
{"company_name":"Mymm","address":"349 Fulton Junction","city":"Orléans","zip_code":"58"},
{"company_name":"Ozu","address":"7 Del Mar Way","city":"New Kingston","zip_code":"873"},
{"company_name":"Voolith","address":"860 Lunder Crossing","city":"Gorichevo","zip_code":"9343"},
{"company_name":"Aivee","address":"46 Orin Trail","city":"Golubinci","zip_code":"8"},
{"company_name":"Quimba","address":"3 Sunnyside Parkway","city":"Nkhotakota","zip_code":"4673"},
{"company_name":"Blognation","address":"8 Summerview Circle","city":"Grybów","zip_code":"208"},
{"company_name":"Dynabox","address":"4965 8th Place","city":"Antas","zip_code":"5"},
{"company_name":"Eimbee","address":"6534 Golf View Point","city":"Tādif","zip_code":"3"},
{"company_name":"Topicshots","address":"7235 Saint Paul Terrace","city":"Carolina","zip_code":"82"},
{"company_name":"Meezzy","address":"76098 Cherokee Point","city":"Quezon","zip_code":"2"},
{"company_name":"Meemm","address":"34444 Dexter Street","city":"Huangtu","zip_code":"8"},
{"company_name":"Twitternation","address":"0493 Rigney Center","city":"Wufeng","zip_code":"4"},
{"company_name":"Shufflester","address":"75359 South Junction","city":"Mikhnëvo","zip_code":"4"},
{"company_name":"Muxo","address":"43 Springview Way","city":"Osiek nad Notecią","zip_code":"2"},
{"company_name":"Dynava","address":"529 Lukken Alley","city":"Lyskovo","zip_code":"9"},
{"company_name":"Skyndu","address":"7891 Logan Way","city":"Gandara","zip_code":"79459"},
{"company_name":"Podcat","address":"27147 Hansons Circle","city":"Mendes","zip_code":"64201"},
{"company_name":"Skiptube","address":"2900 Dwight Avenue","city":"Gislaved","zip_code":"34"},
{"company_name":"Tekfly","address":"231 Clarendon Hill","city":"Emmen","zip_code":"91236"},
{"company_name":"Talane","address":"2 Petterle Pass","city":"Santa Ana Huista","zip_code":"10450"},
{"company_name":"Skyba","address":"4896 Vermont Street","city":"Indaial","zip_code":"010"},
{"company_name":"Yombu","address":"679 Columbus Terrace","city":"São Silvestre","zip_code":"01069"},
{"company_name":"Rhynyx","address":"23439 Graedel Center","city":"Wangcao","zip_code":"09729"},
{"company_name":"Youfeed","address":"8470 Division Place","city":"San José de Mayo","zip_code":"62455"},
{"company_name":"Yoveo","address":"066 Tony Road","city":"Wonokromo","zip_code":"35696"},
{"company_name":"Eire","address":"67 Troy Way","city":"Suicheng","zip_code":"439"},
{"company_name":"Browsetype","address":"21 Brown Lane","city":"Västerås","zip_code":"262"},
{"company_name":"Topiclounge","address":"3 Armistice Circle","city":"Nanning","zip_code":"9"},
{"company_name":"Wordpedia","address":"485 Blue Bill Park Parkway","city":"Rumbek","zip_code":"1"},
{"company_name":"Wordpedia","address":"9721 Weeping Birch Junction","city":"Pasirhuni","zip_code":"018"},
{"company_name":"Yata","address":"45595 Meadow Vale Plaza","city":"Zhongchuan","zip_code":"95"},
{"company_name":"Dynava","address":"91005 Pierstorff Court","city":"Novoanninskiy","zip_code":"23157"},
{"company_name":"Fivespan","address":"322 Bashford Point","city":"Janja","zip_code":"94760"},
{"company_name":"Ntag","address":"952 Maryland Lane","city":"Zhamog","zip_code":"7100"},
{"company_name":"Divape","address":"8183 Corry Hill","city":"Cemplang","zip_code":"0963"},
{"company_name":"Jatri","address":"52728 Beilfuss Drive","city":"Capitán Solari","zip_code":"51251"},
{"company_name":"Gabtype","address":"56 Barby Crossing","city":"Huangjia","zip_code":"85"},
{"company_name":"Jetpulse","address":"0330 Lakeland Street","city":"Bobigny","zip_code":"28"},
{"company_name":"Mydeo","address":"42177 Jackson Way","city":"Karlstad","zip_code":"5050"},
{"company_name":"Trilia","address":"678 Lunder Court","city":"Anjozorobe","zip_code":"120"},
{"company_name":"Meeveo","address":"60927 Sunfield Plaza","city":"Soly","zip_code":"4"},
{"company_name":"Quire","address":"0326 Canary Parkway","city":"Stockholm","zip_code":"62306"},
{"company_name":"Dynabox","address":"405 Sloan Plaza","city":"Shijiazhuang","zip_code":"81"},
{"company_name":"Edgepulse","address":"1724 Prairie Rose Junction","city":"Mangaratiba","zip_code":"915"},
{"company_name":"Zoomlounge","address":"97366 Emmet Hill","city":"Guardizela","zip_code":"32"},
{"company_name":"Zoomdog","address":"79 Tennessee Terrace","city":"Sopron","zip_code":"2987"},
{"company_name":"Wordpedia","address":"99086 Manitowish Point","city":"Vitim","zip_code":"66"},
{"company_name":"Voolith","address":"09 Grover Park","city":"Khagrachhari","zip_code":"5554"},
{"company_name":"Vimbo","address":"3 Graceland Road","city":"Lapu-Lapu City","zip_code":"5"},
{"company_name":"Jetwire","address":"4360 Center Hill","city":"Santander","zip_code":"831"},
{"company_name":"Agimba","address":"08878 Pond Center","city":"Bisert’","zip_code":"47140"},
{"company_name":"Realbridge","address":"7906 Main Terrace","city":"Maramag","zip_code":"969"},
{"company_name":"Gabvine","address":"0101 Havey Road","city":"Jiesheng","zip_code":"08673"},
{"company_name":"Mycat","address":"791 Corscot Drive","city":"Pustá Polom","zip_code":"51627"},
{"company_name":"Aibox","address":"11700 Village Green Junction","city":"Vista Hermosa","zip_code":"51553"},
{"company_name":"Twinte","address":"2504 Oak Road","city":"Slobodskoy","zip_code":"09"},
{"company_name":"Kaymbo","address":"03422 Heffernan Parkway","city":"Louka","zip_code":"571"},
{"company_name":"Yodel","address":"0145 Arkansas Avenue","city":"Káto Miliá","zip_code":"9"},
{"company_name":"Rhybox","address":"02148 Myrtle Road","city":"Sarankhola","zip_code":"01247"},
{"company_name":"Aivee","address":"58106 Golf View Hill","city":"Dolsk","zip_code":"66161"},
{"company_name":"Twimm","address":"18521 7th Road","city":"Chinchaypujio","zip_code":"60249"},
{"company_name":"Realfire","address":"16 Shoshone Alley","city":"Jarash","zip_code":"94"},
{"company_name":"Ntag","address":"2415 Straubel Hill","city":"Matsuyama","zip_code":"5"},
{"company_name":"Wordware","address":"311 Carberry Plaza","city":"Ponta da Garça","zip_code":"41"},
{"company_name":"Photobean","address":"2 Duke Hill","city":"Sancha","zip_code":"3374"},
{"company_name":"Reallinks","address":"51 Mitchell Crossing","city":"Stanari","zip_code":"7"},
{"company_name":"Gigashots","address":"4073 Prairieview Terrace","city":"Shunde","zip_code":"42"},
{"company_name":"Linkbridge","address":"31 Schmedeman Junction","city":"Gulonggang","zip_code":"92"},
{"company_name":"Eayo","address":"9 Moulton Trail","city":"Klirou","zip_code":"53"},
{"company_name":"Centizu","address":"28 Lerdahl Junction","city":"Ussuriysk","zip_code":"986"},
{"company_name":"Devshare","address":"4 Spohn Road","city":"Kaulon","zip_code":"297"},
{"company_name":"Feedspan","address":"60 Sugar Center","city":"Jamshoro","zip_code":"3"},
{"company_name":"Bluezoom","address":"18 3rd Place","city":"Cigadog","zip_code":"7053"},
{"company_name":"Meezzy","address":"32598 Eagan Street","city":"Ndeaboh","zip_code":"15127"},
{"company_name":"Shuffledrive","address":"8040 Acker Park","city":"Mahdalynivka","zip_code":"84"},
{"company_name":"Yoveo","address":"7564 Fisk Circle","city":"Placer","zip_code":"4322"},
{"company_name":"Dabshots","address":"6894 Stoughton Street","city":"Maputsoe","zip_code":"5706"},
{"company_name":"Viva","address":"8105 Stone Corner Court","city":"Islāmkot","zip_code":"8542"},
{"company_name":"LiveZ","address":"5 Anniversary Center","city":"Ino","zip_code":"06"}]